Facility,Region,County,Y,X,MMBTU_potential,Type,Type_Num
"Mr. Holmes Sites #1 - #14, #1 7, #18, Blueberry Sow, Bladen ,Ammon, and Cypress Creek Farm",Fayetteville,Bladen,34.819191,-78.544711,92586,Multiple,7
Somerset Farm,Washington,Washington,35.8889,-76.5358,79945,Swine - Feeder to Finish,3
White Oaks Farm Inc,Washington,Wayne,35.5161,-77.9231,75802,Multiple,7
"Magnolia III, DM Section 4 Sites 1-4, Section 3 Sites 4-5",Wilmington,Duplin,34.8875,-78.1314,68859,Multiple,7
Farms 27-30,Raleigh,Northampton,36.53905,-77.617575,59143,Swine - Feeder to Finish,3
"5071, 5072, 5073, & 5074",Fayetteville,Robeson,34.693053,-79.342,47696,Swine - Feeder to Finish,3
DM Farms Sec 2 Sites 1-4,Wilmington,Duplin,34.8672,-78.1514,42926,Swine - Wean to Feeder,2
"Stockinghead Creek Farm, LLC Farm",Wilmington,Duplin,34.9131,-77.9531,41258,Swine - Feeder to Finish,3
"Magnolia 4 , Melville I & II, DELL, DM Section 1 Site 4",Fayetteville,Sampson,34.866922,-78.189213,35609,Swine - Feeder to Finish,3
"DM Farms Sec 3 Sites 1-3, Wendy 3-8",Wilmington,Duplin,34.8825,-78.1094,33666,Swine - Feeder to Finish,3
Doug Jernigan Farms,Washington,Wayne,35.230148,-78.098348,29328,Multiple,7
Farm 2037 and 2038,Fayetteville,Sampson,35.000136,-78.222075,28444,Swine - Feeder to Finish,3
The Pig Ranch,Washington,Lenoir,35.0437,-77.687272,27112,Swine - Feeder to Finish,3
D.M. Batts #1 - 5,Fayetteville,Sampson,34.889689,-78.178956,25149,Swine - Feeder to Finish,3
Circle K Farm I & II,Wilmington,Duplin,34.9228,-77.9597,23936,Swine - Wean to Feeder,2
"Double B Farms, Inc. 1-24",Wilmington,Columbus,34.2436,-78.8614,23902,Swine - Feeder to Finish,3
5075 & 5076,Fayetteville,Robeson,34.624506,-79.390653,23848,Swine - Feeder to Finish,3
Smith-Alderman Farm,Wilmington,Duplin,34.7806,-78.1694,23219,Swine - Feeder to Finish,3
Waycross Farm,Wilmington,Duplin,34.8489,-78.1297,23219,Swine - Feeder to Finish,3
J&W Swine Co Inc,Fayetteville,Sampson,35.186138,-78.575659,22756,Swine - Wean to Feeder,2
Moye Farm,Washington,Greene,35.4247,-77.5469,22704,Swine - Feeder to Finish,3
"Kilpatrick Farm 1, 2, 4 & 5 & Merritt Farm",Fayetteville,Sampson,34.883219,-78.163722,22103,Swine - Feeder to Finish,3
Farm 94 / 3094,Fayetteville,Robeson,34.789342,-79.012822,21680,Swine - Feeder to Finish,3
Friendship,Wilmington,Duplin,35.087796,-78.047684,21572,Swine - Feeder to Finish,3
S. Grady 6-9,Wilmington,Duplin,35.0097,-77.9461,21561,Swine - Feeder to Finish,3
Swine Relief LLC,Fayetteville,Hoke,34.8878,-79.318627,21463,Swine - Feeder to Finish,3
DM Farms Sec 1 Site 1 & Sec 2 Site 5,Wilmington,Duplin,34.8483,-78.1597,21463,Swine - Feeder to Finish,3
MKJS Farm Sites 1-3,Fayetteville,Bladen,34.628138,-78.722822,20813,Swine - Feeder to Finish,3
Bladen Twenty Sites 1 & 2,Fayetteville,Bladen,34.504702,-78.560475,20379,Swine - Feeder to Finish,3
Andrews Farm,Washington,Jones,35.05,-77.4383,20315,Multiple,7
Dexter Jackson Farm,Wilmington,Duplin,35.1467,-78.13,19919,Swine - Feeder to Finish,3
Kinlaw Farm #1 - #3,Fayetteville,Bladen,34.703597,-78.683422,19902,Swine - Wean to Feeder,2
"Turn Bull Farm #1, #2 & #3",Fayetteville,Bladen,34.797758,-78.543247,19902,Swine - Wean to Feeder,2
J.E. Grady Farms #1 - 4,Wilmington,Duplin,35.0964,-77.9492,19500,Swine - Feeder to Finish,3
Carroll's Farm # 2096,Fayetteville,Sampson,34.966888,-78.589944,19078,Swine - Feeder to Finish,3
Dogwood Complex / Farm 74411,Fayetteville,Scotland,34.895069,-79.430994,18369,Multiple,7
Sonny Gold / Sonny Swine,Fayetteville,Sampson,35.186605,-78.187138,17994,Swine - Wean to Feeder,2
Sandy Evans 1-18,Fayetteville,Robeson,34.359981,-79.080517,17927,Swine - Feeder to Finish,3
Goshen Ridge Farms,Wilmington,Duplin,35.0758,-77.9694,17561,Swine - Feeder to Finish,3
C&B Farms 1-20,Fayetteville,Sampson,35.165855,-78.351816,17425,Swine - Feeder to Finish,3
"Broadwater Farms, Inc.",Wilmington,Brunswick,34.1119,-78.1139,17344,Swine - Feeder to Finish,3
Double C Farms,Wilmington,Duplin,35.0389,-77.9278,17344,Swine - Feeder to Finish,3
Frenches Creek Finisher and Nursery,Fayetteville,Bladen,34.519136,-78.382786,17307,Multiple,7
Scott Farm Sites 1-4,Wilmington,Duplin,35.0467,-78.09,17250,Swine - Feeder to Finish,3
"L.H. Allen & Son, Inc. - Finishing",Washington,Beaufort,35.6666,-76.6518,17135,Multiple,7
"Farm 2701, 2102 & 2105",Fayetteville,Sampson,34.928158,-78.151152,17070,Swine - Farrow to Wean,1
Farm 5572,Fayetteville,Robeson,34.600053,-79.377925,17066,Swine - Feeder to Finish,3
Farm #14 / 3514,Fayetteville,Sampson,34.773455,-78.197858,17066,Swine - Feeder to Finish,3
East Pork Farm,Raleigh,Halifax,36.17819,-77.572891,"17,066",Swine - Feeder to Finish,3
"Lafayette Farms, LLC    L-11",Wilmington,Onslow,34.9617,-77.665,17058,Swine - Feeder to Finish,3
Cain Complex,Fayetteville,Bladen,34.759775,-78.674275,17013,Multiple,7
Applefield Farm-Lower & Upper,Winston-Salem,Randolph,35.6208,-79.6153,16802,Swine - Feeder to Finish,3
CC/Tomahawk Farm,Fayetteville,Sampson,34.725155,-78.333272,16585,Swine - Feeder to Finish,3
Weaver Farm sites 1-3,Washington,Wayne,35.3208,-78.2569,16585,Swine - Boar/Stud,8
J-D Farms LLC,Fayetteville,Richmond,34.971361,-79.631233,16494,Multiple,7
Grassy Lane Farms I & II,Wilmington,Columbus,34.2611,-78.3811,16477,Swine - Feeder to Finish,3
"MacKey Family Farms, LLC",Washington,Pitt,35.4858,-77.495872,16328,Swine - Feeder to Finish,3
Stilley Farm,Washington,Jones,35.063799,-77.527289,16169,Swine - Wean to Feeder,2
"Bull Creek Farms, LLC Farm",Fayetteville,Bladen,34.846472,-78.646513,16005,Multiple,7
David Gooden Hog Farm 1-16,Fayetteville,Bladen,34.58393,-78.599241,15935,Swine - Feeder to Finish,3
Carlton & Jimmy Barefoot Farm,Fayetteville,Sampson,35.179519,-78.358555,15664,Swine - Feeder to Finish,3
Kilpatrick Farms Inc,Wilmington,Duplin,34.8931,-77.8972,15610,Swine - Feeder to Finish,3
Sansanqua Farms,Wilmington,Duplin,35.078603,-78.063594,15610,Swine - Wean to Feeder,2
LC Farm,Washington,Lenoir,35.164538,-77.799262,15610,Swine - Wean to Feeder,2
Crow's Nest Farm,Washington,Wayne,35.2383,-78.1639,15610,Swine - Feeder to Finish,3
"P&D Farms, Inc.- Wayne Mills Finishing",Washington,Wayne,35.3064,-78.0678,15610,Swine - Feeder to Finish,3
Bobby Harris Farm,Washington,Pitt,35.733,-77.442768,15610,Swine - Wean to Finish,6
Indian Woods,Washington,Bertie,35.9903,-77.1403,15610,Swine - Farrow to Wean,1
Dairy Swine Farm #1 & #2,Washington,Wayne,35.3497,-77.83,15610,Swine - Farrow to Wean,1
"Wiggins Hog Farm, Inc.",Washington,Lenoir,35.2762,-77.823617,15501,Swine - Farrow to Wean,1
Hanor Multiplier,Raleigh,Edgecombe,36.0519,-77.6367,15453,Multiple,7
Al Hill Farms,Washington,Lenoir,35.1614,-77.68137,15312,Swine - Feeder to Finish,3
Cullen Glenn Haddock Farm,Washington,Pitt,35.3994,-77.3506,15210,Swine - Feeder to Finish,3
Farm 3417,Wilmington,Columbus,34.4167,-78.6917,15205,Multiple,7
"Dail Farms Livestock, LLC",Wilmington,Duplin,34.945,-77.9053,15176,Swine - Wean to Feeder,2
Taylor Finishing,Washington,Jones,35.0714,-77.2528,15079,Multiple,7
Doug Bond Farm,Wilmington,Duplin,34.725,-77.7583,14927,Swine - Wean to Feeder,2
E & B Farms #1 - 3,Wilmington,Duplin,34.8483,-77.9492,14927,Swine - Feeder to Finish,3
"Bradsher Farms 1, 2 & 3",Fayetteville,Sampson,34.914686,-78.29793,14927,Swine - Feeder to Finish,3
W&K and McKay Farm,Wilmington,Duplin,34.97497,-77.86583,14927,Swine - Feeder to Finish,3
OK Hog Farm #1 - 3,Wilmington,Duplin,35.0692,-77.7917,14927,Swine - Feeder to Finish,3
"S. Grady 3, 4, & 5",Wilmington,Duplin,35.0736,-77.9569,14927,Swine - Feeder to Finish,3
Flagship Farms,Wilmington,Duplin,34.7653,-78.1389,14927,Swine - Feeder to Finish,3
Sugg Farm,Washington,Greene,35.52436,-77.63811,14791,Swine - Feeder to Finish,3
Waters Farm 1-5  M&M Rivenbark,Wilmington,Duplin,34.879694,-78.155139,14770,Swine - Feeder to Finish,3
"K & S Farms, LLC",Wilmington,Columbus,34.336367,-78.9767,14742,Swine - Feeder to Finish,3
Farm 5570 & 7169,Fayetteville,Scotland,34.806013,-79.379359,14446,Swine - Feeder to Finish,3
Fisher Farms,Wilmington,Columbus,34.365582,-78.73442,14400,Swine - Other,10
"Page Family Farms, LLC",Fayetteville,Harnett,35.326079,-78.970495,14400,Swine - Farrow to Finish,5
Triple K Farm,Washington,Jones,35.0114,-77.3289,14309,Swine - Wean to Feeder,2
Gilt Free Farms,Wilmington,Duplin,35.0183,-78.1333,14309,Swine - Wean to Feeder,2
Carson and Manning Farm,Washington,Pitt,35.7408,-77.37902,14309,Swine - Wean to Feeder,2
Hog Heaven/Triple M Farms,Wilmington,Duplin,35.1278,-77.7989,14309,Swine - Farrow to Wean,1
Farm 2029,Wilmington,Duplin,35.0425,-78.0333,14222,Swine - Feeder to Finish,3
Farm 2046,Fayetteville,Sampson,35.052866,-78.241352,14222,Swine - Feeder to Finish,3
Farm 2039,Fayetteville,Sampson,35.072042,-78.215381,14222,Swine - Boar/Stud,8
Warren Swine Farms (King Farm),Fayetteville,Sampson,35.23293,-78.323372,14118,Multiple,7
S-6 & Buffalo Ridge Farm,Fayetteville,Harnett,35.209808,-79.129535,13839,Multiple,7
"Peg Leg #1, #2, & #3",Fayetteville,Sampson,34.841025,-78.195061,13821,Swine - Farrow to Wean,1
Fishing Creek Farm,Raleigh,Halifax,36.1967,-77.9306,13761,Multiple,7
Farm #25 / 3425,Washington,Jones,34.9806,-77.2889,13693,Multiple,7
"Belvoir Farm, Inc. 1-10, 11-14",Fayetteville,Sampson,35.005511,-78.436102,13631,Swine - Feeder to Finish,3
Onslow Farm,Wilmington,Onslow,34.8603,-77.5906,13554,Swine - Feeder to Finish,3
Spring Valley Farm,Raleigh,Warren,36.5411,-78.2817,13313,Swine - Feeder to Finish,3
Watts Piggy Bank,Wilmington,Columbus,34.1111,-78.7492,13268,Swine - Feeder to Finish,3
Rockfish Farms #1 and 2,Wilmington,Duplin,34.8144,-78.0889,13268,Swine - Wean to Finish,6
Vestal I&II Farm,Wilmington,Duplin,34.932173,-77.938136,13268,Swine - Feeder to Finish,3
Bryan King Farms,Fayetteville,Sampson,34.971797,-78.261291,13268,Swine - Wean to Feeder,2
Linda's Farm,Wilmington,Duplin,35.0547,-78.1403,13268,Swine - Feeder to Finish,3
"S. Grady 1, 2",Wilmington,Duplin,35.0567,-77.8733,13268,Swine - Wean to Feeder,2
Cunningham Farms #1 & 2,Washington,Greene,35.5317,-77.7403,13268,Swine - Feeder to Finish,3
Juniper Farms #1 & #2,Wilmington,Duplin,34.7319,-77.7964,13268,Swine - Feeder to Finish,3
Quail Run Farms 1 & 2,Wilmington,Duplin,34.7533,-78.1117,13268,Swine - Feeder to Finish,3
Matthews Farm #1 & #2,Wilmington,Duplin,34.7931,-78.1197,13268,Swine - Wean to Feeder,2
Corbett Farms 1-4,Wilmington,Duplin,34.8522,-77.9697,13207,Swine - Farrow to Wean,1
Edge Farm / Farm 74451,Fayetteville,Bladen,34.804352,-78.617444,13013,Swine - Farrow to Wean,1
Peterson Farm,Fayetteville,Sampson,34.707683,-78.237938,13008,Swine - Farrow to Wean,1
"Harrison Pork Productions, Inc.",Raleigh,Nash,36.1544,-78.0283,13008,Swine - Wean to Finish,6
Cox Brothers Farms - 601S Farm,Mooresville,Union,34.8564,-80.4197,12780,Swine - Farrow to Feeder,4
Farm 5096,Fayetteville,Scotland,34.784909,-79.390212,12585,Swine - Feeder to Finish,3
Hart Farm,Wilmington,Columbus,34.2433,-78.3806,12358,Swine - Feeder to Finish,3
"B Mack Farms, LLC # 1",Washington,Greene,35.5158,-77.5989,12195,Swine - Feeder to Finish,3
Dirt Road Farm,Washington,Greene,35.4411,-77.5306,12066,Swine - Farrow to Wean,1
"Lafayette Farms, LLC  L-9",Fayetteville,Sampson,34.939261,-78.420022,11951,Swine - Farrow to Wean,1
Pope & Son Houses #1-8 & 10-13,Fayetteville,Sampson,35.077511,-78.379683,11951,Swine - Farrow to Wean,1
Larry Eason Hog Farm Inc.,Fayetteville,Cumberland,35.126086,-78.652589,11951,Swine - Wean to Finish,6
Sandhill Hog Farm,Fayetteville,Bladen,34.490183,-78.853822,11924,Swine - Feeder to Finish,3
Farm 5070,Fayetteville,Scotland,34.763285,-79.349904,11924,Swine - Feeder to Finish,3
Henry Moore Farm,Fayetteville,Sampson,34.775663,-78.261705,11924,Swine - Wean to Feeder,2
Hog's Breath Farm,Fayetteville,Hoke,34.871336,-79.302844,11924,Swine - Feeder to Finish,3
F & W Farms / B - T Farm,Fayetteville,Sampson,34.945919,-78.561236,11924,Swine - Feeder to Finish,3
Wilson's Swine Farm,Fayetteville,Richmond,35.120261,-79.607281,11924,Swine - Feeder to Finish,3
Cavie Farms,Wilmington,Onslow,34.9269,-77.6253,11924,Swine - Feeder to Finish,3
L & M Daughtry Inc.,Fayetteville,Sampson,35.124116,-78.381274,11920,Swine - Wean to Feeder,2
"Enviro Tech 1, 2 & 3",Wilmington,Duplin,35.0144,-77.7839,11763,Multiple,7
Farm 40 A & 40B,Raleigh,Northampton,36.4958,-77.4711,11717,Multiple,7
S&J Farms,Wilmington,Duplin,35.0611,-78.0533,11707,Swine - Feeder to Finish,3
"Ted and Jack Allen, Inc. # 2",Washington,Beaufort,35.4926,-77.1323,11707,Swine - Feeder to Finish,3
Four Oaks,Washington,Pitt,35.5471,-77.17735,11707,Swine - Farrow to Wean,1
"Loyd Ray Farms, Inc.",Winston-Salem,Yadkin,36.1667,-80.7083,11707,Swine - Feeder to Finish,3
Fisher Farms,Mooresville,Union,34.8333,-80.4917,11653,Swine - Feeder to Finish,3
Trumpeter Creek Farms #1 & #2,Wilmington,Pender,34.44276,-77.765691,11610,Swine - Feeder to Finish,3
Charles Wooten Farm #1 & #2,Wilmington,Pender,34.687644,-77.664202,11610,Swine - Feeder to Finish,3
Carter & Sons Hog Farm 1&2,Wilmington,Duplin,34.8994,-77.9283,11610,Swine - Feeder to Finish,3
Cottle Farm,Fayetteville,Sampson,35.1556,-78.2658,11610,Swine - Feeder to Finish,3
Grace Farm,Washington,Greene,35.5114,-77.8,11551,Swine - Wean to Feeder,2
Whaleys Family Farms LLC,Wilmington,Duplin,34.8953,-77.75,11436,Swine - Feeder to Finish,3
Three G Two,Raleigh,Johnston,35.694323,-78.266475,11409,Multiple,7
Marion Mills Farm,Washington,Pitt,35.5405,-77.469289,11382,Swine - Feeder to Finish,3
A&B Hog Farm,Fayetteville,Sampson,34.82633,-78.268677,11165,Swine - Wean to Finish,6
Harold W. Lee & Sons,Raleigh,Johnston,35.3497,-78.3811,11076,Swine - Feeder to Finish,3
Farms # 91 / 8091,Raleigh,Northampton,36.3181,-77.2514,10981,Swine - Feeder to Finish,3
Scott McLamb #1 & #2 & Robert McLamb,Fayetteville,Sampson,35.122205,-78.492827,10900,Swine - Feeder to Finish,3
John Langdon Farm,Raleigh,Johnston,35.497472,-78.548977,10900,Swine - Farrow to Wean,1
Copperhead Farm,Winston-Salem,Randolph,35.5639,-79.6931,10874,Swine - Feeder to Finish,3
Whitakers,Raleigh,Nash,36.139876,-77.759504,10862,Multiple,7
Farm 92,Fayetteville,Bladen,34.716725,-78.801905,10840,Swine - Wean to Feeder,2
"All In Farms, Inc.",Fayetteville,Robeson,34.745044,-78.917589,10840,Swine - Farrow to Wean,1
Passingham Farm,Fayetteville,Sampson,35.053366,-78.215205,10840,Swine - Feeder to Finish,3
"James Naylor Farm, James F. Naylor Farm, Robert Naylor #3",Fayetteville,Sampson,35.155972,-78.400119,10820,Swine - Wean to Feeder,2
Everette Murphrey  #2,Washington,Greene,35.4894,-77.6103,10818,Swine - Feeder to Finish,3
Mark & Pam Denning Farm 1-6,Raleigh,Johnston,35.4167,-78.595486,10800,Swine - Farrow to Wean,1
Luhrs Farm,Wilmington,Columbus,34.4033,-78.9378,10732,Swine - Feeder to Finish,3
Freedman Farm Robeson,Fayetteville,Robeson,34.452944,-79.128642,10732,Swine - Feeder to Finish,3
Roger Oxendine Farm,Fayetteville,Robeson,34.484069,-79.228192,10732,Swine - Feeder to Finish,3
Hoke Smith Jr #1 Farm (Sugar Hill),Fayetteville,Robeson,34.507897,-79.190111,10732,Swine - Feeder to Finish,3
Hoke Smith Jr #3 Farm (Hedge Farm),Fayetteville,Robeson,34.513906,-79.228247,10732,Swine - Feeder to Finish,3
Hoke Smith Jr #4 Farm (Savannah Pond),Fayetteville,Robeson,34.521639,-79.206414,10732,Swine - Feeder to Finish,3
Farm #2 - Aaron Swamp,Fayetteville,Robeson,34.54525,-79.208794,10732,Swine - Feeder to Finish,3
Singletary Finishing,Fayetteville,Bladen,34.591611,-78.798319,10732,Swine - Feeder to Finish,3
Greenwood Finishing #3,Wilmington,Pender,34.659743,-78.068863,10732,Swine - Feeder to Finish,3
Carroll's Farm # 7078 - Unit 1,Fayetteville,Scotland,34.692227,-79.466016,10732,Swine - Feeder to Finish,3
Chris Yaklin Farm,Fayetteville,Richmond,35.114542,-79.791964,10732,Swine - Farrow to Wean,1
Beaver Branch Farm,Washington,Wayne,35.504251,-77.821267,10732,Swine - Feeder to Finish,3
Foxwoods,Washington,Pitt,35.5283,-77.174836,10732,Swine - Farrow to Wean,1
Lee Brothers Farm,Raleigh,Johnston,35.2958,-78.4361,10690,Multiple,7
Maguire/McDaniels Farm,Fayetteville,Sampson,34.862847,-78.4724,10678,Swine - Feeder to Finish,3
Steve Brewer Farm,Raleigh,Edgecombe,36.0244,-77.425,10406,Swine - Feeder to Finish,3
Cundiff Creek Farm,Winston-Salem,Surry,36.2931,-80.5864,10366,Swine - Feeder to Finish,3
Sandy Ridge Farm,Washington,Greene,35.4731,-77.4992,10345,Swine - Feeder to Finish,3
Carson/Collyn Beaman Farm,Washington,Greene,35.5169,-77.6903,10283,Swine - Wean to Finish,6
Overman Farm Inc.,Washington,Wayne,35.2997,-78.1031,10163,Swine - Feeder to Finish,3
Shirley Farm,Washington,Greene,35.5664,-77.7056,10163,Swine - Feeder to Finish,3
Farm 90,Wilmington,Duplin,34.9361,-78.1274,10142,Swine - Wean to Finish,6
Laniers' Farms TCB Inc,Washington,Jones,34.9894,-77.5125,10095,Swine - Feeder to Finish,3
Colonel Lamb Farm,Fayetteville,Sampson,34.87642,-78.46858,10005,Swine - Feeder to Finish,3
"Lafeyette Farms, LLC L-3",Fayetteville,Sampson,34.947455,-78.45058,9996,Swine - Feeder to Finish,3
BJD Farm I,Wilmington,Duplin,34.9478,-78.0367,9973,Swine - Feeder to Finish,3
Boneys Bros. Hog Farm 1-10,Fayetteville,Sampson,35.005394,-78.402063,9959,Swine - Feeder to Finish,3
Danny K. Bass Farm 25-34,Fayetteville,Sampson,35.163163,-78.27368,9959,Swine - Feeder to Finish,3
R&C Swine,Fayetteville,Cumberland,35.169856,-78.690347,9959,Swine - Feeder to Finish,3
"W. Thomas Butler Farms, LLC",Fayetteville,Harnett,35.322333,-78.943123,9959,Swine - Farrow to Wean,1
Donnie Peedin Farm,Washington,Wayne,35.3347,-78.1581,9959,Swine - Wean to Feeder,2
State Line Farm #1 & 2,Wilmington,Columbus,34.0078,-78.7244,9951,Swine - Feeder to Finish,3
Nick Gooden Farm #3,Fayetteville,Bladen,34.578625,-78.546091,9951,Swine - Feeder to Finish,3
Greg Horrell Farm #2 & Addition,Fayetteville,Sampson,34.699461,-78.332383,9951,Swine - Feeder to Finish,3
Jason Cavenaugh I & II,Wilmington,Duplin,34.7733,-77.8403,9951,Swine - Wean to Feeder,2
J.E. Brice Farm,Wilmington,Duplin,34.827022,-78.093942,9951,Swine - Farrow to Wean,1
Mr. Holmes Sites #15 & #16,Fayetteville,Bladen,34.838905,-78.531,9951,Swine - Farrow to Wean,1
Austin Farm #1 & #2,Wilmington,Duplin,34.8475,-77.9361,9951,Swine - Wean to Feeder,2
"The ""General"" HD3 Farm",Wilmington,Duplin,34.8761,-78.0236,9951,Swine - Wean to Feeder,2
Reginald Kenan Farm,Wilmington,Duplin,34.8833,-78.0856,9951,Swine - Feeder to Finish,3
Bowles & Sons Farm Inc Farm 2,Wilmington,Duplin,34.892612,-77.934358,9951,Swine - Feeder to Finish,3
Henry Lucas Farm #1 & #2,Fayetteville,Sampson,34.946275,-78.207386,9951,Swine - Feeder to Finish,3
Whitehorse Farms Inc.,Fayetteville,Sampson,34.981477,-78.163125,9951,Swine - Feeder to Finish,3
Bowles & Son Farm #1,Wilmington,Duplin,35.0542,-77.98,9951,Swine - Wean to Feeder,2
Pitchfork Farms,Washington,Lenoir,35.1817,-77.613714,9951,Swine - Wean to Feeder,2
Wood Farm,Washington,Lenoir,35.2459,-77.795681,9951,Swine - Feeder to Finish,3
"Hugo Farms, LLC Farm",Washington,Lenoir,35.3602,-77.49934,9951,Swine - Feeder to Finish,3
Big Brook #1 & #2,Wilmington,Duplin,34.7497,-77.7481,9951,Swine - Farrow to Wean,1
Ganders Fork,Wilmington,Duplin,34.8833,-77.7467,9951,Swine - Farrow to Wean,1
Williamson Swine Farm,Fayetteville,Sampson,34.876038,-78.275555,9919,Swine - Wean to Feeder,2
Bowles & Sons Farm Inc #3 - Former Heath Farm,Wilmington,Duplin,34.893061,-77.945623,9919,Swine - Feeder to Finish,3
"Humphrey Hog Farm, Inc. Farm",Wilmington,Pender,34.543828,-78.031647,9831,Swine - Feeder to Finish,3
Swain Farm,Fayetteville,Sampson,35.152794,-78.271369,9810,Swine - Feeder to Finish,3
"Reeves & Reeves, Inc.",Fayetteville,Sampson,34.823958,-78.441639,9785,Multiple,7
Farm 91 / Farm 3091,Fayetteville,Bladen,34.524486,-78.474922,9756,Swine - Feeder to Finish,3
Bud Rivenbark Farm,Wilmington,Duplin,34.843225,-77.886975,9756,Swine - Farrow to Wean,1
S & J Farms #2,Wilmington,Duplin,35.0697,-78.0531,9756,Swine - Feeder to Finish,3
Moore Brothers - Beaver Creek Farm,Washington,Jones,35.1394,-77.4744,9756,Swine - Feeder to Finish,3
Sandy Creek Farms,Washington,Lenoir,35.2065,-77.785869,9756,Swine - Feeder to Finish,3
Razorback Farms LLC,Washington,Lenoir,35.255,-77.822606,9756,Swine - Feeder to Finish,3
Mr. Gordon's Farm,Washington,Greene,35.4125,-77.8058,9756,Swine - Wean to Feeder,2
Peachtree Creek Farm Inc.,Raleigh,Franklin,36.0094,-78.1397,9756,Swine - Feeder to Finish,3
Thorton Swine Farm Bldgs. 1-8 & new farm,Fayetteville,Sampson,35.144411,-78.263377,9725,Multiple,7
HD3 Lucas Dairy Farm,Fayetteville,Sampson,34.954036,-78.214186,9642,Swine - Farrow to Wean,1
2070,Fayetteville,Sampson,34.807358,-78.29968,9588,Swine - Farrow to Wean,1
"B & F Farms, Inc.",Wilmington,Columbus,34.2931,-78.9658,9539,Swine - Feeder to Finish,3
Collins Swine Farm,Wilmington,Columbus,34.36898,-78.784544,9539,Swine - Feeder to Finish,3
Double R Farms #2,Wilmington,Columbus,34.457135,-78.838562,9539,Swine - Feeder to Finish,3
"Melvin Bros Farms, LLC",Fayetteville,Bladen,34.571938,-78.823838,9539,Swine - Feeder to Finish,3
Gene Wells Farm,Wilmington,Pender,34.605,-77.9825,9539,Swine - Feeder to Finish,3
M&T Farm,Fayetteville,Robeson,34.63885,-79.436017,9539,Swine - Feeder to Finish,3
Chris and Jeremy Bond Farm,Wilmington,Duplin,34.7625,-77.8294,9539,Swine - Feeder to Finish,3
H&C Farm,Fayetteville,Sampson,35.011463,-78.182833,9539,Swine - Wean to Feeder,2
"Jim Grady and Sons, Inc.",Wilmington,Duplin,35.0653,-78.0678,9539,Swine - Wean to Feeder,2
Collier Farms Inc,Fayetteville,Cumberland,35.115792,-78.645961,9539,Swine - Wean to Feeder,2
Clarence Smith Finishing,Washington,Lenoir,35.132,-77.673877,9539,Swine - Farrow to Wean,1
Kennedy Farm #1,Fayetteville,Sampson,35.199114,-78.251505,9539,Swine - Feeder to Finish,3
Collins Farms,Wilmington,Onslow,34.8428,-77.2736,9539,Swine - Feeder to Finish,3
Double T Hog Farm,Wilmington,Onslow,34.8822,-77.5689,9485,Swine - Wean to Feeder,2
ABC Swine Services,Fayetteville,Sampson,35.065069,-78.458086,9455,Swine - Feeder to Finish,3
Farm 2026,Fayetteville,Sampson,35.049105,-78.176486,9439,Swine - Wean to Feeder,2
G&R Farms,Fayetteville,Sampson,35.216722,-78.415733,9336,Swine - Wean to Feeder,2
A & D Farms,Fayetteville,Bladen,34.766825,-78.589936,9268,Swine - Feeder to Finish,3
Wood Farms,Washington,Greene,35.4783,-77.5806,9106,Swine - Feeder to Finish,3
Smith Farms,Wilmington,Duplin,35.0203,-77.8072,9024,Swine - Feeder to Finish,3
Winters Tract - Grady,Wilmington,Duplin,35.0575,-78.0778,8943,Swine - Farrow to Wean,1
"Owl Pond, Heath Farm & Hog City",Washington,Lenoir,35.1028,-77.675322,8896,Multiple,7
"Ward Farms, Inc.",Fayetteville,Robeson,34.746594,-78.956739,8808,Swine - Feeder to Finish,3
Waters Bros. LLC,Fayetteville,Sampson,34.9454,-78.232719,8780,Swine - Feeder to Finish,3
Millbrook Farms Inc.,Fayetteville,Sampson,35.086484,-78.202006,8780,Swine - Feeder to Finish,3
Jack Grady Farm,Washington,Lenoir,35.1715,-77.66937,8780,Swine - Feeder to Finish,3
JH Farm,Fayetteville,Sampson,35.18835,-78.402519,8780,Swine - Feeder to Finish,3
Richard Waller Farm,Wilmington,Duplin,35.1381,-77.8825,8737,Swine - Feeder to Finish,3
"Davistown Farming, LLC",Raleigh,Edgecombe,35.813739,-77.612747,8675,Swine - Wean to Finish,6
Bell Swamp Farm,Wilmington,Brunswick,34.097063,-78.151852,8672,Swine - Feeder to Finish,3
Barry Shepard Farm,Wilmington,Onslow,34.7258,-77.5678,8672,Swine - Feeder to Finish,3
Earl Davis Farm,Wilmington,Duplin,34.9544,-78.0214,8672,Swine - Wean to Feeder,2
Earl Davis Farm Site II,Wilmington,Duplin,34.959839,-78.017098,8672,Swine - Feeder to Finish,3
Whitewoods Farm,Fayetteville,Sampson,34.960588,-78.489094,8672,Swine - Feeder to Finish,3
Marcus Daniels Farm,Fayetteville,Sampson,34.994466,-78.586933,8672,Swine - Feeder to Finish,3
N&T Farm 1-8,Wilmington,Duplin,35.031011,-77.897516,8672,Swine - Feeder to Finish,3
Pork KROP Inc Sites 1 & 2,Wilmington,Duplin,35.0639,-78.125,8672,Swine - Feeder to Finish,3
"Five Farms, LLC",Washington,Lenoir,35.1068,-77.572836,8672,Swine - Feeder to Finish,3
Albertson Farm,Wilmington,Duplin,35.134527,-77.824593,8672,Swine - Farrow to Wean,1
"Steeds Farm, Inc. 2",Wilmington,Duplin,35.1269,-77.8964,8672,Swine - Farrow to Wean,1
BJD Farms II,Wilmington,Duplin,34.8061,-78.0969,8672,Swine - Feeder to Finish,3
Ed Stevens,Washington,Wayne,35.2994,-78.1417,8672,Swine - Feeder to Finish,3
Harrells Farm,Fayetteville,Sampson,34.747738,-78.231486,8621,Swine - Feeder to Finish,3
Pork Chop Hill Farm,Fayetteville,Sampson,35.218236,-78.358683,8561,Multiple,7
Farm 2104 and 2106,Fayetteville,Sampson,34.903997,-78.167027,8482,Swine - Feeder to Finish,3
A.J. Smith & Sons Inc,Washington,Chowan,36.1225,-76.6325,8423,Swine - Feeder to Finish,3
"Fox Bay Farm, LLC",Fayetteville,Bladen,34.589905,-78.817327,8347,Swine - Feeder to Finish,3
Rose Swine Farms,Fayetteville,Sampson,35.206019,-78.321011,8347,Swine - Feeder to Finish,3
Byard Kornegay Farm,Wilmington,Duplin,35.1439,-78.0472,8340,Swine - Feeder to Finish,3
William James Farm,Wilmington,Duplin,34.7319,-77.7181,8293,Swine - Feeder to Finish,3
"Triple D Farm, LLC",Wilmington,Duplin,34.7556,-77.6833,8293,Swine - Wean to Feeder,2
Sholar Farm,Fayetteville,Sampson,34.768025,-78.247361,8293,Swine - Feeder to Finish,3
Makin Bacon,Fayetteville,Sampson,34.869797,-78.273688,8293,Swine - Feeder to Finish,3
Glade Ridge,Wilmington,Duplin,34.8911,-77.685,8293,Swine - Feeder to Finish,3
Benson Farm,Wilmington,Duplin,35.0619,-77.9978,8293,Swine - Feeder to Finish,3
Tommy Naylor Farm #1 & #2,Fayetteville,Sampson,35.134591,-78.4503,8293,Swine - Wean to Feeder,2
Anthony Naylor #1 & #2,Fayetteville,Sampson,35.146044,-78.387802,8293,Swine - Feeder to Finish,3
Wake-Kyle Farm,Washington,Wayne,35.325479,-78.134296,8293,Swine - Feeder to Finish,3
Robert Ward Farm,Wilmington,Brunswick,34.100234,-78.145053,8238,Swine - Feeder to Finish,3
Jack Alphin Farm 1-9,Wilmington,Duplin,35.1164,-77.9736,8238,Swine - Feeder to Finish,3
Warren & Warren Farm,Fayetteville,Sampson,34.954292,-78.241102,8184,Swine - Feeder to Finish,3
Ernest Odum I & II,Fayetteville,Sampson,34.944211,-78.396286,8164,Swine - Feeder to Finish,3
C & M I,Fayetteville,Sampson,34.960405,-78.170441,8130,Swine - Feeder to Finish,3
John O. Royal #1-8,Fayetteville,Sampson,35.113408,-78.426333,8130,Swine - Feeder to Finish,3
Forrest Rouse Farm,Washington,Lenoir,35.1793,-77.797182,8130,Swine - Feeder to Finish,3
Ham Town Farm,Washington,Greene,35.4225,-77.7681,8130,Swine - Feeder to Finish,3
Cloverdale Farm,Washington,Pitt,35.5212,-77.250548,8130,Swine - Feeder to Finish,3
Franklin Finisher,Raleigh,Franklin,36.1558,-78.065,8113,Swine - Feeder to Finish,3
Dail Brothers & Edward Dail 5-12,Wilmington,Duplin,34.9683,-77.925,8113,Multiple,7
Cottle Farm,Wilmington,Duplin,35.044596,-77.936535,8062,Swine - Feeder to Finish,3
Shallington's Mills Nursery,Raleigh,Wilson,35.7792,-77.7417,8000,Swine - Feeder to Finish,3
Triple S Swine Farm,Washington,Greene,35.4364,-77.8153,7995,Swine - Farrow to Wean,1
NC Wolf & Pack,Wilmington,Pender,34.6558,-78.0869,7979,Multiple,7
Double R Farms,Wilmington,Columbus,34.3547,-78.7758,7967,Swine - Feeder to Finish,3
Norris Farm #2,Fayetteville,Bladen,34.541061,-78.543486,7967,Swine - Feeder to Finish,3
C.E.R. Inc.,Fayetteville,Bladen,34.592744,-78.56143,7967,Swine - Feeder to Finish,3
M&R Farms,Fayetteville,Sampson,34.688263,-78.180858,7967,Swine - Wean to Feeder,2
"Lafayette Farms, LLC  L-7",Fayetteville,Sampson,34.911742,-78.372683,7967,Swine - Feeder to Finish,3
"Knowles-Carter Farms, LLC",Fayetteville,Sampson,34.918169,-78.313866,7967,Swine - Farrow to Wean,1
OK Farms,Fayetteville,Cumberland,34.932667,-78.632761,7967,Swine - Feeder to Finish,3
Gordan Rouse Ivey Farm,Wilmington,Duplin,35.0886,-77.9839,7967,Swine - Feeder to Finish,3
Darden Farms,Fayetteville,Sampson,35.092269,-78.300733,7967,Swine - Farrow to Wean,1
"Tyndall Hog & Chicken Farm, Inc.",Fayetteville,Sampson,35.0967,-78.3689,7967,Swine - Feeder to Finish,3
Brewer Hog Farm 1-8,Fayetteville,Sampson,35.101408,-78.267947,7967,Swine - Feeder to Finish,3
Goshen Farms,Fayetteville,Sampson,35.131055,-78.235197,7967,Swine - Feeder to Finish,3
Gary Baggett & Son,Fayetteville,Sampson,35.140816,-78.472502,7967,Swine - Feeder to Finish,3
Strickland Farms 5-12,Washington,Wayne,35.23,-78.1722,7967,Swine - Feeder to Finish,3
Double T Farms,Washington,Wayne,35.2714,-78.1717,7967,Swine - Farrow to Wean,1
Black Farm,Fayetteville,Harnett,35.295981,-78.939447,7967,Swine - Wean to Feeder,2
Farm 7442,Fayetteville,Robeson,34.825428,-78.943675,7945,Multiple,7
W S Matthews Farms #2,Wilmington,Duplin,34.9667,-78.0908,7934,Multiple,7
Thigpen's Pig Pens,Wilmington,Duplin,34.87,-77.7522,7902,Swine - Wean to Feeder,2
Shadow Glenn & Webber Farm,Fayetteville,Bladen,34.621263,-78.351747,7892,Multiple,7
Brock Family Farms 1-8,Wilmington,Duplin,35.0972,-78.0275,7886,Swine - Feeder to Finish,3
Pender I & II,Wilmington,Pender,34.5911,-78.1575,7842,Multiple,7
Triad Farms #1 and #2,Fayetteville,Sampson,34.839036,-78.223655,7842,Multiple,7
Tom Mintz Farm,Wilmington,Brunswick,34.1108,-78.5225,7805,Swine - Feeder to Finish,3
Lola Sealey Rouse #4,Fayetteville,Robeson,34.380206,-79.085872,7805,Swine - Feeder to Finish,3
LD & Winfred Maready Farm,Wilmington,Duplin,34.7311,-77.7328,7805,Swine - Feeder to Finish,3
Danny Brown Farm,Wilmington,Duplin,34.8283,-77.7936,7805,Swine - Feeder to Finish,3
Perry Smith Farm,Fayetteville,Sampson,34.945583,-78.156316,7805,Swine - Farrow to Wean,1
Ronald Ezzell Farm #1-8,Wilmington,Duplin,34.9681,-78.1542,7805,Swine - Wean to Feeder,2
Louis Quinn Howard Farm,Wilmington,Duplin,34.9886,-77.8789,7805,Swine - Feeder to Finish,3
Double C Farms,Fayetteville,Hoke,35.019994,-79.379233,7805,Swine - Feeder to Finish,3
Kitty Noecker Farm,Wilmington,Duplin,35.0286,-77.7917,7805,Swine - Feeder to Finish,3
King 1 - 8,Fayetteville,Sampson,35.073613,-78.265144,7805,Swine - Farrow to Wean,1
King 9-16,Fayetteville,Sampson,35.079011,-78.262294,7805,Swine - Feeder to Finish,3
Jordan Farm,Wilmington,Duplin,35.145728,-77.853752,7805,Swine - Feeder to Finish,3
Parker Price Farm,Washington,Lenoir,35.1982,-77.81812,7805,Swine - Feeder to Finish,3
"Rosin Hill Swine Farm, Inc.",Fayetteville,Sampson,35.200558,-78.402786,7805,Swine - Feeder to Finish,3
Ward Farm,Washington,Wayne,35.2139,-77.9042,7805,Swine - Feeder to Finish,3
T&D Farms,Washington,Wayne,35.239506,-77.828245,7805,Swine - Feeder to Finish,3
Sandy Ridge Farm,Washington,Wayne,35.2767,-78.2533,7805,Swine - Wean to Feeder,2
Roy G. Nation Swine Farm,Washington,Wayne,35.2883,-77.8389,7805,Swine - Boar/Stud,8
Leonard Smith Farm,Washington,Wayne,35.2994,-78.1381,7805,Swine - Wean to Feeder,2
Ham Farm,Washington,Wayne,35.321543,-77.965996,7805,Swine - Feeder to Finish,3
Ralph Weaver Hog Farms,Washington,Wayne,35.3294,-78.1436,7805,Swine - Wean to Feeder,2
William Earl Cruse Farm,Washington,Wayne,35.37,-77.8333,7805,Swine - Feeder to Finish,3
Bryant Worley Farm,Washington,Wayne,35.4139,-78.1278,7805,Swine - Feeder to Finish,3
EMS Hog Farms Inc,Washington,Wayne,35.4233,-77.8744,7805,Swine - Gilts,9
Yelverton Farms Ltd,Washington,Wayne,35.5067,-77.8633,7805,Swine - Other,10
Flynn Grove,Washington,Greene,35.5083,-77.7028,7805,Swine - Feeder to Finish,3
"ER Farms, LLC",Raleigh,Johnston,35.5269,-78.1548,7805,Swine - Feeder to Finish,3
Green Leaf Farm,Washington,Pitt,35.5407,-77.170136,7805,Swine - Feeder to Finish,3
Chester Ray Norville Farm,Washington,Pitt,35.6394,-77.67607,7805,Swine - Wean to Finish,6
Phil Bulluck Farm,Raleigh,Edgecombe,36.0389,-77.7169,7805,Swine - Feeder to Finish,3
B & M Farms # 2 - Edwards Tract,Wilmington,Duplin,35.045,-78.0778,7805,Swine - Feeder to Finish,3
Family Farms Inc,Wilmington,Duplin,35.0569,-77.8003,7805,Swine - Feeder to Finish,3
Grantham Farms,Washington,Wayne,35.3078,-78.2089,7805,Swine - Feeder to Finish,3
Hull Road Farm,Washington,Greene,35.4714,-77.6356,7776,Swine - Wean to Feeder,2
King Farms - Hallsville Farms,Wilmington,Duplin,34.8833,-77.8194,7751,Swine - Farrow to Wean,1
Rainbow Farm,Wilmington,Duplin,34.9508,-78.0481,7724,Swine - Feeder to Finish,3
Jonestown Hog Farm LLC,Washington,Lenoir,35.0781,-77.6528,7724,Swine - Wean to Feeder,2
Riverfront #1 & 2,Fayetteville,Sampson,34.692025,-78.338267,7705,Multiple,7
"Zack McCullen Farm1-4, 7-10",Fayetteville,Sampson,35.047188,-78.302744,7696,Swine - Wean to Feeder,2
Magnolia Farms 1&2,Wilmington,Duplin,34.915,-78.0933,7690,Multiple,7
Godwin Farms,Fayetteville,Sampson,35.152311,-78.373088,7656,Swine - Feeder to Finish,3
Quality Farms Inc,Fayetteville,Bladen,34.637158,-78.689033,7588,Swine - Feeder to Finish,3
Moore's Swine Farm,Raleigh,Nash,36.1,-77.9583,7588,Swine - Farrow to Wean,1
DBA: Dail Brothers,Wilmington,Duplin,34.9542,-77.925,7561,Swine - Farrow to Wean,1
Dekalb Wells Farm,Wilmington,Duplin,34.8267,-78.1208,7552,Multiple,7
Brad Brinson Farm,Wilmington,Duplin,34.7842,-77.7725,7447,Swine - Farrow to Wean,1
Jimmy Britt Farm,Wilmington,Duplin,35.0792,-77.7533,7344,Swine - Feeder to Finish,3
"Triple L Livestock, Inc. & Triple “L” Farms",Fayetteville,Sampson,35.139238,-78.372075,7294,Swine - Wean to Feeder,2
Woodcliff Farm,Washington,Pitt,35.5368,-77.24484,7229,Swine - Feeder to Finish,3
Beach Island Farm,Wilmington,Duplin,34.8783,-77.7444,7219,Swine - Farrow to Wean,1
Creekside Farms,Raleigh,Johnston,35.3683,-78.3206,7209,Swine - Wean to Feeder,2
Williams Hog Farm,Fayetteville,Sampson,34.964861,-78.388116,7188,Swine - Wean to Feeder,2
Rocky Ridge Farm,Fayetteville,Richmond,35.089817,-79.787142,7182,Swine - Feeder to Finish,3
Lola Sealey Rouse #2,Fayetteville,Robeson,34.412647,-79.03845,7154,Swine - Feeder to Finish,3
L.C. Carter Farm,Wilmington,Columbus,34.4217,-78.8656,7154,Swine - Feeder to Finish,3
Hugs Hogs Inc,Fayetteville,Bladen,34.627591,-78.684031,7154,Swine - Feeder to Finish,3
Farm 50793-1,Fayetteville,Scotland,34.697849,-79.486464,7154,Swine - Wean to Feeder,2
Papa Smurf Farm,Wilmington,Duplin,34.7914,-77.7847,7154,Swine - Feeder to Finish,3
Cedar Lane Farm,Wilmington,Duplin,34.905,-77.7394,7154,Swine - Feeder to Finish,3
Rex Halso & Son,Wilmington,Onslow,34.9236,-77.6044,7154,Swine - Feeder to Finish,3
Hope Farming Co. Farm,Fayetteville,Sampson,34.942966,-78.327516,7154,Swine - Feeder to Finish,3
"Z. McCullen Farms, LLC",Fayetteville,Sampson,34.997544,-78.261325,7154,Swine - Wean to Feeder,2
"B & S Turner Farms, Inc.",Washington,Jones,35.0417,-77.6486,7154,Swine - Wean to Feeder,2
Mike Chambers Farm,Wilmington,Duplin,35.0658,-77.9581,7154,Swine - Feeder to Finish,3
"D & O Farms, LLC",Washington,Lenoir,35.1101,-77.74995,7154,Swine - Wean to Feeder,2
Sycamore Farms Inc / Roberson Family Farms,Washington,Jones,35.1614,-77.5106,7154,Swine - Wean to Feeder,2
Holland Farms,Wilmington,Pender,34.6583,-78.025,7154,Swine - Feeder to Finish,3
E & J Farm,Wilmington,Duplin,35.0519,-77.9703,7154,Swine - Feeder to Finish,3
Stephen Howard Farm,Fayetteville,Sampson,35.091933,-78.5597,7081,Swine - Farrow to Wean,1
Doc Anderson Farms,Washington,Wayne,35.245,-78.141211,7069,Swine - Boar/Stud,8
Everette Murphrey Farm,Washington,Greene,35.5333,-77.5619,7043,Swine - Wean to Finish,6
West Farms,Wilmington,Duplin,34.793692,-77.927467,6992,Swine - Wean to Feeder,2
Robert H Jessup Farm #1,Fayetteville,Bladen,34.547022,-78.52475,6971,Swine - Feeder to Finish,3
Robert H Jessup Farm #2,Fayetteville,Bladen,34.5528,-78.524133,6971,Swine - Feeder to Finish,3
"Runt, Meat & Reds Hog Farm",Fayetteville,Sampson,34.894358,-78.280222,6971,Swine - Feeder to Finish,3
B&B Tyndall Farm,Fayetteville,Sampson,35.080911,-78.391363,6971,Swine - Feeder to Finish,3
T&P Farms,Fayetteville,Sampson,34.861802,-78.284808,6965,Swine - Feeder to Finish,3
Marcus Daniels #2 Farm,Fayetteville,Sampson,34.975769,-78.458725,6919,Swine - Wean to Feeder,2
Hill and Taylor Farm,Washington,Jones,35.0386,-77.6156,6912,Multiple,7
Waycross Farm,Fayetteville,Sampson,34.835319,-78.181572,6911,Swine - Feeder to Finish,3
Kerr Farm,Fayetteville,Sampson,34.633913,-78.219686,6896,Swine - Wean to Finish,6
Edward's Bridge Farm,Washington,Greene,35.4386,-77.4831,6896,Swine - Farrow to Wean,1
Little Creek Hog Farm,Washington,Greene,35.4347,-77.5011,6895,Swine - Other,10
"Rouse Livestock, Inc.",Washington,Lenoir,35.18,-77.819277,6829,Swine - Feeder to Finish,3
Hendrix Livestock Inc.,Fayetteville,Hoke,34.948088,-79.272325,6775,Swine - Feeder to Finish,3
M & M Swine Farm,Washington,Greene,35.4408,-77.7289,6775,Swine - Farrow to Feeder,4
Hurst Farm,Washington,Lenoir,35.0317,-77.721622,6721,Swine - Feeder to Finish,3
Billy Dail Swine Farm,Washington,Greene,35.3758,-77.6625,6671,Swine - Feeder to Finish,3
John Hope Farm # 2,Fayetteville,Sampson,34.893419,-78.343058,6640,Swine - Feeder to Finish,3
Anders Farm,Wilmington,Columbus,34.06,-78.6833,6634,Swine - Feeder to Finish,3
Hall Farm 1 & 2,Wilmington,Pender,34.455,-77.9611,6634,Swine - Feeder to Finish,3
J. B. Priest Farm 1,Fayetteville,Bladen,34.497027,-78.528186,6634,Swine - Feeder to Finish,3
Jo-Jo Farm and Hadden Farm,Wilmington,Pender,34.5836,-78.0067,6634,Swine - Feeder to Finish,3
Bobby Sholar Farm,Wilmington,Duplin,34.7367,-77.7978,6634,Swine - Feeder to Finish,3
Duland Jenkins Farm #2,Wilmington,Onslow,34.8192,-77.6625,6634,Swine - Farrow to Wean,1
Butch Norman Farm,Wilmington,Duplin,34.8417,-77.8864,6634,Swine - Feeder to Finish,3
Eddie Brice #4,Wilmington,Duplin,34.901634,-77.716748,6634,Swine - Feeder to Finish,3
W S Matthews Farms,Wilmington,Duplin,34.9519,-78.1025,6634,Swine - Farrow to Wean,1
A.J. Huffman Farm,Wilmington,Onslow,34.9564,-77.5494,6634,Swine - Wean to Feeder,2
WCW Farms,Fayetteville,Sampson,34.984819,-78.172811,6634,Swine - Farrow to Wean,1
Knotty Pine Farm,Fayetteville,Sampson,35.015522,-78.367883,6634,Swine - Wean to Feeder,2
McKenzie Finishing,Fayetteville,Sampson,35.022644,-78.466861,6634,Swine - Feeder to Finish,3
Stewart Stroud Farm 1 & 2,Wilmington,Duplin,35.023619,-77.876417,6634,Swine - Feeder to Finish,3
Howard Brothers Farm,Fayetteville,Sampson,35.055072,-78.566055,6634,Swine - Feeder to Finish,3
"Todd Smith Farms, Inc.",Wilmington,Duplin,35.0897,-77.7903,6634,Swine - Feeder to Finish,3
Marshall Britt Farm,Wilmington,Duplin,35.1039,-77.7789,6634,Swine - Feeder to Finish,3
Woody Sutton Farm #1,Washington,Jones,35.2,-77.5,6634,Swine - Feeder to Finish,3
Norwood Head Farm,Washington,Wayne,35.2703,-78.1078,6634,Swine - Farrow to Wean,1
Gerald Hollamon Farm,Washington,Wayne,35.2733,-78.1369,6634,Swine - Wean to Feeder,2
Woody Sutton Farm #2,Washington,Lenoir,35.2765,-77.460614,6634,Swine - Feeder to Finish,3
Godwin Farm,Raleigh,Johnston,35.283841,-78.418873,6634,Swine - Feeder to Finish,3
"Faison Smith Farms, Inc. #2",Washington,Craven,35.3163,-77.422517,6634,Swine - Feeder to Finish,3
W&M Hog Farm,Washington,Wayne,35.3825,-77.8278,6634,Swine - Wean to Feeder,2
Hope Farms,Washington,Greene,35.384717,-77.764829,6634,Swine - Feeder to Finish,3
Haddock Farm,Washington,Pitt,35.4454,-77.239761,6634,Swine - Feeder to Finish,3
Ephraigm Smith Farm,Washington,Pitt,35.4757,-77.280296,6634,Swine - Farrow to Wean,1
Roy Jones Farm,Washington,Greene,35.5353,-77.7239,6634,Swine - Feeder to Finish,3
B&C Farm,Wilmington,Duplin,34.85,-77.8936,6634,Swine - Feeder to Finish,3
Paradise Hog Farm & Camp Branch,Wilmington,Duplin,35.0869,-77.8628,6634,Swine - Gilts,9
Lee T. Jones Farm,Washington,Greene,35.525,-77.5881,6634,Swine - Wean to Finish,6
Franklin Lindsay Farm,Fayetteville,Sampson,35.052836,-78.414197,6612,Swine - Feeder to Finish,3
Thornton Enterprises (Old Farm),Fayetteville,Sampson,35.084158,-78.271872,6601,Multiple,7
Twin Oaks Farm,Wilmington,Duplin,34.7778,-78.0789,6569,Swine - Gilts,9
Dexter Rouse Farm,Wilmington,Duplin,35.145012,-77.799354,6569,Swine - Feeder to Finish,3
"Lafayette Farms, LLC  L-4",Fayetteville,Sampson,34.932194,-78.43958,6545,Swine - Feeder to Finish,3
New Colony Sow Farm,Washington,Tyrrell,35.827,-76.3217,6536,Swine - Farrow to Wean,1
Rooty Branch Farm - A & B,Wilmington,Duplin,35.0819,-77.9722,6535,Swine - Feeder to Finish,3
Dexter Jackson 27 & 28,Washington,Wayne,35.2433,-78.0889,6535,Swine - Feeder to Finish,3
Hugh Hardee Jr. / T&R Sow Farm,Washington,Pitt,35.5293,-77.24615,6519,Swine - Feeder to Finish,3
Barnhill Farms,Wilmington,Columbus,34.1667,-78.5306,6504,Swine - Feeder to Finish,3
Freedman Farm,Wilmington,Columbus,34.453225,-78.757231,6504,Swine - Feeder to Finish,3
Wildwood Farms,Fayetteville,Bladen,34.494388,-78.610302,6504,Swine - Feeder to Finish,3
Carroll's Farm # 5080,Fayetteville,Robeson,34.693547,-79.3788,6504,Swine - Feeder to Finish,3
Mark Davis II,Wilmington,Duplin,34.800484,-78.126297,6504,Swine - Wean to Feeder,2
Melvin Bostic Farm,Wilmington,Duplin,34.9056,-77.9278,6504,Swine - Wean to Feeder,2
William Hawkins Farm,Washington,Lenoir,35.1072,-77.678492,6504,Swine - Feeder to Finish,3
Legacy Farms #2,Washington,Wayne,35.3197,-78,6504,Swine - Farrow to Wean,1
Keene Farm,Washington,Pitt,35.443035,-77.254873,6504,Swine - Wean to Feeder,2
Ted and Jack Allen Incorporated,Washington,Pitt,35.4586,-77.328572,6504,Swine - Feeder to Finish,3
Buck Farm,Washington,Pitt,35.4686,-77.293328,6504,Swine - Feeder to Finish,3
Steve Harper Farm,Raleigh,Edgecombe,36.0256,-77.5864,6504,Swine - Wean to Feeder,2
George Crawford Farms,Raleigh,Edgecombe,35.8544,-77.4011,6504,Swine - Farrow to Finish,5
"ABS Family Farms, Inc.",Wilmington,Duplin,34.9017,-77.9094,6450,Swine - Wean to Feeder,2
Joey Carter Farms,Wilmington,Duplin,34.9164,-77.8144,6423,Swine - Feeder to Finish,3
D. McKinley & Jerry Price Farm 2,Wilmington,Duplin,35.1472,-77.9014,6423,Swine - Feeder to Finish,3
Fox Ridge Complex,Fayetteville,Anson,35.134406,-80.135271,6405,Multiple,7
Benson Farms Inc (off-site farm),Washington,Beaufort,35.6193,-76.7136,6402,Multiple,7
Farm 61,Raleigh,Warren,36.357961,-77.991965,6390,Swine - Farrow to Wean,1
Farm 7360,Raleigh,Warren,36.4811,-78.0839,6390,Swine - Farrow to Finish,5
Pack Power Farm - Dawson,Washington,Lenoir,35.1552,-77.643475,6369,Swine - Feeder to Finish,3
Shady Branch Farm,Fayetteville,Sampson,34.808913,-78.185172,6341,Swine - Feeder to Finish,3
3135,Wilmington,Pender,34.561192,-78.179587,6287,Swine - Feeder to Finish,3
"Griff's Farms, Inc. Farm",Wilmington,Duplin,34.8739,-77.8019,6287,Swine - Feeder to Finish,3
Three G Farms,Raleigh,Nash,35.7672,-78.2361,6249,Multiple,7
CJK Farms and K&M Farms,Wilmington,Duplin,35.1053,-78.0428,6233,Swine - Feeder to Finish,3
Phillip Williams Farm,Fayetteville,Sampson,35.251044,-78.405541,6233,Swine - Feeder to Finish,3
William Edward Brock Farm,Wilmington,Duplin,34.8781,-77.8758,6179,Swine - Feeder to Finish,3
Farm 5729 & Farm 3093,Fayetteville,Bladen,34.496205,-78.772841,6157,Swine - Farrow to Wean,1
Triple H #2,Washington,Greene,35.514001,-77.687275,6111,Swine - Feeder to Finish,3
Allen Norris Farm,Fayetteville,Bladen,34.508394,-78.511397,6070,Swine - Feeder to Finish,3
Bennie W. Barwick Farm,Washington,Wayne,35.1706,-77.8553,6070,Swine - Feeder to Finish,3
Brian Haddock Farm,Washington,Pitt,35.4054,-77.22048,5987,Swine - Wean to Feeder,2
"Lafayette Farms, LLC L-5",Fayetteville,Sampson,34.928338,-78.359775,5978,Swine - Wean to Feeder,2
"Lafayette Farms, LLC   L-1",Fayetteville,Sampson,34.935058,-78.358422,5978,Swine - Feeder to Finish,3
Marshall Willoughby Farm,Fayetteville,Robeson,34.450056,-79.202408,5976,Swine - Feeder to Finish,3
Layton Johnson Farm,Fayetteville,Bladen,34.567438,-78.659222,5976,Swine - Feeder to Finish,3
"Surf City Hogs, LLC",Fayetteville,Bladen,34.757525,-78.580908,5976,Swine - Farrow to Wean,1
Bobby & Todd Marshall,Fayetteville,Sampson,34.757738,-78.335122,5976,Swine - Feeder to Finish,3
R & J Farms 7-12,Fayetteville,Sampson,34.820805,-78.404236,5976,Swine - Farrow to Wean,1
M & M Farm,Fayetteville,Sampson,34.884905,-78.250152,5976,Swine - Wean to Feeder,2
Ronald Peterson and Sons Farms #2,Fayetteville,Sampson,34.90265,-78.29115,5976,Swine - Feeder to Finish,3
R&J Farms,Fayetteville,Sampson,34.932827,-78.423061,5976,Swine - Feeder to Finish,3
A.D.J. Hog Farm 3-5,Fayetteville,Sampson,34.947375,-78.393583,5976,Swine - Farrow to Wean,1
Tart Farm,Wilmington,Duplin,34.9528,-77.8378,5976,Swine - Wean to Feeder,2
"Hollingsworth Farms, Inc.",Fayetteville,Sampson,35.024211,-78.454947,5976,Swine - Feeder to Finish,3
J.E. Grady & Sons,Wilmington,Duplin,35.0783,-77.9878,5976,Swine - Feeder to Finish,3
Darden Family Farms 9-14,Fayetteville,Sampson,35.100091,-78.405916,5976,Swine - Feeder to Finish,3
Ricky Kornegay Farm,Wilmington,Duplin,35.1553,-78.0622,5976,Swine - Wean to Feeder,2
Thornton Enterprises New Farm,Fayetteville,Sampson,35.159941,-78.276647,5976,Swine - Feeder to Finish,3
Dennis Raynor,Raleigh,Johnston,35.348672,-78.290888,5976,Swine - Feeder to Finish,3
Alton P. Cox Farm,Washington,Wayne,35.3283,-78.2117,5976,Swine - Farrow to Wean,1
Rosewood I,Washington,Pitt,35.5578,-77.218633,5976,Multiple,7
Graba Farms,Wilmington,Columbus,34.3633,-78.8433,5962,Swine - Feeder to Finish,3
Cecil Barnhill and Sons Farm,Wilmington,Columbus,34.3844,-78.8817,5962,Swine - Feeder to Finish,3
Eugene Whaley Farm,Wilmington,Duplin,34.8817,-77.8053,5962,Swine - Farrow to Wean,1
Meadow Creek Farm,Raleigh,Chatham,35.6833,-79.4,5962,Swine - Feeder to Finish,3
Triple M Farms,Raleigh,Edgecombe,35.764725,-77.584966,5962,Swine - Feeder to Finish,3
Cascade Nursery & Finishing Farm,Fayetteville,Sampson,34.699625,-78.283825,5935,Multiple,7
"Farm #3515, 3316, and 3723",Fayetteville,Bladen,34.751663,-78.846613,5920,Multiple,7
Brent & Evelyn Davis Farm,Wilmington,Duplin,35.0969,-77.82,5892,Swine - Feeder to Finish,3
ChaseCole Livestock,Fayetteville,Sampson,34.892833,-78.287997,5881,Swine - Feeder to Finish,3
"P-2333 Houses 1-3, 10-13",Wilmington,Duplin,35.0042,-77.8861,5881,Swine - Farrow to Wean,1
"Langley Farms, Inc.",Washington,Wayne,35.4433,-78.1269,5881,Swine - Wean to Feeder,2
Richard Sholar Farm,Wilmington,Duplin,34.7508,-77.8147,5854,Swine - Feeder to Finish,3
T. G. Gibson,Fayetteville,Scotland,34.799582,-79.639765,5854,Swine - Wean to Feeder,2
KDK Farms,Wilmington,Onslow,34.8033,-77.6314,5854,Swine - Feeder to Finish,3
Marion Dean Brown Jr Farm,Wilmington,Duplin,34.8256,-77.7872,5854,Swine - Feeder to Finish,3
Billy Kilpatrick Farm,Wilmington,Duplin,34.9847,-77.9556,5854,Swine - Feeder to Finish,3
"Sutton Family Farm, LLC",Washington,Craven,35.2854,-77.362753,5854,Swine - Farrow to Finish,5
Sherrill Johnson,Washington,Wayne,35.3028,-78.2719,5854,Swine - Feeder to Finish,3
"Matthew Sanderson Farming, LLC",Washington,Wayne,35.3078,-78.2783,5854,Swine - Feeder to Finish,3
"Gray Swine Farms, LLC",Washington,Wayne,35.3922,-77.8128,5854,Swine - Feeder to Finish,3
"Gray Family Farms, Inc.",Washington,Greene,35.4778,-77.8028,5854,Swine - Feeder to Finish,3
Goshen Swine,Wilmington,Duplin,35.0653,-77.9408,5854,Swine - Feeder to Finish,3
Maple Run Farms,Wilmington,Duplin,35.0167,-77.9514,5827,Swine - Wean to Feeder,2
Dexter Jackson 21-26,Washington,Wayne,35.2478,-78.0786,5799,Swine - Feeder to Finish,3
Triple M Farms,Fayetteville,Sampson,34.891011,-78.281747,5786,Swine - Feeder to Finish,3
Justin Murphy & Lynn Sutton Farm,Wilmington,Duplin,35.125,-77.775,5772,Swine - Farrow to Wean,1
HD3 Beaver Dam Farm,Wilmington,Duplin,34.860436,-77.939721,5756,Swine - Feeder to Finish,3
Watchoverya Farms #2,Wilmington,Onslow,34.9797,-77.6442,5730,Multiple,7
Errol Quinn Farm,Wilmington,Duplin,34.916676,-77.987866,5718,Swine - Farrow to Wean,1
Crossroads Farm,Washington,Greene,35.5542,-77.8181,5707,Swine - Feeder to Finish,3
Crooked Run Farm,Wilmington,Pender,34.6669,-78.0164,5691,Swine - Farrow to Wean,1
Cavanaugh Hog Farm,Wilmington,Onslow,34.9128,-77.5461,5691,Swine - Feeder to Finish,3
Pork Plus,Fayetteville,Sampson,34.9624,-78.176719,5691,Swine - Wean to Feeder,2
"GLG Farms, LLC Farm",Washington,Wayne,35.3447,-78.1328,5691,Swine - Feeder to Finish,3
Hardy Swine Farm,Washington,Greene,35.3856,-77.6311,5691,Swine - Feeder to Finish,3
"Riggs Pork Farm, Inc.",Wilmington,Onslow,34.8086,-77.2006,5688,Swine - Feeder to Finish,3
M & A Farms,Fayetteville,Sampson,34.925755,-78.269822,5664,Swine - Feeder to Finish,3
Tommy Grantham Farm,Washington,Wayne,35.2492,-78.1297,5664,Swine - Feeder to Finish,3
P-25,Fayetteville,Sampson,34.727611,-78.177327,5647,Swine - Feeder to Finish,3
E. Warren #3 Farm,Fayetteville,Sampson,34.950352,-78.469411,5647,Swine - Feeder to Finish,3
Bostic Farm,Wilmington,Duplin,34.944531,-77.951633,5637,Swine - Feeder to Finish,3
J&J Swine Farm,Washington,Greene,35.5175,-77.6431,5634,Swine - Farrow to Wean,1
Sandy Run Farm,Washington,Greene,35.5203,-77.6333,5634,Swine - Feeder to Finish,3
Kornegay Farms,Wilmington,Duplin,35.1014,-77.8856,5623,Swine - Feeder to Finish,3
Vaden Bond Farm,Wilmington,Duplin,34.7333,-77.7542,5583,Swine - Feeder to Finish,3
Creekside Farm,Raleigh,Edgecombe,35.8889,-77.3781,5542,Multiple,7
"Rainbow Family Farm, LLC",Fayetteville,Bladen,34.623241,-78.717411,5541,Swine - Feeder to Finish,3
Aaron Smith Old,Wilmington,Duplin,35.1069,-77.8236,5528,Swine - Farrow to Wean,1
Foster Farm,Fayetteville,Sampson,35.1138,-78.285463,5515,Swine - Feeder to Finish,3
"3 Boys Run Farms, LLC",Fayetteville,Sampson,34.706386,-78.144233,5508,Swine - Wean to Feeder,2
CDP Farm,Wilmington,Duplin,35.044787,-78.056092,5444,Swine - Farrow to Wean,1
Wyne Nursery / Ted Moore Farm,Fayetteville,Sampson,34.750425,-78.249397,5439,Multiple,7
Farm # 3509 & 3722,Washington,Jones,35.053766,-77.54173,5430,Swine - Feeder to Finish,3
HD3 Farms Wright Farm,Wilmington,Columbus,34.12,-78.8033,5422,Swine - Wean to Finish,6
Hugh Parker and Son,Wilmington,Onslow,34.9347,-77.5644,5420,Swine - Wean to Feeder,2
MD Robinson Farm #2,Washington,Lenoir,35.1144,-77.59008,5420,Swine - Feeder to Finish,3
Henry Heath Farms,Washington,Greene,35.378939,-77.58842,5420,Swine - Feeder to Finish,3
Clay Ridge Farm,Washington,Greene,35.4194,-77.5819,5420,Swine - Feeder to Finish,3
Windsor Barrow Swine Farm,Washington,Greene,35.4256,-77.75,5420,Swine - Feeder to Finish,3
Best House Farm,Washington,Greene,35.431413,-77.764125,5420,Swine - Farrow to Feeder,4
Sand Hole Farm,Washington,Greene,35.4358,-77.7206,5420,Swine - Wean to Feeder,2
Rick Harper Farm,Washington,Greene,35.4842,-77.6583,5420,Swine - Feeder to Finish,3
"B Mack Farms, LLC # 2",Washington,Greene,35.515,-77.6044,5420,Swine - Feeder to Finish,3
B & S Farm,Washington,Greene,35.5244,-77.6356,5420,Swine - Wean to Finish,6
B & W Swine Farm,Washington,Greene,35.52964,-77.6839,5420,Swine - Farrow to Wean,1
Sessoms Farm,Raleigh,Halifax,36.1533,-77.5,5420,Swine - Wean to Feeder,2
Beaver Creek Farm,Raleigh,Orange,36.2292,-79.0625,5420,Swine - Feeder to Finish,3
Farm # 3507 & 3508,Washington,Jones,35.0781,-77.5658,5380,Swine - Wean to Feeder,2
"Eason Farms, Inc. Farm",Fayetteville,Sampson,35.241591,-78.533258,5366,Swine - Feeder to Finish,3
"Mixon Family Farms, Inc.",Fayetteville,Sampson,35.056058,-78.447197,5352,Swine - Feeder to Finish,3
Ward Parker Farm,Fayetteville,Sampson,35.063672,-78.260161,5352,Swine - Wean to Feeder,2
Jonathon & Jerald Harper Farm,Wilmington,Duplin,35.0986,-77.7833,5352,Swine - Wean to Feeder,2
Tommy Stone Farm,Fayetteville,Robeson,34.556811,-79.320242,5333,Swine - Feeder to Finish,3
Donald Ward Hog Farm,Wilmington,Columbus,34.3578,-78.6147,5325,Swine - Farrow to Finish,5
Farm 63,Raleigh,Halifax,36.225807,-77.49977,5325,Swine - Wean to Finish,6
Farm 62,Raleigh,Halifax,36.17819,-77.572891,"5,325",Swine - Boar/Stud,8
B&J Farm,Fayetteville,Sampson,35.103125,-78.253847,5312,Swine - Feeder to Finish,3
"CNC Farms, Inc.",Fayetteville,Sampson,35.110047,-78.334152,5312,Swine - Farrow to Wean,1
"Quarter D Farms, Inc.",Fayetteville,Sampson,35.128738,-78.268916,5312,Swine - Feeder to Finish,3
Ben Youngblood Farm,Raleigh,Johnston,35.5544,-78.3483,5285,Swine - Wean to Finish,6
Bull Tail #1 & #2 (Sow),Wilmington,Pender,34.6333,-78.15,5269,Swine - Farrow to Wean,1
Southern Pines 1 & 2,Fayetteville,Sampson,34.844958,-78.412806,5259,Swine - Feeder to Finish,3
Earl 3 Farm,Wilmington,Duplin,34.9611,-78.1292,5238,Swine - Wean to Feeder,2
"NBH Finishers #42, LLC",Fayetteville,Sampson,35.035644,-78.187936,5238,Swine - Feeder to Finish,3
"Three W Farms, LLC",Fayetteville,Sampson,34.938263,-78.232072,5236,Swine - Feeder to Finish,3
"NBH Finishers #41, LLC",Fayetteville,Sampson,34.996772,-78.240803,5236,Swine - Wean to Feeder,2
Brooks Creech Farm,Raleigh,Johnston,35.7892,-78.2653,5220,Swine - Feeder to Finish,3
Weeks Farm Inc.,Fayetteville,Sampson,35.222741,-78.616519,5203,Swine - Feeder to Finish,3
Dick Mills and Son Farm,Washington,Pitt,35.4213,-77.357386,5203,Swine - Farrow to Feeder,4
Wood Lyon,Washington,Greene,35.4556,-77.5236,5203,Swine - Farrow to Wean,1
Rachel Moye Farms,Washington,Greene,35.4603,-77.5464,5203,Swine - Wean to Feeder,2
Danny Miller Swine Farm,Washington,Greene,35.4675,-77.7447,5203,Swine - Feeder to Finish,3
Cunningham Hog Farm,Washington,Greene,35.53002,-77.69411,5203,Swine - Wean to Finish,6
Virgil L. Kirkland Jr. Farm,Raleigh,Edgecombe,36.0344,-77.5544,5203,Swine - Feeder to Finish,3
Joe Suggs Farm,Raleigh,Edgecombe,36.1158,-77.6611,5203,Swine - Feeder to Finish,3
Jack & Jerry Cunningham Farms,Washington,Greene,35.5456,-77.7278,5203,Swine - Wean to Finish,6
Piney Bottom Farm,Washington,Greene,35.453608,-77.515213,5172,Swine - Feeder to Finish,3
Red Hill Farm,Washington,Greene,35.4692,-77.5092,5172,Swine - Wean to Feeder,2
Rouse's Chapel Farm,Washington,Greene,35.4756,-77.5228,5172,Swine - Feeder to Finish,3
Cedar Lane Hog Farm,Washington,Wayne,35.2131,-77.8506,5135,Swine - Wean to Feeder,2
Clemmons and Sons #2 (New-CM2),Wilmington,Brunswick,34.0669,-78.2083,5081,Swine - Feeder to Finish,3
"Century Farms, LLC",Fayetteville,Sampson,35.108919,-78.621833,5050,Swine - Feeder to Finish,3
M.& K. Matthis Farm,Fayetteville,Sampson,34.857469,-78.259211,5041,Swine - Farrow to Feeder,4
F&B Farms,Fayetteville,Sampson,35.029413,-78.257447,5041,Swine - Farrow to Wean,1
Deleon & Ed Bass Farm,Fayetteville,Sampson,35.04808,-78.259775,5041,Swine - Wean to Feeder,2
Double J Hog Farm,Fayetteville,Sampson,35.133767,-78.2446,5041,Swine - Wean to Finish,6
A&W Farm,Fayetteville,Sampson,35.157627,-78.213786,5041,Swine - Feeder to Finish,3
Sammy Britt Farm houses 1-6,Raleigh,Johnston,35.2878,-78.32,5041,Swine - Feeder to Finish,3
George Clifford Uzzle Farm,Raleigh,Johnston,35.5844,-78.3897,5041,Swine - Feeder to Finish,3
J.M. Farm,Fayetteville,Sampson,34.826177,-78.207166,5014,Swine - Wean to Feeder,2
Reeda Meadows Farms 1 & 2,Wilmington,Duplin,34.8531,-77.8597,5011,Swine - Wean to Feeder,2
BHI3,Washington,Gates,36.4919,-76.6808,5003,Swine - Boar/Stud,8
Giddens Swine,Fayetteville,Sampson,35.170761,-78.340536,4986,Swine - Wean to Feeder,2
Billy Ray Daughtry,Fayetteville,Sampson,35.182533,-78.433144,4986,Swine - Feeder to Finish,3
Greene Complex,Fayetteville,Sampson,34.602563,-78.278213,4983,Multiple,7
"Homestead Farms, Inc.",Wilmington,Duplin,34.8108,-78.1525,4980,Swine - Wean to Feeder,2
F&W Farms,Fayetteville,Sampson,34.933299,-78.475666,4980,Swine - Feeder to Finish,3
Triple T,Washington,Wayne,35.2694,-78.1858,4980,Swine - Feeder to Finish,3
Brock Family Farms 9-13,Wilmington,Duplin,35.1092,-78.0211,4980,Swine - Feeder to Finish,3
Clemmons & Son #1 (Old-CL1),Wilmington,Brunswick,34.0647,-78.2133,4976,Swine - Feeder to Finish,3
J. K. Barnhill Topping 1,Wilmington,Pender,34.4931,-78.1639,4976,Swine - Feeder to Finish,3
Ponderosa,Wilmington,Pender,34.5,-77.9917,4976,Swine - Feeder to Finish,3
J. B. Priest Farm 3,Fayetteville,Bladen,34.500308,-78.478605,4976,Swine - Feeder to Finish,3
J.B. Priest Farm 2,Fayetteville,Bladen,34.504788,-78.528377,4976,Swine - Feeder to Finish,3
Nick Gooden Finisher,Fayetteville,Bladen,34.5243,-78.632269,4976,Swine - Feeder to Finish,3
Burney Farm,Fayetteville,Bladen,34.556469,-78.585527,4976,Swine - Feeder to Finish,3
ABK Farms,Fayetteville,Bladen,34.559705,-78.587997,4976,Swine - Feeder to Finish,3
Terra Nova,Fayetteville,Bladen,34.565355,-78.589105,4976,Swine - Feeder to Finish,3
"Greenwood Livestock, LLC # 2",Wilmington,Pender,34.5717,-78.0572,4976,Swine - Feeder to Finish,3
"Greenwood Livestock, LLC # 1",Wilmington,Pender,34.5728,-78.0742,4976,Swine - Feeder to Finish,3
Skinner Farm,Wilmington,Pender,34.6431,-78.1228,4976,Swine - Feeder to Finish,3
Billy E Bordeaux Farm,Fayetteville,Bladen,34.682527,-78.551375,4976,Swine - Farrow to Wean,1
Locklin Farm,Wilmington,Pender,34.69476,-77.70339,4976,Swine - Feeder to Finish,3
Bear Ridge Farm,Wilmington,Pender,34.695,-77.7342,4976,Swine - Feeder to Finish,3
Shady Oak Farm,Wilmington,Pender,34.7106,-77.9428,4976,Swine - Wean to Feeder,2
G. & O. Farm,Wilmington,Duplin,34.73276,-78.070045,4976,Swine - Wean to Feeder,2
Ann Lee English Farm,Wilmington,Duplin,34.7825,-77.8408,4976,Swine - Feeder to Finish,3
Mack Gurganus Farm,Wilmington,Onslow,34.8267,-77.6267,4976,Swine - Feeder to Finish,3
Rosa Farm,Wilmington,Duplin,34.8428,-77.9214,4976,Swine - Wean to Feeder,2
Shenandoah Farm,Wilmington,Duplin,34.843313,-77.730379,4976,Swine - Feeder to Finish,3
RL Pickett Farm,Wilmington,Duplin,34.8564,-77.8656,4976,Swine - Feeder to Finish,3
Donald Tatum Farm,Fayetteville,Sampson,34.863211,-78.2688,4976,Swine - Wean to Feeder,2
William Council Lanier Farm,Wilmington,Duplin,34.8633,-77.7033,4976,Swine - Feeder to Finish,3
Richard Lanier Hog Farm,Wilmington,Duplin,34.8694,-77.7267,4976,Swine - Wean to Feeder,2
Lula Carter,Fayetteville,Sampson,34.876325,-78.308205,4976,Swine - Feeder to Finish,3
Michael Carter Farm,Fayetteville,Sampson,34.876658,-78.303444,4976,Swine - Wean to Feeder,2
Jarman Farms,Wilmington,Duplin,34.8881,-77.8044,4976,Swine - Wean to Finish,6
Cox Livestock,Wilmington,Onslow,34.9139,-77.62,4976,Swine - Wean to Finish,6
Petersburg Farm,Wilmington,Onslow,34.9319,-77.5381,4976,Swine - Wean to Finish,6
Stephen Williamson Farm,Wilmington,Duplin,34.95,-77.9653,4976,Swine - Feeder to Finish,3
Rhodes Farm,Wilmington,Duplin,34.9642,-77.8306,4976,Swine - Feeder to Finish,3
Bill McKay Farm,Wilmington,Duplin,34.9647,-77.9061,4976,Swine - Feeder to Finish,3
Mike Herring Farm,Fayetteville,Sampson,35.008583,-78.446711,4976,Swine - Feeder to Finish,3
G & D Farm,Wilmington,Duplin,35.0369,-78.0964,4976,Swine - Wean to Feeder,2
Glenn Smith Farm,Wilmington,Duplin,35.0464,-77.8083,4976,Swine - Farrow to Wean,1
Parks Fields Farm,Wilmington,Duplin,35.0583,-78.1378,4976,Swine - Wean to Feeder,2
Tyndall & Sons Farm,Fayetteville,Sampson,35.061044,-78.573733,4976,Swine - Feeder to Finish,3
Sue Butler Farm,Fayetteville,Sampson,35.063052,-78.426333,4976,Swine - Wean to Feeder,2
D&D Farms,Wilmington,Duplin,35.0656,-77.7753,4976,Swine - Wean to Feeder,2
S&S Farm,Wilmington,Duplin,35.108403,-77.998395,4976,Swine - Feeder to Finish,3
Tony Cruse Farm,Wilmington,Duplin,35.11,-77.7789,4976,Swine - Feeder to Finish,3
F & S Farm,Wilmington,Duplin,35.1181,-77.8772,4976,Swine - Feeder to Finish,3
J & J Butler Farm,Fayetteville,Sampson,35.119197,-78.559294,4976,Swine - Wean to Feeder,2
James Butler Farm 2,Fayetteville,Sampson,35.127869,-78.412788,4976,Swine - Wean to Feeder,2
Across the Creek Farm,Fayetteville,Sampson,35.133438,-78.477533,4976,Swine - Feeder to Finish,3
Thomas Steed Farm #2,Fayetteville,Sampson,35.136005,-78.377436,4976,Swine - Feeder to Finish,3
Tammy Peterson Farm,Fayetteville,Sampson,35.145244,-78.435705,4976,Swine - Feeder to Finish,3
S & M Farm,Wilmington,Duplin,35.152741,-77.855782,4976,Swine - Feeder to Finish,3
Larry Naylor Farm,Fayetteville,Sampson,35.158305,-78.403363,4976,Swine - Feeder to Finish,3
Jimmy Best Farm,Fayetteville,Sampson,35.160558,-78.443755,4976,Swine - Feeder to Finish,3
"L&L Farms, Inc.",Fayetteville,Sampson,35.167463,-78.502125,4976,Swine - Wean to Feeder,2
Triple T Farms,Fayetteville,Sampson,35.168972,-78.433202,4976,Swine - Feeder to Finish,3
Currie Holt Farm,Washington,Wayne,35.184988,-78.154445,4976,Swine - Feeder to Finish,3
Hodges Livestock,Fayetteville,Sampson,35.20943,-78.548075,4976,Swine - Feeder to Finish,3
Bart Smith Swine,Washington,Wayne,35.218803,-78.136843,4976,Swine - Feeder to Finish,3
Doug Smith Swine,Washington,Wayne,35.219,-78.139171,4976,Swine - Feeder to Finish,3
Ryan West Farm,Washington,Wayne,35.2661,-78.1389,4976,Swine - Feeder to Finish,3
Rivers Edge Farms,Washington,Craven,35.2695,-77.228089,4976,Swine - Feeder to Finish,3
JM Massey Farm,Washington,Wayne,35.2778,-78.29,4976,Swine - Feeder to Finish,3
S & K Farms Inc,Washington,Greene,35.3847,-77.6747,4976,Swine - Wean to Feeder,2
Phillip Page Farm,Washington,Pitt,35.5164,-77.242211,4976,Swine - Feeder to Finish,3
M & J Farm 2,Washington,Pitt,35.5316,-77.212539,4976,Swine - Wean to Feeder,2
Roy Jones Farm #2,Washington,Greene,35.5456,-77.7292,4976,Swine - Feeder to Finish,3
Evelyn Basden Farm,Wilmington,Duplin,34.9075,-77.6858,4976,Swine - Farrow to Finish,5
Lynn & Annette Smith Farm,Wilmington,Duplin,35.0264,-77.8272,4976,Swine - Feeder to Finish,3
M&S Britt Farms - 1224 Addition,Wilmington,Duplin,35.1069,-77.7883,4976,Swine - Feeder to Finish,3
S&S #2,Wilmington,Duplin,35.1131,-77.9961,4976,Swine - Feeder to Finish,3
Halls Marsh Farm,Wilmington,Duplin,35.1394,-78.0053,4976,Swine - Feeder to Finish,3
"Harper Brothers 1, 2, 3",Washington,Greene,35.4372,-77.7131,4973,Swine - Feeder to Finish,3
Hill Top Farm,Winston-Salem,Rockingham,36.2731,-79.6161,4954,Swine - Farrow to Wean,1
Iron Mine Farm,Wilmington,Duplin,34.7389,-78.1214,4943,Swine - Wean to Finish,6
Hwy 41 Farms 1&2,Wilmington,Duplin,34.7439,-78.0792,4943,Swine - Wean to Feeder,2
Allred Farms,Fayetteville,Moore,35.46908,-79.6475,4936,Multiple,7
"5703, 5704, & 5711",Fayetteville,Robeson,34.697453,-79.328994,4932,Swine - Feeder to Finish,3
Duplin 1 & 2,Wilmington,Duplin,35.0022,-77.8553,4932,Swine - Farrow to Finish,5
Pinnacle Sow Farm,Fayetteville,Bladen,34.498733,-78.582388,4926,Multiple,7
Taylor's Bridge Sow Farm,Fayetteville,Sampson,34.857055,-78.220472,4926,Multiple,7
S&S Hog Farm,Washington,Lenoir,35.0566,-77.715494,4911,Swine - Feeder to Finish,3
King Farms K-4 & K-5,Wilmington,Duplin,34.7797,-77.9619,4893,Multiple,7
Pigeon Flats,Fayetteville,Sampson,34.650147,-78.301391,4878,Swine - Wean to Feeder,2
RDS Farm,Wilmington,Duplin,34.7422,-77.7864,4878,Swine - Wean to Feeder,2
Sutton Brothers Farms,Wilmington,Duplin,35.0317,-77.9036,4878,Swine - Feeder to Finish,3
Ernie Rouse Farm,Wilmington,Duplin,35.0361,-77.7758,4878,Swine - Feeder to Finish,3
PED Finishing Farm,Fayetteville,Sampson,35.116189,-78.273403,4878,Swine - Wean to Feeder,2
Don Howard Farm,Washington,Lenoir,35.1193,-77.58134,4878,Swine - Feeder to Finish,3
Sarecta Farms,Wilmington,Duplin,34.9667,-77.8242,4878,Swine - Wean to Feeder,2
P-300,Fayetteville,Sampson,34.84173,-78.323666,4874,Multiple,7
Brewer Hog Farm 9-11,Fayetteville,Sampson,35.094889,-78.256578,4829,Swine - Feeder to Finish,3
DBA Merritt Farms,Washington,Hertford,36.2583,-76.825,4813,Swine - Farrow to Wean,1
Polly Ridge,Raleigh,Edgecombe,35.9831,-77.3992,4795,Swine - Feeder to Finish,3
Blizzard Nursery & Finishing,Washington,Greene,35.4911,-77.7408,4783,Multiple,7
Tri G Farms,Washington,Bertie,36.1433,-77.06,4780,Swine - Feeder to Finish,3
DMJ Farm,Raleigh,Northampton,36.4172,-77.2694,4780,Swine - Feeder to Finish,3
Shellbank Farm,Raleigh,Edgecombe,35.9583,-77.6878,4771,Multiple,7
Lola Sealey Rouse #1,Fayetteville,Robeson,34.400117,-79.031806,4770,Swine - Feeder to Finish,3
Six B Farm,Wilmington,Columbus,34.4181,-78.8483,4770,Swine - Feeder to Finish,3
Makota,Wilmington,Pender,34.6381,-78.0514,4770,Swine - Feeder to Finish,3
In Deep Farm,Fayetteville,Robeson,34.663386,-78.855461,4770,Swine - Feeder to Finish,3
Red Pittman Farm,Wilmington,Onslow,34.7931,-77.5678,4770,Swine - Feeder to Finish,3
Brandon Howard Farm,Wilmington,Onslow,34.8181,-77.4792,4770,Swine - Feeder to Finish,3
Samuel Locklear Farm,Fayetteville,Robeson,34.819406,-79.298228,4770,Swine - Feeder to Finish,3
Ralph Lanier Farm,Wilmington,Duplin,34.8517,-77.7436,4770,Swine - Feeder to Finish,3
Johnny Hope Farms,Fayetteville,Sampson,34.860577,-78.33527,4770,Swine - Farrow to Wean,1
Sam Hope Farms,Fayetteville,Sampson,34.866238,-78.336297,4770,Swine - Wean to Feeder,2
Next Generation 3,Wilmington,Duplin,34.9231,-77.7478,4770,Swine - Feeder to Finish,3
"T.B. Upchurch, Inc",Fayetteville,Hoke,34.959891,-79.178894,4770,Swine - Feeder to Finish,3
Weston Hog Farm,Wilmington,Onslow,34.9708,-77.6375,4770,Swine - Wean to Finish,6
Steve Tew,Fayetteville,Sampson,34.9833,-78.551988,4770,Swine - Feeder to Finish,3
Fatback Farm,Washington,Jones,34.997188,-77.603148,4770,Swine - Feeder to Finish,3
Rick Tyndall Farm,Washington,Jones,35.005779,-77.469773,4770,Swine - Wean to Feeder,2
DC Mills Farm,Washington,Jones,35.0125,-77.6142,4770,Swine - Feeder to Finish,3
Triple K Farms - 2,Washington,Jones,35.0717,-77.3947,4770,Swine - Wean to Feeder,2
Craig Tyndall Farm,Washington,Lenoir,35.0743,-77.65997,4770,Swine - Feeder to Finish,3
Second Chance Farms Inc. #72,Washington,Lenoir,35.0752,-77.673764,4770,Swine - Feeder to Finish,3
Second Chance Farms Inc #52,Washington,Lenoir,35.0774,-77.645961,4770,Swine - Feeder to Finish,3
MKM Farms,Wilmington,Duplin,35.08,-77.8653,4770,Swine - Feeder to Finish,3
R & M Farm,Fayetteville,Sampson,35.0845,-78.460292,4770,Swine - Feeder to Finish,3
Mike Hill Farm,Wilmington,Duplin,35.0914,-77.9369,4770,Swine - Feeder to Finish,3
McArthur Farm,Fayetteville,Sampson,35.102286,-78.434222,4770,Swine - Feeder to Finish,3
Aaron Smith New,Wilmington,Duplin,35.1139,-77.8264,4770,Swine - Feeder to Finish,3
JJ's Hog Farm 1-4,Wilmington,Duplin,35.1297,-77.8661,4770,Swine - Feeder to Finish,3
Ralph Humphrey Farm,Washington,Lenoir,35.1334,-77.727481,4770,Swine - Wean to Feeder,2
Neal Grant Farm,Fayetteville,Richmond,35.133706,-79.798583,4770,Swine - Wean to Feeder,2
Cotton Top Farms,Wilmington,Duplin,35.1881,-78.0131,4770,Swine - Feeder to Finish,3
Kennedy Farm #2,Fayetteville,Sampson,35.193113,-78.253711,4770,Swine - Wean to Feeder,2
"TRC Farms, Inc.",Washington,Craven,35.2722,-77.33245,4770,Swine - Feeder to Finish,3
Chase Farms,Wilmington,Onslow,34.8033,-77.6467,4770,Swine - Farrow to Wean,1
H and R Farms,Wilmington,Onslow,34.9075,-77.5169,4770,Swine - Feeder to Finish,3
Triple H #1,Washington,Greene,35.5081,-77.6897,4743,Swine - Feeder to Finish,3
"Crane Creek Farms, LLC",Fayetteville,Sampson,34.888975,-78.25048,4715,Swine - Feeder to Finish,3
"Bryce Rouse Farm, Inc.",Washington,Lenoir,35.1736,-77.789983,4715,Swine - Wean to Feeder,2
Hinson Farm,Washington,Greene,35.5464,-77.6622,4696,Swine - Feeder to Finish,3
First Line Farms L.L.C.,Raleigh,Franklin,36.0131,-78.135,4691,Swine - Feeder to Finish,3
S-1 and S-2,Fayetteville,Sampson,35.173024,-78.238747,4658,Swine - Feeder to Finish,3
"Winnaway Farm - Sites 1, 2 & 3",Raleigh,Northampton,36.3306,-77.3583,4650,Swine - Feeder to Finish,3
McQueen Farms 1 & 2,Fayetteville,Bladen,34.47858,-78.717575,4600,Multiple,7
Britt Sow Farm,Wilmington,Duplin,35.155,-78.0694,4571,Multiple,7
P-20,Fayetteville,Sampson,34.850002,-78.48558,4559,Multiple,7
Watchoverva Farms #1,Wilmington,Onslow,34.9725,-77.6714,4553,Swine - Feeder to Finish,3
M & M Farms,Raleigh,Johnston,35.4505,-78.2535,4553,Swine - Feeder to Finish,3
Maple Hill Sow Farm,Wilmington,Pender,34.7139,-77.7236,4542,Swine - Farrow to Wean,1
Circle N Farm,Fayetteville,Sampson,35.107686,-78.450802,4537,Swine - Feeder to Finish,3
"Nash Pigg Rentals, LLC Rock Ridge I",Raleigh,Wilson,35.726608,-78.07561,4526,Swine - Feeder to Finish,3
Slim's Farm,Wilmington,Pender,34.6583,-78.0833,4488,Swine - Farrow to Feeder,4
Farm 35 & 33,Washington,Bertie,36.2417,-77.175,4483,Swine - Feeder to Finish,3
Farm 8525 & 8526,Washington,Hertford,36.370496,-77.104805,4483,Swine - Feeder to Finish,3
Sessoms Hog Farm,Fayetteville,Sampson,34.919256,-78.526344,4472,Swine - Wean to Feeder,2
Brown Farm,Wilmington,Duplin,34.9619,-77.9172,4472,Swine - Wean to Finish,6
CAJ One Inc,Raleigh,Edgecombe,36.0456,-77.5508,4464,Swine - Wean to Finish,6
Robin Hudson Farm,Washington,Pitt,35.5182,-77.21278,4444,Swine - Wean to Finish,6
Brandon Howard Farm #2,Wilmington,Onslow,34.8389,-77.4967,4432,Swine - Wean to Feeder,2
Weeks Farms Inc,Fayetteville,Harnett,35.256416,-78.60824,4403,Multiple,7
Kathy Eatmon #1,Raleigh,Wilson,35.705163,-77.811288,4401,Swine - Feeder to Finish,3
K & J Farm,Fayetteville,Harnett,35.389799,-78.887181,4368,Multiple,7
Spring Branch Farm,Raleigh,Nash,35.7647,-78.2278,4357,Swine - Wean to Feeder,2
Farm # 3505 & 3706,Washington,Jones,35.0625,-77.4208,4342,Swine - Wean to Feeder,2
Donald Strickland,Wilmington,Columbus,34.2575,-78.8425,4336,Swine - Feeder to Finish,3
Jerry Johnson Farm,Wilmington,Columbus,34.3944,-78.8618,4336,Swine - Feeder to Finish,3
"H&G Farms, Inc.",Wilmington,Pender,34.45,-78.0292,4336,Swine - Feeder to Finish,3
Ross Lewis Farm,Fayetteville,Bladen,34.519011,-78.836869,4336,Swine - Feeder to Finish,3
David McLean Farm,Fayetteville,Robeson,34.616589,-78.859472,4336,Swine - Feeder to Finish,3
Buck Olsen Farm,Wilmington,Duplin,34.768857,-77.707797,4336,Swine - Wean to Feeder,2
Sholar Enterprises Inc,Wilmington,Duplin,34.774303,-77.708316,4336,Swine - Wean to Feeder,2
General Lee's Finishers,Fayetteville,Bladen,34.81983,-78.488958,4336,Swine - Feeder to Finish,3
Ellwell Lake,Fayetteville,Sampson,34.824497,-78.435888,4336,Swine - Feeder to Finish,3
Tommy Chestnutt #2,Wilmington,Duplin,34.9403,-77.9667,4336,Swine - Feeder to Finish,3
"Steeds Farm, Inc.",Wilmington,Duplin,35.094864,-77.974901,4336,Swine - Feeder to Finish,3
Indian Neck Hog & Poultry Farm,Washington,Gates,36.3661,-76.7014,4336,Swine - Farrow to Finish,5
Funston Farms - Old & New,Wilmington,Brunswick,34.1083,-78.0403,4304,Multiple,7
Eastern Carolina Breeders (Home Farm),Washington,Jones,35.014302,-77.597362,4301,Swine - Feeder to Finish,3
Keith Metts Farm,Washington,Jones,35.0022,-77.5469,4268,Swine - Feeder to Finish,3
McCoy Cattle Farms,Washington,Craven,35.1843,-77.34356,4260,Swine - Feeder to Finish,3
Ford Farm,Fayetteville,Sampson,35.117086,-78.368047,4233,Swine - Feeder to Finish,3
Clear View Farm,Fayetteville,Richmond,35.076925,-79.791964,4232,Swine - Feeder to Finish,3
Al Murray Farm,Washington,Greene,35.5486,-77.7917,4225,Swine - Feeder to Finish,3
Triple J Farms,Fayetteville,Sampson,35.214111,-78.538766,4219,Swine - Feeder to Finish,3
Spell and Sons LLC,Fayetteville,Sampson,35.087816,-78.497088,4201,Swine - Feeder to Finish,3
"Turner Farms, LLC",Wilmington,Duplin,35.0222,-78.0361,4200,Swine - Feeder to Finish,3
W. Sam Lane Farm,Washington,Craven,35.3203,-77.360839,4191,Swine - Feeder to Finish,3
John Smith Jr. Sow Farm,Wilmington,Duplin,35.0489,-77.7647,4182,Multiple,7
Kelford Hog Farm,Washington,Bertie,36.183408,-77.248554,4169,Swine - Wean to Feeder,2
When Pigs Fly,Fayetteville,Sampson,35.2005,-78.564799,4133,Swine - Feeder to Finish,3
"Lafayette Farms, LLC L-10",Fayetteville,Sampson,34.960713,-78.415997,4129,Swine - Wean to Feeder,2
Bill Costin 1-4,Wilmington,Duplin,35.0122,-78.1286,4119,Swine - Farrow to Wean,1
Coastal Farms Inc,Wilmington,Columbus,34.4367,-78.7167,4110,Swine - Farrow to Wean,1
"P-22 A, B, and C",Fayetteville,Sampson,34.681247,-78.286313,4110,Swine - Feeder to Finish,3
C & C Finishing Farm,Fayetteville,Sampson,35.12743,-78.639247,4084,Swine - Wean to Feeder,2
Thomas Wilson Farm,Wilmington,Duplin,35.0722,-78.1083,4065,Swine - Feeder to Finish,3
Payback Farm,Raleigh,Johnston,35.2959,-78.3507,4065,Swine - Feeder to Finish,3
Gary Askew Swine Farm,Washington,Greene,35.393577,-77.738728,4065,Swine - Wean to Feeder,2
Jimmy Dail Farm,Washington,Greene,35.4533,-77.5806,4065,Swine - Farrow to Finish,5
Kenneth Dail Farm,Washington,Greene,35.4972,-77.6389,4065,Swine - Wean to Feeder,2
Edwards & Edwards Farm,Washington,Greene,35.4986,-77.6425,4065,Swine - Feeder to Finish,3
Sykes Farm # 2,Raleigh,Nash,36.0147,-78.0961,4065,Swine - Feeder to Finish,3
Rose Farm,Washington,Wayne,35.3161,-78.2014,4049,Swine - Feeder to Finish,3
Running W Farm,Washington,Lenoir,35.0993,-77.659081,4031,Swine - Feeder to Finish,3
Oakland Farms,Winston-Salem,Randolph,35.6992,-79.6233,4001,Swine - Feeder to Finish,3
P.M. Farm,Fayetteville,Sampson,34.880494,-78.342133,3997,Swine - Feeder to Finish,3
Rossie Bullock Farm,Wilmington,Columbus,34.3417,-78.8889,3984,Swine - Feeder to Finish,3
"Owen Farm, Inc.",Wilmington,Columbus,34.3806,-78.2939,3984,Swine - Feeder to Finish,3
Graham Farms,Fayetteville,Bladen,34.421113,-78.381755,3984,Swine - Feeder to Finish,3
Lola Sealey Rouse # 3,Fayetteville,Robeson,34.482286,-78.995794,3984,Swine - Feeder to Finish,3
Harold Pait Farm,Fayetteville,Bladen,34.59211,-78.723167,3984,Swine - Feeder to Finish,3
Wayne Sanderson Farm,Fayetteville,Sampson,34.723905,-78.251286,3984,Swine - Wean to Feeder,2
Marshall Livestock,Fayetteville,Sampson,34.757302,-78.330761,3984,Swine - Wean to Feeder,2
Hunter Farms,Wilmington,Duplin,34.7772,-77.7717,3984,Swine - Feeder to Finish,3
David Merritt Farm,Fayetteville,Sampson,34.881391,-78.207197,3984,Swine - Feeder to Finish,3
Michael Spell Hog Farm,Fayetteville,Sampson,34.908869,-78.315925,3984,Swine - Feeder to Finish,3
Ronald Peterson and Sons 1-4,Fayetteville,Sampson,34.90988,-78.283166,3984,Swine - Feeder to Finish,3
Simmons Hog Farm,Fayetteville,Sampson,34.92335,-78.400713,3984,Swine - Feeder to Finish,3
Jason Pearson Farm,Fayetteville,Sampson,34.93734,-78.315006,3984,Swine - Feeder to Finish,3
Herman Davis Houston Farm,Wilmington,Duplin,34.9486,-77.8433,3984,Swine - Farrow to Wean,1
J & B Farm,Fayetteville,Sampson,35.003086,-78.197536,3984,Swine - Feeder to Finish,3
Laurel Lake Farm,Fayetteville,Sampson,35.005508,-78.464769,3984,Swine - Wean to Feeder,2
"MAP Farm, LLC",Wilmington,Duplin,35.0264,-77.915,3984,Swine - Feeder to Finish,3
Joshua Coombs Farms LLC 5-8,Fayetteville,Sampson,35.071327,-78.185844,3984,Swine - Wean to Feeder,2
"Joshua Coombs Farm, LLC",Fayetteville,Sampson,35.072641,-78.189081,3984,Swine - Feeder to Finish,3
Jimmy Goodman Farm,Wilmington,Duplin,35.0731,-77.9814,3984,Swine - Feeder to Finish,3
Glenn Peterson Farm,Fayetteville,Sampson,35.087561,-78.249452,3984,Swine - Feeder to Finish,3
Luther Y. Ivey Farm,Wilmington,Duplin,35.0903,-77.9903,3984,Swine - Feeder to Finish,3
Keith Pate Farm,Wilmington,Duplin,35.1092,-78.0506,3984,Swine - Feeder to Finish,3
Glenn D. Jones Farm,Fayetteville,Sampson,35.119002,-78.395622,3984,Swine - Farrow to Wean,1
Billy Lockamy Farm,Fayetteville,Sampson,35.122242,-78.358497,3984,Swine - Farrow to Wean,1
T&T Farms,Fayetteville,Sampson,35.125692,-78.25425,3984,Swine - Feeder to Finish,3
N&N Lucas,Fayetteville,Sampson,35.130194,-78.225744,3984,Swine - Wean to Feeder,2
Waters Bros. LLC # 2,Fayetteville,Sampson,35.1311,-78.2353,3984,Swine - Feeder to Finish,3
Darden Farms Finishing,Fayetteville,Sampson,35.132269,-78.35715,3984,Swine - Feeder to Finish,3
Ben Warwick Farm,Fayetteville,Sampson,35.141017,-78.3455,3984,Swine - Feeder to Finish,3
Carr Farms,Fayetteville,Sampson,35.153327,-78.318566,3984,Swine - Feeder to Finish,3
Danny K. Bass Farm 21-24,Fayetteville,Sampson,35.167975,-78.27603,3984,Swine - Feeder to Finish,3
Loblolly Farm,Fayetteville,Moore,35.348368,-79.54136,3984,Swine - Feeder to Finish,3
Terry Barefoot Farm,Raleigh,Johnston,35.39191,-78.374855,3984,Swine - Feeder to Finish,3
Carol J. Lee Farm,Raleigh,Johnston,35.4042,-78.4222,3984,Swine - Feeder to Finish,3
Key Farm,Fayetteville,Moore,35.474744,-79.594513,3984,Swine - Wean to Feeder,2
P-2333 Houses 17-20,Wilmington,Duplin,34.9967,-77.9036,3984,Swine - Feeder to Finish,3
Hairr II,Wilmington,Pender,34.5925,-78.1428,3946,Multiple,7
Farrowood #2,Wilmington,Duplin,35.0214,-78.0322,3946,Multiple,7
Thurman Jessup Farm,Raleigh,Chatham,35.6053,-79.5319,3930,Swine - Farrow to Wean,1
Ray Pate Farm,Fayetteville,Sampson,35.144088,-78.291833,3928,Swine - Feeder to Finish,3
Peters Creek Farm (Sow),Fayetteville,Bladen,34.836377,-78.507916,3921,Multiple,7
Sykes Farm # 1,Raleigh,Nash,36.0008,-78.0839,3911,Swine - Feeder to Finish,3
Howard Robinson,Wilmington,Brunswick,34.1208,-78.1139,3902,Swine - Feeder to Finish,3
Pineland Farms,Fayetteville,Robeson,34.537992,-79.316325,3902,Swine - Feeder to Finish,3
Kenneth Autry Farm,Fayetteville,Bladen,34.6828,-78.493605,3902,Swine - Farrow to Wean,1
Clayton Davis Farm,Wilmington,Duplin,34.7492,-78.1392,3902,Swine - Wean to Feeder,2
Elston Farms,Wilmington,Duplin,34.7544,-77.7767,3902,Swine - Feeder to Finish,3
Sidney Cavenaugh Farm,Wilmington,Duplin,34.7611,-77.6869,3902,Swine - Feeder to Finish,3
Juniper Ridge Farm,Wilmington,Duplin,34.7783,-77.6972,3902,Swine - Farrow to Feeder,4
A J Farms LLC Farm,Wilmington,Duplin,34.79,-78.1,3902,Swine - Farrow to Wean,1
King Farms K-7,Wilmington,Duplin,34.7917,-77.9414,3902,Swine - Feeder to Finish,3
King Farms K-8,Wilmington,Duplin,34.8147,-77.715,3902,Swine - Feeder to Finish,3
James David Batts Farm,Wilmington,Duplin,34.8581,-77.7522,3902,Swine - Farrow to Finish,5
Mark Davis I,Wilmington,Duplin,34.8767,-78.0767,3902,Swine - Wean to Feeder,2
Register Farm,Fayetteville,Sampson,34.877133,-78.270747,3902,Swine - Wean to Feeder,2
Bobby Brown Farm,Wilmington,Duplin,34.8894,-77.9225,3902,Swine - Feeder to Finish,3
Next Generation 2,Wilmington,Duplin,34.9267,-77.685,3902,Swine - Feeder to Finish,3
Tripp Quinn Farm,Wilmington,Duplin,34.9936,-77.8403,3902,Swine - Feeder to Finish,3
BLT Farms,Wilmington,Duplin,34.99547,-77.890355,3902,Swine - Farrow to Wean,1
R & J Farms 13-16,Fayetteville,Sampson,34.99805,-78.264236,3902,Swine - Feeder to Finish,3
Timothy Houston / Farm #404,Washington,Jones,35.0022,-77.7119,3902,Swine - Feeder to Finish,3
Harold Smith Farm,Wilmington,Duplin,35.0258,-77.8006,3902,Swine - Farrow to Wean,1
Roy Wood Jr. Farm,Fayetteville,Hoke,35.03112,-79.331069,3902,Swine - Feeder to Finish,3
The Pete Smith Farm,Wilmington,Duplin,35.055,-77.7883,3902,Swine - Feeder to Finish,3
Oak Branch Farm 3-6,Fayetteville,Sampson,35.083511,-78.598378,3902,Swine - Feeder to Finish,3
Patterson Farm,Wilmington,Duplin,35.0839,-77.8186,3902,Swine - Feeder to Finish,3
Bluetick Farm,Wilmington,Duplin,35.086466,-77.925455,3902,Swine - Feeder to Finish,3
William Wilson Farm TDM #7,Fayetteville,Sampson,35.089922,-78.269952,3902,Swine - Wean to Feeder,2
White Flash Hog Farm,Wilmington,Duplin,35.1172,-77.9214,3902,Swine - Wean to Feeder,2
Pickett's Pigs,Wilmington,Duplin,35.1253,-77.88,3902,Swine - Feeder to Finish,3
Uzzell Bros. Swine,Wilmington,Duplin,35.1258,-77.8764,3902,Swine - Feeder to Finish,3
Warren Farming Company-McLamb Farm,Fayetteville,Sampson,35.126217,-78.296514,3902,Swine - Feeder to Finish,3
Herbert G Bowden Farm,Fayetteville,Sampson,35.164083,-78.324188,3902,Swine - Feeder to Finish,3
3D Farm TDM #16,Fayetteville,Sampson,35.165847,-78.438066,3902,Swine - Farrow to Wean,1
Kilpatrick Homestead Farm,Washington,Wayne,35.1786,-77.9686,3902,Swine - Farrow to Wean,1
Stillwater Farm,Washington,Jones,35.2011,-77.4767,3902,Swine - Feeder to Finish,3
Joseph Jennette Farm,Washington,Wayne,35.2286,-78.1372,3902,Swine - Feeder to Finish,3
Owen Jackson Farm,Washington,Wayne,35.2353,-78.0433,3902,Swine - Feeder to Finish,3
George Hall Farm,Washington,Wayne,35.2394,-78.0364,3902,Swine - Feeder to Finish,3
John Dunn Farm,Washington,Wayne,35.271,-78.295295,3902,Swine - Farrow to Wean,1
Jay Weaver Farm,Washington,Wayne,35.2792,-78.2006,3902,Swine - Farrow to Wean,1
James Sutton Farm,Washington,Wayne,35.2797,-77.8292,3902,Swine - Wean to Feeder,2
"Wiggins Farm, Inc.",Washington,Lenoir,35.2836,-77.8228,3902,Swine - Feeder to Finish,3
Grantham Farms 2,Washington,Wayne,35.3133,-78.2244,3902,Swine - Wean to Feeder,2
Eldridge Westbrook Farm,Raleigh,Johnston,35.3214,-78.289,3902,Swine - Feeder to Finish,3
Uzzell Swine Farm,Washington,Wayne,35.3289,-77.8456,3902,Swine - Feeder to Finish,3
"Carolina Family Farms, LLC",Washington,Wayne,35.3333,-78.1692,3902,Swine - Farrow to Feeder,4
Daryl Anderson Farm,Washington,Wayne,35.3583,-77.8367,3902,Swine - Farrow to Wean,1
J&M Hog Farm Inc,Raleigh,Johnston,35.3775,-78.4156,3902,Swine - Feeder to Finish,3
Kim Gray Farm,Washington,Wayne,35.3842,-77.8719,3902,Swine - Feeder to Finish,3
Owen Kornegay Farm,Raleigh,Johnston,35.385694,-78.177169,3902,Swine - Farrow to Wean,1
Roland Gray Farm,Washington,Wayne,35.3883,-77.8714,3902,Swine - Feeder to Finish,3
Chris Creech Farm,Washington,Wayne,35.42,-77.8233,3902,Swine - Feeder to Finish,3
Danny Kornegay Farm,Raleigh,Johnston,35.423767,-78.177866,3902,Swine - Feeder to Finish,3
Toby Roberts Farm,Washington,Wayne,35.4278,-77.8492,3902,Swine - Feeder to Finish,3
Polly Smith Farm,Washington,Wayne,35.4481,-78.0783,3902,Swine - Feeder to Finish,3
River Land,Washington,Wayne,35.4578,-78.0675,3902,Swine - Boar/Stud,8
M & J Farm 1,Washington,Pitt,35.4628,-77.245761,3902,Swine - Feeder to Finish,3
Nathan Smith Farm,Washington,Greene,35.4728,-77.7922,3902,Swine - Feeder to Finish,3
Della Ginn Farm,Washington,Greene,35.4758,-77.7425,3902,Swine - Feeder to Finish,3
J&J Farms,Wilmington,Duplin,34.85,-77.7847,3902,Swine - Feeder to Finish,3
Double J Farm,Washington,Lenoir,35.288,-77.82725,3902,Swine - Wean to Feeder,2
"Baby ""A"" Farm",Washington,Lenoir,35.3133,-77.46897,3902,Swine - Farrow to Feeder,4
C&G Hog Farm,Washington,Wayne,35.4731,-78.0928,3902,Swine - Farrow to Wean,1
Greenwood Nurseries,Fayetteville,Sampson,34.733591,-78.363727,3900,Swine - Feeder to Finish,3
"Shady Branch Farms, LLC Quwhiffle",Fayetteville,Sampson,34.818638,-78.21666,3900,Swine - Feeder to Finish,3
"Ralph Britt Nurseries Sites 1, 2 & 3",Wilmington,Duplin,35.1267,-78.0708,3900,Swine - Wean to Feeder,2
VF Farms LLC,Raleigh,Edgecombe,35.8315,-77.5952,3895,Swine - Feeder to Finish,3
Herring Pork Producers,Wilmington,Duplin,35.1075,-77.8697,3890,Swine - Feeder to Finish,3
Next Generation 1,Wilmington,Duplin,34.9108,-77.7397,3875,Swine - Farrow to Wean,1
Ezzell Farm,Fayetteville,Sampson,34.826069,-78.228939,3854,Swine - Feeder to Finish,3
"Seawright Farms, Inc.",Wilmington,Columbus,34.11,-78.74,3853,Multiple,7
Lisbon Sow Farm #1,Fayetteville,Bladen,34.498938,-78.541336,3853,Multiple,7
Van Eden Farms,Wilmington,Pender,34.61,-77.9333,3853,Multiple,7
"Green Meadows Farms, Inc.",Wilmington,Onslow,34.6636,-77.6186,3853,Multiple,7
Singletary Sow Farm,Fayetteville,Bladen,34.756975,-78.737366,3853,Multiple,7
Southern Cross Farm,Fayetteville,Sampson,34.793608,-78.275555,3853,Multiple,7
Squire's Sow Complex,Fayetteville,Bladen,34.841658,-78.770872,3853,Multiple,7
Eco Systems I (Sows),Wilmington,Duplin,35.0361,-77.9944,3853,Multiple,7
"Heritage Farms of North Carolina, LLC",Wilmington,Duplin,35.068112,-78.011137,3853,Multiple,7
Hairr I Sow Farm,Wilmington,Duplin,35.0683,-78.0167,3853,Multiple,7
Oakwood Sow Farm,Washington,Craven,35.3139,-77.233566,3853,Multiple,7
Evans & Sons Topping,Washington,Pitt,35.6296,-77.589396,3848,Swine - Wean to Finish,6
"Sasser's Mill Livestock, Inc.",Washington,Jones,35.1417,-77.4417,3812,Multiple,7
Robert L. Cox Farm (Griffin Farm),Washington,Jones,34.993099,-77.56488,3794,Swine - Wean to Feeder,2
Stantonsburg Farm,Washington,Greene,35.5917,-77.7722,3784,Multiple,7
Belvidere Farms,Washington,Perquimans,36.2475,-76.5542,3752,Multiple,7
Johnson Livestock,Raleigh,Edgecombe,35.9098,-77.6965,3726,Swine - Wean to Finish,6
Sam Worthington Farm,Washington,Pitt,35.5717,-77.214719,3719,Swine - Feeder to Finish,3
Huneycutt Pig Farms,Mooresville,Stanly,35.3083,-80.375,3709,Multiple,7
Gene Matthis Farm,Fayetteville,Sampson,34.905227,-78.313136,3672,Swine - Feeder to Finish,3
Creekside and Rhode Hog Farms,Wilmington,Duplin,34.9439,-77.8142,3672,Swine - Feeder to Finish,3
Reginald Strickland Farm,Fayetteville,Sampson,35.212805,-78.257122,3672,Swine - Feeder to Finish,3
R.M. Jackson Farm,Fayetteville,Sampson,35.187836,-78.53318,3659,Swine - Feeder to Finish,3
P&J Farms,Fayetteville,Sampson,35.231363,-78.281555,3659,Swine - Feeder to Finish,3
B.W. Barwick Farms LLC,Wilmington,Duplin,35.0203,-78.0161,3636,Multiple,7
Weston Hog Farm,Washington,Jones,35.0036,-77.6492,3631,Swine - Feeder to Finish,3
Morris Parks Farm,Washington,Wayne,35.1783,-77.9481,3631,Swine - Feeder to Finish,3
Pat Herring Farms,Washington,Wayne,35.2875,-78.0917,3618,Swine - Feeder to Finish,3
Lena Lowe Farm,Washington,Hertford,36.263051,-76.728872,3610,Swine - Farrow to Wean,1
Rawls Farms,Wilmington,Onslow,34.68,-77.5617,3577,Swine - Wean to Feeder,2
Cypress Creek Farm,Wilmington,Duplin,34.7614,-77.6989,3577,Swine - Feeder to Finish,3
Norwood Davis Farm,Wilmington,Onslow,34.7633,-77.6056,3577,Swine - Wean to Feeder,2
Terry Brinson Farm,Wilmington,Onslow,34.9103,-77.6042,3577,Swine - Wean to Feeder,2
"M & A Farm, LLC",Wilmington,Duplin,35.0303,-77.9153,3577,Swine - Feeder to Finish,3
Thomas Stroud Farm,Wilmington,Duplin,35.099165,-77.791506,3577,Swine - Wean to Feeder,2
Donald E. Taylor Farm,Washington,Lenoir,35.1166,-77.630926,3577,Swine - Feeder to Finish,3
James Braxton Rouse Farm,Washington,Lenoir,35.1813,-77.82763,3577,Swine - Feeder to Finish,3
"Rouse Farming, Inc.",Washington,Lenoir,35.1826,-77.827856,3577,Swine - Feeder to Finish,3
Craven Farms,Winston-Salem,Randolph,35.6328,-79.575,3577,Swine - Feeder to Finish,3
Maxine Houston Heath Farm,Washington,Jones,35.0036,-77.7214,3577,Swine - Feeder to Finish,3
"Bear Creek Farm, LLC",Washington,Lenoir,35.2414,-77.76829,3577,Swine - Feeder to Finish,3
Tommy McCoy Livestock,Washington,Craven,35.2412,-77.283879,3562,Swine - Feeder to Finish,3
Strother Swine Farms Unit 5 - Nash Pig Farm,Raleigh,Nash,35.931487,-77.945636,3527,Swine - Farrow to Wean,1
Ronnie Carter #2 Farm,Fayetteville,Sampson,34.652594,-78.20218,3496,Swine - Wean to Feeder,2
Mott Farm Site #2,Fayetteville,Sampson,34.671075,-78.265883,3496,Swine - Wean to Feeder,2
Carl Riley Farm,Fayetteville,Sampson,34.683813,-78.206444,3496,Swine - Feeder to Finish,3
"Steed's Farms, Inc.",Fayetteville,Sampson,34.689269,-78.280452,3496,Swine - Feeder to Finish,3
FMC Farm,Wilmington,Pender,34.693892,-77.985361,3496,Swine - Feeder to Finish,3
George McGill,Fayetteville,Sampson,34.719583,-78.170602,3496,Swine - Feeder to Finish,3
H. Cavenaugh Farm,Wilmington,Duplin,34.75,-77.825,3496,Swine - Wean to Feeder,2
Errol Quinn,Wilmington,Duplin,34.9167,-78.0083,3496,Swine - Feeder to Finish,3
William Powell Farm #2,Fayetteville,Sampson,34.685861,-78.217555,3469,Swine - Feeder to Finish,3
Oscar Autry Farm,Fayetteville,Bladen,34.686869,-78.499072,3469,Swine - Feeder to Finish,3
Joseph Casey Farm,Fayetteville,Sampson,35.169955,-78.335302,3469,Swine - Farrow to Wean,1
Roger Johnson Swine Farm,Washington,Greene,35.3847,-77.7319,3455,Swine - Farrow to Finish,5
NC Farm Partnership #2,Raleigh,Warren,36.5208,-78.2494,3417,Multiple,7
"Porkberry Farms, LLC",Fayetteville,Sampson,34.672491,-78.272236,3388,Swine - Farrow to Wean,1
KBA Naylor Farm,Fayetteville,Sampson,35.104522,-78.446191,3388,Swine - Wean to Feeder,2
South Pork,Washington,Lenoir,35.1143,-77.665059,3388,Swine - Feeder to Finish,3
Jack McLean Farm,Fayetteville,Robeson,34.639692,-79.311294,3382,Swine - Feeder to Finish,3
Lassiter Swine Farm,Raleigh,Johnston,35.4767,-78.4633,3381,Swine - Feeder to Finish,3
South River Farm,Fayetteville,Bladen,34.724577,-78.402516,3360,Swine - Feeder to Finish,3
Jumping Run Branch Farm,Fayetteville,Sampson,34.859825,-78.325036,3360,Swine - Wean to Feeder,2
Honeycutt Farms,Fayetteville,Sampson,34.874681,-78.238792,3360,Swine - Feeder to Finish,3
Ivey K. Peterson Farm,Fayetteville,Sampson,34.896011,-78.285524,3360,Swine - Feeder to Finish,3
R & K Jarman Farms 4-7,Wilmington,Duplin,34.8972,-77.8133,3360,Swine - Feeder to Finish,3
H. Mark Pearson Farm,Fayetteville,Sampson,34.937331,-78.314042,3360,Swine - Wean to Feeder,2
Robert Allen Thornton Farm,Fayetteville,Sampson,35.11755,-78.376244,3360,Swine - Feeder to Finish,3
Lewis G. Smith Farm,Wilmington,Duplin,35.1264,-77.9328,3360,Swine - Feeder to Finish,3
G & C Swine Farm,Fayetteville,Sampson,35.154705,-78.258255,3360,Swine - Feeder to Finish,3
Roger Barwick Farm,Wilmington,Duplin,35.1803,-78.0028,3360,Swine - Wean to Feeder,2
J. Sullivan & Son Farm,Fayetteville,Sampson,35.200566,-78.191991,3360,Swine - Feeder to Finish,3
"MAC Farms, LLC",Washington,Wayne,35.207866,-78.145602,3360,Swine - Feeder to Finish,3
B&L Farms,Fayetteville,Sampson,35.216161,-78.52493,3360,Swine - Feeder to Finish,3
Shelton Keith Jackson Farm,Raleigh,Johnston,35.291383,-78.315679,3360,Swine - Wean to Feeder,2
Sammy Britt Farm houses 7-10,Raleigh,Johnston,35.2925,-78.3153,3360,Swine - Feeder to Finish,3
"R & B Allen Farms, Inc.",Raleigh,Johnston,35.364269,-78.385651,3360,Swine - Feeder to Finish,3
James E. King Farm,Wilmington,Duplin,34.8806,-77.9064,3360,Swine - Farrow to Wean,1
Farm P-24,Fayetteville,Bladen,34.647688,-78.792986,3351,Swine - Wean to Feeder,2
Stafford Farm,Fayetteville,Sampson,34.815566,-78.386316,3341,Swine - Feeder to Finish,3
Randy Kennedy Farm,Wilmington,Duplin,34.9967,-77.7911,3339,Swine - Wean to Feeder,2
Boyd Barfield Farm 1&2,Wilmington,Duplin,35.1119,-77.9747,3339,Swine - Feeder to Finish,3
John Melvin Farm,Fayetteville,Sampson,34.688622,-78.226314,3333,Swine - Feeder to Finish,3
Naylor Swine 1&2 (Norshan Finishing),Fayetteville,Sampson,35.113738,-78.4547,3333,Swine - Feeder to Finish,3
Coastal Farms,Wilmington,Pender,34.475,-77.8625,3317,Swine - Feeder to Finish,3
Double S Farm,Fayetteville,Bladen,34.481241,-78.781591,3317,Swine - Feeder to Finish,3
Fennell Farms # 2,Wilmington,Pender,34.4917,-77.9639,3317,Swine - Feeder to Finish,3
Black Farms of Pender County,Wilmington,Pender,34.4928,-78.1408,3317,Swine - Feeder to Finish,3
Joel Robbins Finishers,Fayetteville,Bladen,34.50985,-78.518522,3317,Swine - Feeder to Finish,3
"Beaver Branch Farms, LLC",Wilmington,Pender,34.6125,-78.025,3317,Swine - Feeder to Finish,3
Dewayne Silance Farm,Wilmington,Onslow,34.7208,-77.5319,3317,Swine - Feeder to Finish,3
Mears Branch Farm,Wilmington,Duplin,34.7369,-78.125,3317,Swine - Feeder to Finish,3
Vaden Bond Farm 2,Wilmington,Duplin,34.739664,-77.781349,3317,Swine - Feeder to Finish,3
Little Brook Hog Farm,Wilmington,Duplin,34.7642,-77.7517,3317,Swine - Feeder to Finish,3
"Homestead Farms, Inc #2",Wilmington,Duplin,34.822327,-78.159799,3317,Swine - Wean to Feeder,2
Oneal Gurganus Farm,Wilmington,Onslow,34.8272,-77.6306,3317,Swine - Feeder to Finish,3
Norman Farms 2,Wilmington,Duplin,34.835,-77.8875,3317,Swine - Farrow to Wean,1
Hunter Farms,Wilmington,Duplin,34.8369,-77.7056,3317,Swine - Feeder to Finish,3
King & Sons Farm,Wilmington,Duplin,34.8381,-77.9634,3317,Swine - Feeder to Finish,3
Virginia Farm,Wilmington,Duplin,34.8389,-77.9186,3317,Swine - Feeder to Finish,3
Jared & Shayne Farm,Wilmington,Duplin,34.84,-77.7575,3317,Swine - Feeder to Finish,3
Sloan Brothers,Wilmington,Duplin,34.8447,-77.7072,3317,Swine - Feeder to Finish,3
Hog Heaven,Wilmington,Duplin,34.8486,-77.9019,3317,Swine - Wean to Feeder,2
Brinson II,Wilmington,Onslow,34.9353,-77.5389,3317,Swine - Feeder to Finish,3
Brinson Farm,Wilmington,Onslow,34.9431,-77.6106,3317,Swine - Feeder to Finish,3
George Farrior #1&2,Wilmington,Duplin,34.9433,-77.92,3317,Swine - Farrow to Wean,1
Bert Hall Farm,Wilmington,Onslow,34.9494,-77.5583,3317,Swine - Feeder to Finish,3
L&D Farms,Wilmington,Duplin,34.9656,-77.8456,3317,Swine - Feeder to Finish,3
Morris Kennedy #2,Wilmington,Duplin,34.976261,-77.784362,3317,Swine - Feeder to Finish,3
Sherall Houston Farm,Washington,Jones,34.9814,-77.6769,3317,Swine - Farrow to Wean,1
Ward Baker Farm,Wilmington,Duplin,34.9817,-77.7736,3317,Swine - Feeder to Finish,3
Brian Kennedy # 2,Wilmington,Duplin,34.9858,-77.7153,3317,Swine - Feeder to Finish,3
Cattle Pride Farm,Fayetteville,Sampson,35.043608,-78.523381,3317,Swine - Feeder to Finish,3
4-H Farm,Fayetteville,Sampson,35.058867,-78.572969,3317,Swine - Feeder to Finish,3
Singley & Son Farm,Fayetteville,Sampson,35.060516,-78.549066,3317,Swine - Feeder to Finish,3
Kornegay Acres Hog Farm,Wilmington,Duplin,35.0867,-77.8697,3317,Swine - Feeder to Finish,3
H&H Farms,Wilmington,Duplin,35.1158,-77.9789,3317,Swine - Feeder to Finish,3
Mickey Stroud Farm #1 & #2,Wilmington,Duplin,35.1186,-77.8292,3317,Swine - Feeder to Finish,3
Robert Jackson Farm,Fayetteville,Sampson,35.140152,-78.483355,3317,Swine - Feeder to Finish,3
Kornegay Brothers,Wilmington,Duplin,35.15443,-77.82186,3317,Swine - Feeder to Finish,3
Ronald Wooten Farm,Fayetteville,Sampson,35.252088,-78.461472,3317,Swine - Farrow to Wean,1
Shelton Keene  Farm 1,Washington,Wayne,35.2653,-78.2342,3317,Swine - Feeder to Finish,3
J&C Farm,Washington,Wayne,35.28253,-78.28981,3317,Swine - Feeder to Finish,3
Shelton Keene  Farm 2,Washington,Wayne,35.2833,-78.2297,3317,Swine - Feeder to Finish,3
Vance Perkins Farms,Washington,Wayne,35.346713,-78.104175,3317,Swine - Feeder to Finish,3
David Stocks Farm LLC,Washington,Craven,35.3701,-77.302442,3317,Swine - Farrow to Wean,1
Warters Isolation,Washington,Greene,35.3903,-77.7906,3317,Swine - Feeder to Finish,3
Bruce Howell Farm,Washington,Wayne,35.4219,-78.0325,3317,Swine - Farrow to Finish,5
Earnest Ray Carter Farm,Wilmington,Duplin,34.9292,-77.7458,3317,Swine - Feeder to Finish,3
New Ground Farm,Wilmington,Duplin,34.9786,-77.7808,3317,Swine - Feeder to Finish,3
D&E Swine Farm,Washington,Jones,35.0375,-77.6297,3317,Swine - Farrow to Feeder,4
Bobcat Farm,Fayetteville,Sampson,34.78081,-78.249548,3288,Swine - Feeder to Finish,3
P-12 A-D,Fayetteville,Sampson,34.845802,-78.456066,3288,Swine - Feeder to Finish,3
Blue Farm & White Farm,Fayetteville,Hoke,34.914505,-79.3175,3288,Swine - Feeder to Finish,3
"Sarem Farms, Inc.",Washington,Gates,36.475,-76.7856,3288,Swine - Feeder to Finish,3
"Gillette Farm #1, # 2",Wilmington,Onslow,34.8219,-77.485,3285,Swine - Feeder to Finish,3
Whitney Farm & Earnest R. Kennedy Farm,Wilmington,Duplin,35.0025,-77.7656,3285,Swine - Wean to Feeder,2
Michael Rose Hog Farm,Washington,Wayne,35.4461,-78.0914,3285,Swine - Wean to Feeder,2
Rex Halso & Son # 2,Wilmington,Duplin,34.9292,-77.7242,3285,Swine - Feeder to Finish,3
"GAB Farms, LLC",Wilmington,Duplin,34.8742,-77.7972,3279,Swine - Wean to Finish,6
David G. Herring Swine Farm,Raleigh,Johnston,35.293,-78.3487,3274,Swine - Feeder to Finish,3
King Pens,Wilmington,Duplin,34.82,-77.73,3268,Swine - Farrow to Wean,1
Dismal Farms,Raleigh,Johnston,35.337392,-78.493216,3268,Swine - Feeder to Finish,3
Hickman Farm,Washington,Pitt,35.4253,-77.315733,3268,Swine - Feeder to Finish,3
"Lafayette Farms, LLC L-2",Fayetteville,Sampson,34.935422,-78.44343,3267,Swine - Feeder to Finish,3
"Earth Right Farms, Inc.",Wilmington,Duplin,35.1308,-78.0172,3261,Multiple,7
Gillespie Farm LLC,Fayetteville,Bladen,34.582997,-78.614869,3252,Swine - Feeder to Finish,3
Six Forks Farm,Wilmington,Pender,34.6,-77.9067,3252,Swine - Feeder to Finish,3
South River Farm,Fayetteville,Sampson,34.650745,-78.307255,3252,Swine - Feeder to Finish,3
Mott Farm,Fayetteville,Sampson,34.674513,-78.262855,3252,Swine - Farrow to Wean,1
Wyne Creek Farm,Fayetteville,Sampson,34.745392,-78.258733,3252,Swine - Farrow to Wean,1
Lynn Tew Farm,Wilmington,Duplin,34.7814,-78.1011,3252,Swine - Wean to Feeder,2
"Top Hog (Delway 23-1,23-2,23-3,23-4)",Fayetteville,Sampson,34.829697,-78.198055,3252,Swine - Feeder to Finish,3
Morris Barwick Farm,Washington,Lenoir,35.1306,-77.704104,3252,Swine - Wean to Feeder,2
Brewer Sharpsburg Farm,Raleigh,Edgecombe,35.8511,-77.7836,3252,Swine - Feeder to Finish,3
Big H Farm,Wilmington,Duplin,34.7389,-77.7444,3252,Swine - Feeder to Finish,3
James P. Brown Farm,Wilmington,Duplin,34.8767,-77.9133,3252,Swine - Farrow to Wean,1
Charles Massey Farm,Washington,Wayne,35.2694,-78.2764,3252,Swine - Feeder to Finish,3
Alvis Raynor Farm,Wilmington,Duplin,34.7511,-77.765,3248,Swine - Feeder to Finish,3
Vance J. Basden Farm,Wilmington,Duplin,34.9075,-77.6858,3241,Swine - Farrow to Wean,1
Black Creek Nursery,Raleigh,Johnston,35.472254,-78.58452,3240,Swine - Farrow to Finish,5
3501 & 3102,Wilmington,Duplin,34.8031,-78.1731,3233,Swine - Wean to Feeder,2
P-11,Fayetteville,Sampson,35.057081,-78.252831,3232,Swine - Feeder to Finish,3
Steve Grady Nursery,Wilmington,Duplin,35.1461,-77.9944,3200,Swine - Farrow to Wean,1
K & P Nurseries,Wilmington,Pender,34.7083,-78.0833,"3,200",Swine - Farrow to Finish,5
MD Robinson Farms 1-4,Washington,Jones,35.0967,-77.5653,3200,Swine - Farrow to Wean,1
Max & Theresa Futrell,Washington,Wayne,35.3283,-78.1931,3184,Swine - Wean to Feeder,2
Sasser Sow Farm,Washington,Wayne,35.257634,-77.934717,3174,Multiple,7
Herschel Jenkins Farm 2,Wilmington,Duplin,34.7497,-77.7317,3144,Swine - Feeder to Finish,3
Riverside Farms,Fayetteville,Sampson,34.884069,-78.227636,3117,Swine - Wean to Feeder,2
P-7 A - E,Fayetteville,Bladen,34.688483,-78.792986,3091,Swine - Feeder to Finish,3
William Thomas Steed Farm,Fayetteville,Sampson,35.135922,-78.36183,3089,Swine - Farrow to Wean,1
Sanderson Swine,Washington,Wayne,35.3189,-78.2042,3089,Swine - Feeder to Finish,3
Allen Brothers Farm,Fayetteville,Bladen,34.5987,-78.804752,3040,Swine - Wean to Feeder,2
"OK Farms of Cedar Creek, LLC",Fayetteville,Cumberland,34.940364,-78.713933,3040,Swine - Feeder to Finish,3
Marths Smith Farm,Washington,Lenoir,35.1541,-77.579589,3035,Swine - Feeder to Finish,3
P-14 A&B,Fayetteville,Bladen,34.816858,-78.805961,3022,Swine - Wean to Feeder,2
Farm 7690 & 7691,Fayetteville,Robeson,34.835858,-78.918181,3022,Swine - Feeder to Finish,3
Barham Farms Home Farms 48A,Raleigh,Johnston,35.7047,-78.3156,3011,Multiple,7
Scott Byrd Farm,Fayetteville,Sampson,34.970228,-78.574442,3000,Swine - Farrow to Wean,1
"Griffin and Griffin Hog Farm, LLC",Washington,Greene,35.4983,-77.7639,3000,Swine - Gilts,9
Fletcher McDuffie Farms,Fayetteville,Bladen,34.686044,-78.562633,2988,Swine - Wean to Feeder,2
P-2333 Houses 14-16,Wilmington,Duplin,35.0014,-77.8992,2988,Swine - Feeder to Finish,3
Sam Anders Farm,Fayetteville,Sampson,35.122283,-78.371455,2988,Swine - Feeder to Finish,3
"Pearsall Farm, Inc.",Fayetteville,Sampson,35.139592,-78.345328,2988,Swine - Feeder to Finish,3
Danny K. Bass Farm,Fayetteville,Sampson,35.166238,-78.281913,2988,Swine - Feeder to Finish,3
Wilma Dean Britt Farm,Raleigh,Johnston,35.292417,-78.310911,2988,Swine - Farrow to Wean,1
Jester Ridge Farm,Winston-Salem,Randolph,35.775,-79.5964,2981,Swine - Wean to Feeder,2
Wildwood Farm,Washington,Beaufort,35.3141,-76.9392,2973,Swine - Feeder to Finish,3
Southwoods,Washington,Pitt,35.525,-77.185781,2972,Swine - Feeder to Finish,3
Outback Farms LLC,Washington,Pitt,35.6885,-77.5504,2972,Swine - Feeder to Finish,3
Thomas Chestnutt Farm #1,Wilmington,Duplin,34.9292,-77.9917,2959,Swine - Feeder to Finish,3
Exum Mills Sow,Washington,Wayne,35.4653,-77.8778,2959,Swine - Wean to Feeder,2
Vanguard Farms Inc,Washington,Beaufort,35.44314,-77.12842,2957,Multiple,7
"Nahunta Sow #1, #2 & Isolation",Washington,Wayne,35.5025,-77.9231,2957,Multiple,7
Plantation Sow Farm,Raleigh,Northampton,36.2481,-77.2178,2957,Multiple,7
Donald E. Byrd,Raleigh,Johnston,35.5958,-78.368,2955,Multiple,7
Clearwater Nursery,Fayetteville,Sampson,35.065981,-78.398531,2936,Swine - Feeder to Finish,3
Hugh Passingham Farm,Wilmington,Onslow,34.6503,-77.6094,2927,Swine - Feeder to Finish,3
Wendy Evans Farm,Wilmington,Duplin,34.9333,-78.0303,2927,Swine - Wean to Feeder,2
Muddy Creek Farm,Wilmington,Duplin,34.94,-77.8175,2927,Swine - Feeder to Finish,3
Earth Right Farms,Wilmington,Duplin,35.0219,-77.8706,2927,Swine - Feeder to Finish,3
Steve Smith Farm,Wilmington,Duplin,35.057561,-77.858721,2927,Swine - Wean to Feeder,2
O'Neal & Deborah Heath Farm,Washington,Jones,35.0667,-77.6,2927,Swine - Feeder to Finish,3
Steve Smith Farm31- 391,Wilmington,Duplin,35.0672,-77.825,2927,Swine - Wean to Feeder,2
D&H Farm,Fayetteville,Sampson,35.128236,-78.459561,2927,Swine - Feeder to Finish,3
"Mac Farms, LLC 5-7",Wilmington,Duplin,35.1903,-78.0369,2927,Swine - Feeder to Finish,3
"Franklin Lindsay Farm , Inc. 1-2",Fayetteville,Sampson,35.030983,-78.383881,2900,Swine - Feeder to Finish,3
Outlaw Farms,Wilmington,Duplin,35.1122,-77.8833,2888,Swine - Wean to Feeder,2
Quinn Sow,Wilmington,Duplin,35.1069,-78.0708,2850,Swine - Feeder to Finish,3
Squirrel Ridge Sow,Washington,Wayne,35.2756,-77.9583,2850,Swine - Feeder to Finish,3
Hodges Sow Farm,Washington,Beaufort,35.425,-77.0333,2850,Swine - Farrow to Feeder,4
Republican Sow Farm,Washington,Bertie,36.078623,-77.026692,2850,Swine - Wean to Feeder,2
Rockin M Farms,Wilmington,Duplin,34.7533,-78.17,2846,Swine - Feeder to Finish,3
Ivey Peterson Farm,Fayetteville,Sampson,34.902611,-78.27618,2846,Swine - Wean to Feeder,2
Garland & Petty Farms,Fayetteville,Sampson,34.752052,-78.358025,2833,Swine - Feeder to Finish,3
Jamie Dail Farm,Wilmington,Duplin,34.7364,-77.7633,2816,Swine - Farrow to Wean,1
Ingold Sow Farm,Fayetteville,Sampson,34.809119,-78.345675,2810,Swine - Feeder to Finish,3
Lake Wheeler Rd Field Lab-Swine Educational Unit,Raleigh,Wake,35.73,-78.6764,2801,Swine - Wean to Feeder,2
Sunshine Nurseries,Wilmington,Duplin,35.023444,-78.074718,2800,Swine - Wean to Feeder,2
TDM 26,Fayetteville,Cumberland,34.921656,-78.6553,2792,Multiple,7
HMR Farm,Wilmington,Duplin,35.0175,-77.9622,2791,Swine - Feeder to Finish,3
Hardy Moye Farm,Washington,Pitt,35.53999,-77.54905,2789,Swine - Feeder to Finish,3
B.G. Looper and Sons / Wesley Looper,Asheville,Caldwell,35.82,-81.3586,2769,Swine - Wean to Feeder,2
Thomas Farms Pork Inc. #2,Raleigh,Person,36.4247,-78.9142,2769,Swine - Wean to Feeder,2
"Carolina Bay Farms , LLC",Wilmington,Brunswick,34.123956,-78.423885,2740,Swine - Farrow to Wean,1
Sea Cattail Bay,Wilmington,Columbus,34.15,-78.65,2740,Swine - Farrow to Wean,1
Farm #28 / 3728,Fayetteville,Bladen,34.469572,-78.593002,2740,Swine - Farrow to Wean,1
P-17 A &B,Fayetteville,Bladen,34.557777,-78.495,2740,Swine - Farrow to Wean,1
Farm 7692,Fayetteville,Bladen,34.836594,-78.610177,2740,Swine - Feeder to Finish,3
P-19 A&B,Fayetteville,Sampson,34.842977,-78.469636,2740,Swine - Feeder to Finish,3
"Buckhorn Farms, LLC.",Fayetteville,Robeson,34.901964,-78.978733,2740,Swine - Farrow to Wean,1
P-16 A&B,Fayetteville,Cumberland,34.959472,-78.622078,2740,Swine - Feeder to Finish,3
P-23,Fayetteville,Sampson,35.109197,-78.374516,2740,Swine - Wean to Feeder,2
J.D. Teachey Sow Farm A & B,Fayetteville,Sampson,35.137333,-78.190794,2740,Swine - Farrow to Wean,1
Smith Person Farm,Washington,Wayne,35.5061,-77.9058,2740,Swine - Wean to Feeder,2
Stoneybrook Farm,Wilmington,Pender,34.7083,-78.0833,"2,740",Swine - Farrow to Wean,1
Sawyers Branch Farm,Wilmington,Duplin,35.1083,-77.7667,2723,Swine - Feeder to Finish,3
University Farm,Fayetteville,Sampson,34.930308,-78.308908,2714,Swine - Feeder to Finish,3
Ronnie Carter Farm,Fayetteville,Sampson,34.692011,-78.197033,2710,Swine - Wean to Feeder,2
Jerry Kennedy Farm,Wilmington,Duplin,34.9919,-77.7742,2710,Swine - Wean to Feeder,2
Mike Kennedy Farm,Wilmington,Duplin,35.005,-77.7706,2710,Swine - Feeder to Finish,3
M.F. McCullen Farm,Washington,Wayne,35.1867,-77.9625,2710,Swine - Wean to Feeder,2
Clifton Creech Farm,Washington,Greene,35.427917,-77.780034,2710,Swine - Farrow to Wean,1
Chris Murphy Swine Farm,Washington,Greene,35.4311,-77.75,2710,Swine - Feeder to Finish,3
Circle P,Raleigh,Chatham,35.628716,-79.507114,2710,Swine - Feeder to Finish,3
Naylor Farms (A&L),Fayetteville,Sampson,35.150675,-78.392625,2696,Swine - Feeder to Finish,3
Farm 5579,Fayetteville,Robeson,34.652847,-79.363381,2690,Swine - Feeder to Finish,3
Farm 5573,Fayetteville,Scotland,34.662669,-79.46216,2690,Swine - Feeder to Finish,3
Farm 5574,Fayetteville,Scotland,34.798776,-79.41135,2690,Swine - Feeder to Finish,3
Farm 5576,Fayetteville,Robeson,34.815175,-79.22415,2690,Swine - Wean to Feeder,2
Farm 5578,Fayetteville,Robeson,34.8298,-79.271278,2690,Swine - Feeder to Finish,3
Farm 5575,Fayetteville,Robeson,34.833453,-79.145228,2690,Swine - Feeder to Finish,3
Farm #10,Fayetteville,Sampson,35.108827,-78.19053,2690,Swine - Wean to Feeder,2
Farm 37 / 8537,Raleigh,Northampton,36.320323,-77.357719,2690,Swine - Wean to Feeder,2
Bull & Buddy Farms,Wilmington,Duplin,34.7808,-77.7367,2676,Swine - Wean to Feeder,2
Parham Farms,Fayetteville,Sampson,35.057316,-78.308816,2676,Swine - Farrow to Wean,1
Calvin L. Rouse Farm,Wilmington,Duplin,35.1161,-77.9536,2676,Swine - Wean to Feeder,2
Leslie Ray Whitted Farm,Washington,Wayne,35.2103,-77.9872,2676,Swine - Feeder to Finish,3
Beech Ridge Pork Farm Inc,Washington,Beaufort,35.58,-76.6133,2672,Swine - Feeder to Finish,3
"G.E. Pendleton Farms, Inc.",Raleigh,Halifax,36.09983,-77.37991,2663,Swine - Wean to Feeder,2
Nahunga Sow Farm,Wilmington,Duplin,35.0331,-77.9786,2635,Swine - Feeder to Finish,3
Lisbon Sow Farm #2,Fayetteville,Bladen,34.487741,-78.537608,2630,Swine - Farrow to Wean,1
Evergreen Sow,Fayetteville,Bladen,34.813525,-78.783216,2630,Swine - Farrow to Wean,1
Simmons Farm,Fayetteville,Sampson,34.869727,-78.452088,2630,Swine - Feeder to Finish,3
Crossbow Farm,Fayetteville,Bladen,34.681166,-78.500663,2602,Swine - Farrow to Wean,1
"Moye Swine, LLC",Washington,Greene,35.4633,-77.5578,2602,Swine - Farrow to Wean,1
Ronald Crawford Farm,Washington,Pitt,35.8039,-77.435944,2602,Swine - Wean to Feeder,2
"Old Camp Nursery #1, 2, 3 & 5",Wilmington,Duplin,34.7833,-78.1439,2600,Swine - Wean to Feeder,2
Danny L. Brown Farm,Wilmington,Duplin,34.7892,-78.0489,2600,Swine - Wean to Feeder,2
Double D 1&2 and White Heifer 1&2,Wilmington,Duplin,34.8008,-77.7519,2600,Swine - Feeder to Finish,3
Wendy #1 & 2,Wilmington,Duplin,34.9111,-78.0778,2600,Swine - Feeder to Finish,3
Bearskin Nurseries,Fayetteville,Sampson,34.986438,-78.444994,2600,Swine - Wean to Feeder,2
Byrd Nursery,Fayetteville,Sampson,35.034244,-78.222731,2600,Swine - Gilts,9
Boykin Lake Farm,Fayetteville,Sampson,34.899522,-78.426663,2591,Multiple,7
J.R. Lewis Farms,Washington,Pitt,35.6131,-77.65016,2582,Multiple,7
Redding Farm,Winston-Salem,Randolph,35.8303,-79.8917,2575,Swine - Feeder to Finish,3
Curtis Byrum Farm,Washington,Chowan,36.2603,-76.5833,2575,Swine - Feeder to Finish,3
Barwick Hog Farm Inc / Home Farm,Washington,Lenoir,35.1692,-77.705733,2547,Swine - Feeder to Finish,3
Scott Rivenbark Farm,Wilmington,Duplin,34.7844,-77.9417,2520,Swine - Feeder to Finish,3
Kenneth Brown,Wilmington,Duplin,34.85,-77.9433,2520,Swine - Farrow to Wean,1
Henry D. Teachey Farm,Wilmington,Duplin,34.8619,-77.9489,2520,Swine - Feeder to Finish,3
Old Farm,Wilmington,Duplin,34.8842,-77.7622,2520,Swine - Feeder to Finish,3
Deleon Bass,Fayetteville,Sampson,34.947433,-78.251344,2520,Swine - Feeder to Finish,3
D&Z Farms,Fayetteville,Sampson,35.058016,-78.311105,2520,Swine - Wean to Feeder,2
Claro Stroud Farm,Wilmington,Duplin,35.0236,-77.8944,2520,Swine - Feeder to Finish,3
Dail Farm Inc,Wilmington,Duplin,35.0758,-77.9406,2520,Swine - Gilts,9
Danny Mitchell Hog Farm,Washington,Wayne,35.4222,-78.1222,2488,Swine - Farrow to Wean,1
Gainey Swine Farm,Fayetteville,Sampson,35.089177,-78.397519,2481,Swine - Feeder to Finish,3
Rhodes Livestock,Washington,Craven,35.2544,-77.1617,2475,Swine - Wean to Feeder,2
Moore Bros. Farm,Fayetteville,Sampson,34.797994,-78.301333,2468,Multiple,7
2704 & 2706,Wilmington,Duplin,34.9692,-78.1422,2466,Swine - Feeder to Finish,3
Stanley Farms #7,Wilmington,Pender,34.563599,-78.018109,2439,Swine - Feeder to Finish,3
Triple B Farm,Wilmington,Duplin,34.7433,-78.0733,2439,Swine - Feeder to Finish,3
George Jones Farm,Wilmington,Duplin,34.78,-78.1067,2439,Swine - Wean to Feeder,2
James Eddie Brice Farm,Wilmington,Duplin,34.8233,-78.0958,2439,Swine - Farrow to Wean,1
Tom Whitfield Farm,Wilmington,Duplin,35.0647,-77.8028,2439,Swine - Wean to Feeder,2
Eagle Falls Hog Farm,Winston-Salem,Rockingham,36.4228,-79.8175,2439,Swine - Farrow to Finish,5
Ham Right Farm,Wilmington,Pender,34.6431,-77.9519,2439,Swine - Farrow to Wean,1
Brian Mitchell Farm,Washington,Hertford,36.2917,-76.75,2406,Swine - Feeder to Finish,3
S-3 / S-4,Wilmington,Duplin,34.741886,-78.100073,2402,Swine - Feeder to Finish,3
Fields Farm Site #1 - 3,Wilmington,Columbus,34.4522,-78.9075,2400,Swine - Wean to Feeder,2
Braxton Rouse Farm,Washington,Lenoir,35.1952,-77.803781,2400,Swine - Wean to Feeder,2
Sugar Hill,Fayetteville,Sampson,34.811452,-78.427383,2387,Multiple,7
Hilton Monroe Farm 1,Fayetteville,Bladen,34.53188,-78.576869,2385,Swine - Feeder to Finish,3
Hilton Monroe Farm,Fayetteville,Bladen,34.540516,-78.578705,2385,Swine - Feeder to Finish,3
Baucom Farm,Wilmington,Pender,34.6042,-77.9689,2385,Swine - Feeder to Finish,3
Sandy & Gary Dixon Farm,Wilmington,Onslow,34.7386,-77.5333,2385,Swine - Wean to Feeder,2
Chris and Beth Fountain Farm,Wilmington,Duplin,34.8094,-77.7039,2385,Swine - Wean to Feeder,2
Rick and William Lanier Farm 2,Wilmington,Duplin,34.860212,-77.698131,2385,Swine - Feeder to Finish,3
Adron Whaley Farm,Wilmington,Onslow,34.9119,-77.5172,2385,Swine - Wean to Feeder,2
Quinn Farm,Wilmington,Duplin,34.9922,-77.7836,2385,Swine - Feeder to Finish,3
Robinson Hog Farm,Washington,Lenoir,35.1221,-77.65184,2385,Swine - Feeder to Finish,3
"Wood Farms, Inc.",Raleigh,Johnston,35.354057,-78.437511,2385,Swine - Feeder to Finish,3
Dick Mills & Son Farm II,Washington,Pitt,35.471,-77.325167,2385,Swine - Feeder to Finish,3
Corbett Farms,Washington,Pitt,35.7244,-77.569477,2385,Swine - Feeder to Finish,3
Justin Edwards Farm,Wilmington,Duplin,34.8542,-77.7008,2385,Swine - Farrow to Feeder,4
BGH Farm - Louis Howard # 2,Wilmington,Duplin,34.9894,-77.905,2385,Swine - Farrow to Finish,5
George Bailey Farms (Galloway Farm),Washington,Greene,35.6431,-77.7047,2381,Swine - Feeder to Finish,3
Creech Farm,Raleigh,Johnston,35.465362,-78.516362,2371,Swine - Feeder to Finish,3
Gardner Farms 1,Raleigh,Franklin,36.0733,-78.135,2371,Swine - Farrow to Feeder,4
Crooms Bridge Farm / Blackjack North,Wilmington,Pender,34.6131,-77.8317,2337,Swine - Feeder to Finish,3
Hardwick Farms,Wilmington,Columbus,34.1833,-78.7867,2333,Multiple,7
Bladen Springs,Fayetteville,Bladen,34.540152,-78.463441,2329,Swine - Farrow to Wean,1
Cedar Bay Farm,Fayetteville,Bladen,34.8024,-78.721272,2329,Swine - Feeder to Finish,3
Mike Wallace Farm,Wilmington,Duplin,35.065522,-77.845355,2304,Swine - Wean to Feeder,2
Beaman Farms 3,Washington,Greene,35.515032,-77.667362,2302,Swine - Feeder to Finish,3
Drake Farms,Raleigh,Edgecombe,35.8114,-77.6417,2290,Swine - Farrow to Wean,1
Tyndall's Farm,Fayetteville,Sampson,35.090805,-78.607555,2280,Swine - Wean to Feeder,2
Herring Farm,Washington,Wayne,35.2783,-77.9186,2274,Multiple,7
Earl Honeycutt Farm,Fayetteville,Sampson,35.057755,-78.489938,2270,Swine - Wean to Feeder,2
Wendy 9&10,Fayetteville,Sampson,34.910183,-78.198888,2250,Swine - Wean to Feeder,2
Wet Creek Farm,Fayetteville,Moore,35.324344,-79.635713,2241,Swine - Feeder to Finish,3
Farm 31,Washington,Hertford,36.305346,-77.149872,2241,Swine - Farrow to Wean,1
Farm 36 / 8536,Raleigh,Northampton,36.3433,-77.4272,2241,Swine - Feeder to Finish,3
Farm 11 / 8511,Raleigh,Northampton,36.49,-77.3981,2241,Swine - Feeder to Finish,3
Green Acres Farm,Raleigh,Warren,36.4917,-78.1583,2241,Swine - Wean to Feeder,2
Parks Farms,Washington,Wayne,35.2089,-77.9561,2237,Swine - Wean to Feeder,2
Randolph Smith Farm,Washington,Lenoir,35.1358,-77.664059,2236,Swine - Feeder to Finish,3
"ATM Farms, LLP",Fayetteville,Sampson,34.740897,-78.305802,2220,Swine - Wean to Feeder,2
TC Buckhorn Ranch,Washington,Jones,35.0494,-77.2631,2208,Swine - Feeder to Finish,3
SHW Delway Farm,Fayetteville,Sampson,34.822991,-78.19473,2197,Swine - Farrow to Wean,1
Douglas C. Baker Farm,Washington,Perquimans,36.3411,-76.5197,2195,Swine - Feeder to Finish,3
T. Lindsay Pig Nursery,Fayetteville,Sampson,35.042547,-78.394433,2175,Swine - Feeder to Finish,3
Randy Tyndall Farm,Fayetteville,Sampson,35.042908,-78.38795,2175,Swine - Wean to Feeder,2
"Pine Ridge Pigs, LLC",Fayetteville,Sampson,35.043152,-78.241636,2175,Swine - Feeder to Finish,3
C & C Nursery,Fayetteville,Sampson,35.088408,-78.362133,2175,Swine - Farrow to Wean,1
Little River Farm,Fayetteville,Montgomery,35.219273,-79.920948,2175,Swine - Wean to Feeder,2
ADJ Nursery #3,Raleigh,Johnston,35.3264,-78.4264,2175,Swine - Feeder to Finish,3
Marshall Horne Farm,Fayetteville,Sampson,34.800441,-78.36548,2172,Swine - Feeder to Finish,3
Barry Billups,Fayetteville,Bladen,34.764194,-78.588786,2168,Swine - Wean to Feeder,2
Sandpit Pork,Fayetteville,Bladen,34.7657,-78.601772,2168,Swine - Wean to Feeder,2
Peggy Campbell Farm,Wilmington,Duplin,34.8556,-77.7897,2168,Swine - Boar/Stud,8
Hunter Farm,Wilmington,Duplin,34.897131,-77.825267,2168,Swine - Wean to Feeder,2
Piggy Bank Farm,Wilmington,Duplin,34.9664,-77.7311,2168,Swine - Feeder to Finish,3
Earl Barrow Farm,Washington,Greene,35.4425,-77.6542,2168,Swine - Farrow to Wean,1
Howard Johnson Farm,Raleigh,Edgecombe,35.8464,-77.725,2141,Swine - Wean to Finish,6
"Clear Run #1, 2, 3, 4 & 5",Fayetteville,Sampson,34.752905,-78.269697,2140,Swine - Farrow to Wean,1
Bullard Farm,Fayetteville,Cumberland,34.972656,-78.7164,2133,Swine - Farrow to Feeder,4
Morgan Swine Farm,Fayetteville,Anson,34.849783,-80.045608,2130,Swine - Feeder to Finish,3
Tidewater Research Station 2,Washington,Washington,35.8544,-76.6583,2130,Swine - Feeder to Finish,3
James Thomas Farm,Raleigh,Person,36.3372,-78.845,2130,Swine - Farrow to Feeder,4
"Shady Branch Farms, LLC Pine View 1& 2",Fayetteville,Bladen,34.456047,-78.600058,2100,Swine - Wean to Feeder,2
"Shady Branch Farms, LLC Deer Track",Fayetteville,Bladen,34.48728,-78.572236,2100,Swine - Wean to Feeder,2
Westbrook Farm,Wilmington,Duplin,35.043932,-77.851556,2095,Swine - Feeder to Finish,3
Kenny Bass Farm,Fayetteville,Sampson,35.169933,-78.384697,2080,Swine - Feeder to Finish,3
Hwy 43 Farm,Washington,Pitt,35.4209,-77.261906,2075,Swine - Feeder to Finish,3
P-60,Fayetteville,Harnett,35.434735,-78.867717,2057,Multiple,7
"Sand Ridge Farms, Inc",Washington,Craven,35.3661,-77.103803,2050,Swine - Feeder to Finish,3
Carroll's Foods Inc. Farm 86 & 92,Fayetteville,Harnett,35.256525,-79.155624,2046,Swine - Wean to Feeder,2
J.L.M. Parker Farms LLC,Washington,Greene,35.5353,-77.6347,2046,Swine - Farrow to Wean,1
Rose Hill Buying Station,Wilmington,Duplin,34.8278,-77.9694,2033,Swine - Farrow to Wean,1
William S Matthews Farm,Fayetteville,Sampson,35.0375,-78.1631,2033,Swine - Wean to Feeder,2
Sammy Lane Farm,Washington,Craven,35.3179,-77.350714,2033,Swine - Feeder to Finish,3
Pork Company Farm,Washington,Greene,35.392053,-77.657731,2033,Swine - Wean to Feeder,2
Cross Creek Farm,Washington,Greene,35.4569,-77.8169,2033,Swine - Farrow to Wean,1
W.C. Varnell Jr. Farm,Raleigh,Edgecombe,35.8872,-77.7661,2033,Swine - Feeder to Finish,3
Coble Farm,Wilmington,Duplin,34.8367,-78.0933,2033,Swine - Feeder to Finish,3
ADJ Nursery #2,Fayetteville,Sampson,35.133811,-78.529547,2025,Swine - Feeder to Finish,3
Joyner Daniels,Washington,Wayne,35.587698,-77.887391,2020,Multiple,7
Belle Toler Farm,Washington,Craven,35.2645,-77.0042,2005,Swine - Feeder to Finish,3
S&K Swine Inc,Washington,Pitt,35.3666,-77.31802,2000,Swine - Feeder to Finish,3
Linwood Hall Farm,Washington,Greene,35.4056,-77.7494,2000,Swine - Feeder to Finish,3
Dale R. Ackerman Farm,Fayetteville,Cumberland,34.875289,-78.533667,1992,Swine - Wean to Feeder,2
Otis Brown Farm,Wilmington,Duplin,34.883435,-77.925133,1992,Swine - Feeder to Finish,3
New Farm,Wilmington,Duplin,34.8939,-77.7608,1992,Swine - Farrow to Wean,1
Bruce A. Humble,Winston-Salem,Guilford,35.9161,-79.5625,1992,Swine - Feeder to Finish,3
P-18,Fayetteville,Cumberland,34.882789,-78.547578,1991,Swine - Feeder to Finish,3
High Ridge Farms,Washington,Pitt,35.5133,-77.265367,1982,Swine - Wean to Feeder,2
Fairwinds,Washington,Pitt,35.5356,-77.182633,1982,Swine - Wean to Feeder,2
Vincent C. King K-9,Wilmington,Pender,34.6686,-77.9636,1951,Swine - Wean to Feeder,2
Batts Farm - Buddy King,Wilmington,Duplin,34.7992,-77.95,1951,Swine - Feeder to Finish,3
"Lazy ""B"" Farms",Wilmington,Duplin,34.8125,-77.6786,1951,Swine - Wean to Feeder,2
Randy & Anna Harrell,Wilmington,Duplin,34.8739,-77.885,1951,Swine - Feeder to Finish,3
Ernest Byrd Hog Farm,Washington,Lenoir,35.0657,-77.723044,1951,Swine - Feeder to Finish,3
Faith Farms,Washington,Lenoir,35.0751,-77.708511,1951,Swine - Feeder to Finish,3
Tuckahoe Farms,Wilmington,Duplin,35.1131,-77.7561,1951,Swine - Feeder to Finish,3
Clarence Thigpen Farm,Washington,Lenoir,35.1184,-77.71169,1951,Swine - Feeder to Finish,3
Anthony Dodson Farm TDM #17,Fayetteville,Sampson,35.118991,-78.469769,1951,Swine - Feeder to Finish,3
David Price Farm,Wilmington,Duplin,35.152551,-77.840518,1951,Swine - Feeder to Finish,3
Oak Branch 1-2,Fayetteville,Sampson,35.157741,-78.567675,1951,Swine - Wean to Feeder,2
Brandon Whitfield Farm,Washington,Lenoir,35.1884,-77.82282,1951,Swine - Feeder to Finish,3
Shelton Lewis Farm,Washington,Wayne,35.2342,-78.0078,1951,Swine - Feeder to Finish,3
R&B Vinson Hog Farm,Washington,Wayne,35.2536,-77.8467,1951,Swine - Feeder to Finish,3
Joey & Deana Hood Farm,Washington,Wayne,35.2672,-78.1567,1951,Swine - Feeder to Finish,3
William Britt Farm,Washington,Wayne,35.30169,-77.843633,1951,Swine - Wean to Feeder,2
L. Greg Smith Jr,Washington,Wayne,35.4483,-78.0819,1951,Swine - Feeder to Finish,3
Bob Varnell Farm,Washington,Lenoir,35.2459,-77.802633,1951,Swine - Feeder to Finish,3
Gray Outlaw Farm,Washington,Wayne,35.2783,-78.0258,1951,Swine - Farrow to Finish,5
"Kinlaw Nursery #1, #2, #3",Fayetteville,Bladen,34.565158,-78.692661,1950,Swine - Wean to Feeder,2
"Blossom, Inc",Fayetteville,Sampson,34.696641,-78.309755,1950,Swine - Feeder to Finish,3
"Five Points, Huckleberry Hill & Deer Field Nurseries",Fayetteville,Sampson,34.698355,-78.172597,1950,Swine - Farrow to Wean,1
William Norris Farm,Wilmington,Duplin,34.765759,-78.182206,1950,Swine - Wean to Feeder,2
"Marvin T. Farms, Inc. - 1, 2 & 3",Fayetteville,Sampson,34.950813,-78.166933,1950,Swine - Feeder to Finish,3
H&J Nursery #1 - 3,Wilmington,Duplin,34.9689,-78.0367,1950,Swine - Feeder to Finish,3
"Jump and Run Farms, Inc.",Wilmington,Duplin,34.9714,-78.07,1950,Swine - Feeder to Finish,3
Pig Trott Nursery,Fayetteville,Sampson,35.013188,-78.572544,1950,Swine - Feeder to Finish,3
"Rabon Nursery 1, 2 & 3",Wilmington,Duplin,35.0236,-78.1183,1950,Swine - Feeder to Finish,3
Blackmore Nursery #1 & Turkey Hill & Piglett's Playpen,Wilmington,Duplin,35.0339,-78.14,1950,Swine - Wean to Feeder,2
Double H Farms,Wilmington,Onslow,34.8989,-77.6211,1920,Swine - Feeder to Finish,3
Jimmy Lee Farm,Washington,Lenoir,35.0994,-77.6667,1920,Swine - Feeder to Finish,3
W&P Farms Inc,Washington,Jones,35.1064,-77.4,1920,Swine - Feeder to Finish,3
No-Name #1 & 2,Washington,Jones,35.125,-77.5319,1920,Swine - Farrow to Wean,1
Cedar Springs Farm,Washington,Craven,35.2285,-77.44883,1920,Swine - Feeder to Finish,3
Double E Farms 2,Winston-Salem,Surry,36.4022,-80.7706,1920,Swine - Farrow to Wean,1
Sharp Farms,Raleigh,Wilson,35.7086,-78.115,1917,Swine - Wean to Feeder,2
Darden Family Farms 15-16,Fayetteville,Sampson,35.093772,-78.407094,1911,Swine - Wean to Feeder,2
Sandhill Farm,Fayetteville,Sampson,34.749275,-78.245147,1897,Swine - Feeder to Finish,3
A&B Farm,Wilmington,Duplin,34.8047,-77.9531,1897,Swine - Feeder to Finish,3
Wood Brothers Farming,Washington,Craven,35.2299,-77.331104,1897,Swine - Feeder to Finish,3
Billy R. Nixon Farm,Washington,Chowan,36.2278,-76.6164,1897,Swine - Farrow to Wean,1
Barrow East,Raleigh,Northampton,36.4069,-77.3756,1897,Swine - Wean to Finish,6
Cypress Lane Farms,Washington,Lenoir,35.0544,-77.6747,1894,Swine - Feeder to Finish,3
TDM #5,Fayetteville,Sampson,35.199416,-78.418822,1888,Swine - Feeder to Finish,3
Arthur Lee Naylor,Fayetteville,Sampson,35.119063,-78.458055,1884,Multiple,7
"Sea Gro, LLC",Wilmington,Columbus,34.264575,-78.926411,1860,Swine - Farrow to Feeder,4
Cornerstone Farm- Sow Farm,Wilmington,Columbus,34.325,-78.4417,1860,Swine - Farrow to Feeder,4
Wilson Multiplier,Raleigh,Edgecombe,35.8828,-77.4025,1845,Swine - Wean to Finish,6
"J. L. M. Pantego Farms, LLC",Washington,Beaufort,35.5884,-76.6885,1840,Swine - Feeder to Finish,3
C & C Top Hog Farm,Fayetteville,Sampson,34.907827,-78.220063,1836,Swine - Feeder to Finish,3
Parker's Swine Farm,Raleigh,Johnston,35.4153,-78.5511,1836,Multiple,7
Piggybank Sow,Washington,Wayne,35.310489,-78.090692,1804,Multiple,7
ADJ Nursery #1,Fayetteville,Sampson,35.083722,-78.243163,1800,Swine - Feeder to Finish,3
Coyote Nursery Farm LLC,Wilmington,Duplin,35.1428,-77.7883,1800,Swine - Feeder to Finish,3
H&F Nursery,Washington,Greene,35.4215,-77.6995,1800,Swine - Feeder to Finish,3
TDM 30 (Best Bros.),Fayetteville,Sampson,35.193813,-78.410988,1781,Swine - Feeder to Finish,3
TDM Farm 29 (W.T. Herring 100 ac. Site),Raleigh,Johnston,35.2814,-78.34,1781,Swine - Feeder to Finish,3
Holloman Farm,Washington,Greene,35.628242,-77.683522,1781,Swine - Feeder to Finish,3
George McLean Farm,Fayetteville,Robeson,34.432219,-79.216078,1776,Swine - Wean to Feeder,2
Eddie Johnson,Fayetteville,Robeson,34.436486,-79.187742,1776,Swine - Wean to Feeder,2
J&L Farms Inc,Wilmington,Columbus,34.4567,-78.8928,1776,Swine - Wean to Feeder,2
Pork Partners Inc,Fayetteville,Bladen,34.563122,-78.8039,1776,Swine - Wean to Feeder,2
McBryde Farm,Fayetteville,Hoke,34.911666,-79.304036,1776,Swine - Feeder to Finish,3
Alan H. Phillips & Marshall Phillips Farm,Wilmington,Duplin,34.995,-78.0217,1776,Swine - Wean to Feeder,2
N & T Nursery,Wilmington,Duplin,35.05,-77.87,1776,Swine - Wean to Feeder,2
Naked Creek Farm,Fayetteville,Montgomery,35.200845,-79.70309,1776,Swine - Feeder to Finish,3
Bobby Ray Atkins - Nursery #1 & 2,Fayetteville,Montgomery,35.441603,-79.852234,1776,Swine - Feeder to Finish,3
2601-2,Fayetteville,Bladen,34.82,-78.501877,1776,Swine - Feeder to Finish,3
Greg Brown 1&2,Wilmington,Duplin,34.8764,-77.9092,1775,Swine - Feeder to Finish,3
Jeff & Judy Spedding - Grower #296,Wilmington,Duplin,34.8806,-78.0042,1775,Swine - Wean to Feeder,2
Thomas Farms Pork Inc.,Raleigh,Person,36.3214,-78.8833,1762,Swine - Wean to Feeder,2
Blue Rose 3,Raleigh,Northampton,36.3878,-77.2744,1762,Swine - Feeder to Finish,3
A. Dale McRae Farm,Fayetteville,Anson,35.050361,-80.062561,1760,Swine - Wean to Feeder,2
Horsepen Sow Farm,Washington,Wayne,35.2,-77.9856,1755,Multiple,7
N & W Pig Farms,Washington,Wayne,35.5311,-77.9078,1750,Swine - Wean to Feeder,2
George Lang Farm,Washington,Gates,36.4375,-76.7072,1750,Swine - Wean to Finish,6
Halfmoon Pigs,Washington,Greene,35.4867,-77.5467,1740,Swine - Feeder to Finish,3
Camellia Farms,Wilmington,Duplin,35.1056,-78.1058,1738,Multiple,7
Sands Farm,Wilmington,Duplin,34.863862,-78.118362,1734,Multiple,7
Hillari Farm,Wilmington,Duplin,35.0047,-77.7778,1729,Swine - Wean to Feeder,2
Sandy Evans 19-20,Fayetteville,Robeson,34.378431,-79.140328,1721,Swine - Feeder to Finish,3
Kent Johnson Hog Farm,Raleigh,Edgecombe,35.8957,-77.6913,1718,Swine - Wean to Finish,6
Boyette Swine Farm,Raleigh,Person,36.2672,-79.0194,1712,Multiple,7
Pungo Farm,Washington,Beaufort,35.6401,-76.6392,1709,Swine - Wean to Feeder,2
Craft Farm,Wilmington,Onslow,34.8133,-77.6683,1707,Swine - Wean to Feeder,2
C. F. Blackwell Company,Raleigh,Granville,36.4458,-78.6836,1702,Swine - Feeder to Finish,3
Twin Oaks Farm,Fayetteville,Anson,34.815238,-80.25553,1697,Swine - Feeder to Finish,3
"Williams Farms, Inc.",Washington,Wayne,35.3281,-78.1192,1693,Swine - Feeder to Finish,3
William Register Farm,Wilmington,Duplin,34.855,-77.9525,1680,Swine - Farrow to Wean,1
Kent Evans,Wilmington,Duplin,34.8703,-77.8078,1680,Swine - Wean to Finish,6
Juanita Thigpen,Wilmington,Duplin,34.9264,-77.7194,1680,Swine - Wean to Feeder,2
W.D. Thigpen Farm,Wilmington,Duplin,34.9278,-77.7022,1680,Swine - Wean to Feeder,2
Boss Hog,Wilmington,Duplin,34.938719,-77.839801,1680,Swine - Farrow to Wean,1
Lester Houston Farm,Wilmington,Duplin,34.9414,-77.7286,1680,Swine - Wean to Feeder,2
Summerlin Farm,Wilmington,Duplin,34.9981,-77.9128,1680,Swine - Feeder to Finish,3
Morris Kennedy #1,Wilmington,Duplin,35.0008,-77.7731,1680,Swine - Wean to Feeder,2
Brandon Faircloth Farm,Fayetteville,Sampson,35.0187,-78.542447,1680,Swine - Feeder to Finish,3
Lynn Tew Farm,Fayetteville,Sampson,35.026519,-78.5186,1680,Swine - Feeder to Finish,3
Spell Hog Farm,Fayetteville,Sampson,35.0519,-78.445,1680,Swine - Feeder to Finish,3
McCullen Farms 5&6,Fayetteville,Sampson,35.065861,-78.311541,1680,Swine - Feeder to Finish,3
S & S Farm 3,Wilmington,Duplin,35.1478,-78.0372,1680,Swine - Feeder to Finish,3
Pussell Run Farm,Fayetteville,Sampson,35.152411,-78.495375,1680,Swine - Feeder to Finish,3
Dexter Jackson 29 & 30,Washington,Wayne,35.2403,-78.0486,1680,Swine - Feeder to Finish,3
George Grantham Farm,Washington,Wayne,35.3444,-78.1406,1680,Swine - Feeder to Finish,3
Rabon Maready Farm,Wilmington,Duplin,34.8878,-77.7758,1662,Swine - Farrow to Wean,1
Morris Brinson Farm,Wilmington,Onslow,34.9525,-77.5778,1659,Swine - Feeder to Finish,3
Cabin Farm,Wilmington,Duplin,34.9597,-77.8014,1659,Swine - Feeder to Finish,3
J&J Farm,Fayetteville,Sampson,35.171516,-78.417994,1659,Swine - Feeder to Finish,3
Leo Martin Farm,Washington,Wayne,35.2639,-78.1375,1659,Swine - Feeder to Finish,3
R. & G. Farm,Washington,Lenoir,35.3178,-77.450919,1659,Swine - Wean to Feeder,2
Milton G. Ingram Farm,Washington,Wayne,35.4531,-78.1264,1659,Swine - Farrow to Wean,1
Wolf Branch Farm,Wilmington,Duplin,35.15912,-77.84137,1655,Multiple,7
Farm 3713,Fayetteville,Sampson,34.820975,-78.17968,1652,Swine - Wean to Feeder,2
3112,Wilmington,Duplin,34.933586,-78.030295,1652,Swine - Wean to Feeder,2
Triumph Farm,Wilmington,Duplin,35.0569,-77.9242,1652,Swine - Feeder to Finish,3
3111,Fayetteville,Sampson,35.085877,-78.206592,1652,Swine - Wean to Feeder,2
Farm 8152,Raleigh,Halifax,36.074517,-77.504862,1652,Swine - Farrow to Wean,1
Farm 8151,Raleigh,Halifax,36.0808,-77.4953,1652,Swine - Feeder to Finish,3
Farm 5702,Fayetteville,Robeson,34.502811,-79.214233,1644,Swine - Farrow to Wean,1
French's Creek Sow Farm,Fayetteville,Bladen,34.547038,-78.418533,1644,Swine - Farrow to Wean,1
Farm 5710,Fayetteville,Bladen,34.57973,-78.804083,1644,Swine - Farrow to Wean,1
Farm 5701,Fayetteville,Robeson,34.614917,-79.364689,1644,Swine - Farrow to Wean,1
2601,Wilmington,Pender,34.62,-78.1044,1644,Swine - Farrow to Wean,1
Farm 5782,Fayetteville,Robeson,34.643167,-79.424869,1644,Swine - Feeder to Finish,3
Phillips Partners,Wilmington,Pender,34.705,-77.9775,1644,Swine - Feeder to Finish,3
"Turnbull Company Farms, LLC",Fayetteville,Bladen,34.73215,-78.673569,1644,Swine - Wean to Finish,6
2602-1,Fayetteville,Bladen,34.749941,-78.442336,1644,Swine - Wean to Finish,6
Farm # 7684,Fayetteville,Robeson,34.78055,-79.280308,1644,Swine - Feeder to Finish,3
2703,Fayetteville,Sampson,34.783294,-78.287036,1644,Swine - Feeder to Finish,3
7685,Fayetteville,Richmond,34.825883,-79.648636,1644,Swine - Feeder to Finish,3
7681,Fayetteville,Robeson,34.864336,-79.127033,1644,Swine - Feeder to Finish,3
Bobby Bland Hog Farm,Wilmington,Duplin,34.871459,-77.923136,1644,Swine - Farrow to Wean,1
Butler and Crumpler Farm (B&C Farm),Fayetteville,Sampson,34.911041,-78.497657,1644,Swine - Wean to Feeder,2
Farm 7688,Fayetteville,Scotland,34.928926,-79.473174,1644,Swine - Feeder to Finish,3
Farm 7687,Fayetteville,Scotland,34.932178,-79.490894,1644,Swine - Farrow to Wean,1
Farm 7689,Fayetteville,Scotland,34.936726,-79.471581,1644,Swine - Feeder to Finish,3
Farm 5786,Fayetteville,Hoke,34.941311,-79.321647,1644,Swine - Feeder to Finish,3
Whaley Farm,Washington,Lenoir,35.068941,-77.60723,1644,Swine - Wean to Finish,6
2702,Fayetteville,Sampson,35.088238,-78.332551,1644,Swine - Feeder to Finish,3
Zimmerman Farm,Washington,Lenoir,35.1315,-77.59586,1644,Swine - Feeder to Finish,3
"Goshen Farms of ENC, LLC",Fayetteville,Sampson,35.193933,-78.173977,1644,Swine - Feeder to Finish,3
Craig Farm #3,Washington,Wayne,35.3192,-78.1017,1644,Swine - Wean to Feeder,2
Alum Springs L.L.C.,Washington,Craven,35.3325,-77.39316,1644,Swine - Feeder to Finish,3
P-62,Fayetteville,Harnett,35.360084,-78.87369,1644,Swine - Feeder to Finish,3
G.I.S. of North Carolina,Washington,Pitt,35.7448,-77.285547,1644,Swine - Feeder to Finish,3
Farm 40,Washington,Hertford,36.289694,-76.897024,1644,Swine - Feeder to Finish,3
W4 Farms,Winston-Salem,Surry,36.3742,-80.7819,1644,Swine - Farrow to Finish,5
Farm 39,Raleigh,Northampton,36.488599,-77.495467,1644,Swine - Farrow to Wean,1
Morris Brinson Farm # 4,Wilmington,Onslow,34.9192,-77.6375,1631,Swine - Wean to Feeder,2
E & B Farm # 4,Wilmington,Duplin,34.805,-77.9775,1626,Swine - Feeder to Finish,3
David Stroud Farm,Wilmington,Onslow,34.8081,-77.5483,1626,Swine - Feeder to Finish,3
Johnny Boone Farm,Wilmington,Duplin,34.825,-78.0647,1626,Swine - Wean to Feeder,2
Tim Noble Farm,Wilmington,Duplin,34.965556,-77.818377,1626,Swine - Wean to Feeder,2
Jaron Kennedy Farm,Wilmington,Duplin,35.0021,-77.7914,1626,Swine - Wean to Feeder,2
J&B Farm,Wilmington,Duplin,35.05135,-78.13512,1626,Swine - Wean to Feeder,2
George D. Walker Farm,Wilmington,Duplin,35.0764,-77.8586,1626,Swine - Feeder to Finish,3
Popeye Farm,Wilmington,Duplin,35.0869,-77.8772,1626,Swine - Feeder to Finish,3
James B. Rouse Farm,Wilmington,Duplin,35.170546,-77.848908,1626,Swine - Feeder to Finish,3
Jones Farm,Fayetteville,Sampson,35.19468,-78.294952,1626,Swine - Wean to Feeder,2
William Davis Farm,Washington,Lenoir,35.2279,-77.657264,1626,Swine - Wean to Feeder,2
D.O. Bryan Farm,Washington,Wayne,35.2828,-78.2519,1626,Swine - Wean to Feeder,2
Langley Farm,Raleigh,Edgecombe,35.8535,-77.7723,1626,Swine - Farrow to Wean,1
Long Ridge Farm,Wilmington,Duplin,35.1033,-77.9167,1626,Swine - Feeder to Finish,3
Indian Springs Isolation,Washington,Wayne,35.2342,-77.9469,1626,Swine - Wean to Feeder,2
"Beaver Dam # 3, 4, & 5",Fayetteville,Sampson,34.929424,-78.547755,1625,Swine - Feeder to Finish,3
Pig Palace,Washington,Lenoir,35.0888,-77.70691,1625,Swine - Feeder to Finish,3
Wendell Teachey Farm,Wilmington,Duplin,34.8153,-77.9236,1623,Swine - Farrow to Wean,1
Alvin C. Knowles Farm,Wilmington,Duplin,34.7447,-78.1197,1621,Swine - Wean to Feeder,2
Duland Jenkins Farm #1,Wilmington,Onslow,34.8736,-77.6453,1621,Swine - Feeder to Finish,3
Carl Baker Farm,Wilmington,Duplin,34.9869,-77.8064,1621,Swine - Feeder to Finish,3
Papa T Farm,Wilmington,Duplin,35.0019,-77.7917,1621,Swine - Wean to Feeder,2
Langston Farms,Raleigh,Johnston,35.286416,-78.367926,1620,Swine - Feeder to Finish,3
Neill Jackson Farm,Fayetteville,Bladen,34.451572,-78.437858,1614,Multiple,7
Ben Gardner Farm,Washington,Pitt,35.4028,-77.297383,1610,Swine - Feeder to Finish,3
Batten Farm,Raleigh,Nash,36.019807,-77.9484,1605,Multiple,7
Bennie King,Wilmington,Brunswick,34.104978,-78.474189,1600,Swine - Wean to Feeder,2
C Bay Nursery,Wilmington,Brunswick,34.119927,-78.429807,1600,Swine - Wean to Feeder,2
Circle E Farms I & II,Wilmington,Columbus,34.2719,-79.0214,1600,Swine - Wean to Feeder,2
"James Emery Farms, Inc.",Wilmington,Columbus,34.2758,-78.9883,1600,Swine - Wean to Feeder,2
Mark and Tommy Johnson,Wilmington,Columbus,34.4278,-78.8806,1600,Swine - Wean to Feeder,2
Lucas Carter Farm,Wilmington,Pender,34.6511,-78.1411,1600,Swine - Feeder to Finish,3
Wayne & Susan Smith Farm,Fayetteville,Bladen,34.719841,-78.462661,1600,Swine - Farrow to Wean,1
Kenneth Inman Farms,Fayetteville,Bladen,34.745353,-78.823058,1600,Swine - Feeder to Finish,3
R & M Farms,Fayetteville,Bladen,34.748273,-78.826547,1600,Swine - Wean to Feeder,2
Billups Nursery,Fayetteville,Bladen,34.791302,-78.592686,1600,Swine - Wean to Feeder,2
Jana Farms #1 & #2,Fayetteville,Sampson,34.8409,-78.303152,1600,Swine - Farrow to Wean,1
Ronnie Johnson Farm,Fayetteville,Sampson,34.901838,-78.463633,1600,Swine - Wean to Feeder,2
Houston Nursery,Wilmington,Duplin,34.9458,-78.0139,1600,Swine - Feeder to Finish,3
Robert Butler,Fayetteville,Sampson,34.966788,-78.428844,1600,Swine - Feeder to Finish,3
Potter's Hill Nursery #1 & #2,Washington,Jones,34.9897,-77.6872,1600,Swine - Feeder to Finish,3
E & E Farms,Wilmington,Duplin,35.033111,-77.928084,1600,Swine - Feeder to Finish,3
Ray Gainey,Fayetteville,Sampson,35.057061,-78.286508,1600,Swine - Wean to Feeder,2
Wendy Creek Hog Farm,Fayetteville,Sampson,35.069127,-78.531258,1600,Swine - Feeder to Finish,3
Lanier's Nursery,Wilmington,Duplin,35.0861,-77.8006,1600,Swine - Farrow to Wean,1
Tear Shirt Farm #2,Wilmington,Duplin,35.091511,-78.058803,1600,Swine - Farrow to Wean,1
Sharon's Nursery #1&2,Wilmington,Duplin,35.0989,-77.8147,1600,Swine - Feeder to Finish,3
Mill Branch Farms,Wilmington,Duplin,35.108246,-78.006086,1600,Swine - Farrow to Finish,5
Diamond J Farms,Wilmington,Duplin,35.1275,-77.9569,1600,Swine - Feeder to Finish,3
Darden Farms Nursery,Fayetteville,Sampson,35.129314,-78.362256,1600,Swine - Feeder to Finish,3
Paradise Farms,Wilmington,Duplin,35.1436,-77.9575,1600,Swine - Feeder to Finish,3
T&C Rose #1&2,Wilmington,Duplin,35.1492,-77.9631,1600,Swine - Feeder to Finish,3
"Oink Heaven, Inc.",Washington,Jones,35.1664,-77.4706,1600,Swine - Feeder to Finish,3
Brightleaf Farms I & II,Washington,Wayne,35.5022,-77.8744,1600,Swine - Wean to Feeder,2
Ansley Nursery,Washington,Wayne,35.5414,-77.9319,1600,Swine - Feeder to Finish,3
Perry Nursery,Raleigh,Halifax,36.1697,-77.4272,1600,Swine - Wean to Feeder,2
Long Haul Farms Site #1 & 2,Wilmington,Duplin,34.9667,-78.1075,1600,Swine - Feeder to Finish,3
Major Murray Hog Farm,Wilmington,Duplin,34.7275,-77.9606,1599,Swine - Feeder to Finish,3
Starling Farm,Fayetteville,Sampson,35.080383,-78.644166,1598,Swine - Wean to Feeder,2
Eagles Nest Sow,Washington,Wayne,35.2417,-77.9844,1594,Multiple,7
"Benson Sow Farm, LLC",Wilmington,Duplin,35.0339,-77.9381,1587,Multiple,7
Grant Sow,Washington,Wayne,35.1967,-77.9472,1587,Multiple,7
J.L.M. Farms LLC,Raleigh,Johnston,35.338583,-78.239703,1587,Multiple,7
"Stuart Mill Road Farms, LLC",Fayetteville,Robeson,34.465586,-79.244253,1581,Swine - Farrow to Wean,1
Cognac Farms,Fayetteville,Richmond,34.960864,-79.624617,1577,Swine - Feeder to Finish,3
Carl Riley Nursery,Fayetteville,Sampson,34.794447,-78.192308,1575,Swine - Wean to Feeder,2
Longshot Nursery,Fayetteville,Sampson,35.180492,-78.450864,1575,Swine - Farrow to Wean,1
Double C Farms,Washington,Greene,35.48,-77.7733,1575,Swine - Feeder to Finish,3
Bailey Swine Farm,Washington,Greene,35.6467,-77.7044,1572,Swine - Wean to Feeder,2
Coastal Farms #1,Wilmington,Columbus,34.4306,-78.7678,1545,Swine - Farrow to Wean,1
J.L.M. Wilmar Farms LLC,Washington,Beaufort,35.384529,-77.112694,1538,Swine - Feeder to Finish,3
Bennett Place,Fayetteville,Bladen,34.471969,-78.550633,1520,Swine - Wean to Feeder,2
Crooked Branch Nursery,Fayetteville,Bladen,34.547691,-78.720022,1520,Swine - Wean to Feeder,2
Big Bay Nursery,Fayetteville,Bladen,34.551694,-78.714852,1520,Swine - Wean to Feeder,2
Baldwin Branch Nursery,Fayetteville,Bladen,34.580919,-78.639463,1520,Swine - Wean to Feeder,2
"Alpine Farms, Inc.",Fayetteville,Sampson,34.676142,-78.215322,1520,Swine - Feeder to Finish,3
"L & W Farms, Inc",Fayetteville,Sampson,34.870425,-78.433291,1520,Swine - Feeder to Finish,3
Pigtime Nurseries,Fayetteville,Cumberland,34.886683,-78.554053,1520,Swine - Feeder to Finish,3
"Carr Boy Farms, Inc. 1-4",Fayetteville,Sampson,34.891619,-78.446694,1520,Swine - Feeder to Finish,3
Ricky Hall Farm,Fayetteville,Cumberland,34.892247,-78.543367,1520,Swine - Wean to Feeder,2
"Carr Boy Farms,  Inc 5-8",Fayetteville,Sampson,34.893916,-78.456755,1520,Swine - Wean to Finish,6
James Ray Hall,Fayetteville,Cumberland,34.896675,-78.543831,1520,Swine - Wean to Feeder,2
J & T Nurseries,Fayetteville,Sampson,34.917839,-78.345161,1520,Swine - Farrow to Wean,1
Rodney Hall Farm 1-4,Fayetteville,Cumberland,34.945008,-78.610889,1520,Swine - Feeder to Finish,3
"Ben Leonard, Jr.",Fayetteville,Sampson,34.989558,-78.541611,1520,Swine - Feeder to Finish,3
Keith B Butler Farm,Fayetteville,Sampson,34.994166,-78.425341,1520,Swine - Wean to Feeder,2
JL Hog Farm,Fayetteville,Sampson,35.000391,-78.450058,1520,Swine - Feeder to Finish,3
Underwood Farms,Fayetteville,Sampson,35.031189,-78.363875,1520,Swine - Feeder to Finish,3
McPhail Nursery Farm,Fayetteville,Sampson,35.107281,-78.530688,1520,Swine - Feeder to Finish,3
Larry & Patricia's Pig Nursery,Fayetteville,Cumberland,35.184375,-78.677114,1520,Swine - Feeder to Finish,3
Ferrell Farms,Fayetteville,Harnett,35.415255,-78.640425,1520,Swine - Feeder to Finish,3
C&S Johnson,Raleigh,Johnston,35.4394,-78.5161,1520,Swine - Feeder to Finish,3
1900 Bridgers Place - Ralph F. Bridgers,Washington,Wayne,35.4514,-78.1183,1519,Swine - Feeder to Finish,3
Major Ivey Farm,Wilmington,Duplin,35.0853,-77.9483,1518,Swine - Feeder to Finish,3
White Plains Nursery,Fayetteville,Bladen,34.476322,-78.548255,1515,Swine - Wean to Feeder,2
White Rock Farms,Fayetteville,Anson,34.822255,-80.295013,1507,Swine - Farrow to Wean,1
White Rock Farms,Fayetteville,Anson,34.853097,-80.066391,1507,Swine - Wean to Feeder,2
Ballance Brothers Partnership,Washington,Wayne,35.5736,-77.9283,1506,Multiple,7
Mt. Olive Livestock,Wilmington,Duplin,35.1189,-78.1014,1501,Swine - Feeder to Finish,3
Freeman Murphy Farm,Wilmington,Duplin,35.0767,-77.85,1500,Swine - Feeder to Finish,3
Ben Outlaw Hog Farm,Washington,Wayne,35.2189,-77.8939,1491,Swine - Feeder to Finish,3
Wheeler Farm,Raleigh,Northampton,36.3544,-77.3356,1491,Swine - Wean to Feeder,2
Pine Ridge Farm,Washington,Greene,35.4011,-77.5817,1486,Swine - Feeder to Finish,3
Sandhill Sow Farm,Washington,Greene,35.4367,-77.7481,1486,Swine - Wean to Finish,6
Linwood Hall Sow Farm,Washington,Greene,35.4744,-77.7517,1486,Swine - Feeder to Finish,3
Andrews Hunt Farm (Castalia),Raleigh,Franklin,36.0761,-78.1014,1486,Swine - Wean to Finish,6
Tri-G3 Farm,Washington,Bertie,36.14471,-77.037893,1485,Swine - Wean to Finish,6
Collie Sow Farm,Washington,Wayne,35.235195,-77.911641,1478,Multiple,7
Blount Bros. Farm,Raleigh,Edgecombe,35.8597,-77.3694,1473,Swine - Wean to Feeder,2
P & F Farms,Mooresville,Rowan,35.669319,-80.37289,1468,Swine - Feeder to Finish,3
Grimes Road Farms,Fayetteville,Sampson,35.195336,-78.207519,1459,Swine - Farrow to Wean,1
Butler Farms,Fayetteville,Sampson,35.041053,-78.429514,1440,Swine - Feeder to Finish,3
Perry Sow,Raleigh,Halifax,36.2375,-77.4097,1425,Swine - Farrow to Wean,1
Dwight Mayo - Daughtry Farm,Raleigh,Johnston,35.4611,-78.2861,1423,Swine - Farrow to Wean,1
BNJ Farm,Raleigh,Wilson,35.620352,-77.882303,1404,Swine - Feeder to Finish,3
E&S Farm,Wilmington,Duplin,34.7775,-78.1186,1400,Swine - Feeder to Finish,3
Hickory Hill Farm,Wilmington,Duplin,34.8756,-77.7361,1400,Swine - Farrow to Wean,1
Kee-Lang Farms Inc,Washington,Jones,35.0392,-77.2994,1400,Swine - Feeder to Finish,3
Matt Butler Farm,Fayetteville,Sampson,35.045,-78.4394,1400,Swine - Wean to Feeder,2
Sasser Nursery,Washington,Wayne,35.2514,-77.9228,1400,Swine - Feeder to Finish,3
Roberts Nursery,Washington,Wayne,35.2569,-78.0006,1400,Swine - Feeder to Finish,3
McPhail Farms,Fayetteville,Sampson,35.070091,-78.554119,1395,Swine - Wean to Feeder,2
Legacy 2 Farm,Wilmington,Duplin,35.0139,-77.9183,1394,Swine - Farrow to Wean,1
Jeffrey Thornton Farm,Raleigh,Johnston,35.2722,-78.3742,1384,Swine - Feeder to Finish,3
Battlefield Sow Farm,Raleigh,Johnston,35.328857,-78.30552,1378,Swine - Feeder to Finish,3
Farm #30,Fayetteville,Bladen,34.5169,-78.591427,1370,Swine - Farrow to Wean,1
P-1,Fayetteville,Sampson,34.664919,-78.303891,1370,Swine - Feeder to Finish,3
P-2,Fayetteville,Sampson,34.665397,-78.312924,1370,Swine - Wean to Feeder,2
P-3,Fayetteville,Sampson,34.671083,-78.314183,1370,Swine - Farrow to Wean,1
P-4,Fayetteville,Sampson,34.672691,-78.307694,1370,Swine - Feeder to Finish,3
P-6,Fayetteville,Sampson,34.679205,-78.319091,1370,Swine - Wean to Feeder,2
P-5,Fayetteville,Sampson,34.681277,-78.314302,1370,Swine - Feeder to Finish,3
"C. Allen Farms, LLC",Fayetteville,Sampson,34.75398,-78.326936,1370,Swine - Farrow to Wean,1
P-14C,Fayetteville,Bladen,34.809475,-78.800216,1370,Swine - Feeder to Finish,3
P-19 D,Fayetteville,Sampson,34.837111,-78.46338,1370,Swine - Feeder to Finish,3
P-19 C,Fayetteville,Sampson,34.839666,-78.46631,1370,Swine - Feeder to Finish,3
JBJ Kilpatrick Farms Inc,Wilmington,Duplin,34.8917,-77.9167,1370,Swine - Wean to Finish,6
Farm #31 / 3731,Fayetteville,Sampson,34.924416,-78.510452,1370,Swine - Boar/Stud,8
Triple H Farms,Fayetteville,Sampson,34.940705,-78.458714,1370,Swine - Wean to Feeder,2
"Clayhill Farms, Inc.",Washington,Jones,34.9917,-77.2917,1370,Swine - Feeder to Finish,3
Farm #20 / 3620,Wilmington,Duplin,35.0953,-78.1378,1370,Swine - Wean to Feeder,2
Savannah Hill Farms,Fayetteville,Sampson,35.275125,-78.542338,1370,Swine - Feeder to Finish,3
Porter Farms,Mooresville,Cabarrus,35.3519,-80.4444,1370,Swine - Feeder to Finish,3
John Blosser Swine Farm,Wilmington,Columbus,34.1269,-78.7533,1355,Swine - Feeder to Finish,3
T & M Sow Farm,Fayetteville,Sampson,35.020527,-78.258875,1355,Swine - Feeder to Finish,3
John O. Royal #9,Fayetteville,Sampson,35.105214,-78.421105,1355,Swine - Feeder to Finish,3
Oakwood Farms,Winston-Salem,Randolph,35.5128,-79.745,1355,Swine - Feeder to Finish,3
David Murphrey Farm,Washington,Greene,35.5219,-77.6206,1355,Swine - Feeder to Finish,3
Michael Nixon Farm,Washington,Chowan,36.2153,-76.6756,1355,Swine - Wean to Feeder,2
DMJ Farms 2,Raleigh,Northampton,36.3008,-77.3264,1355,Swine - Feeder to Finish,3
Barrow West,Raleigh,Northampton,36.3667,-77.4533,1355,Swine - Feeder to Finish,3
T & S Denning Farm,Raleigh,Johnston,35.404275,-78.576738,1337,Swine - Feeder to Finish,3
Mike Lassiter Farm,Raleigh,Northampton,36.3647,-77.2647,1333,Swine - Feeder to Finish,3
Glenn Grady Farm,Washington,Wayne,35.274249,-77.929068,1331,Swine - Wean to Feeder,2
Arrowhead Farms,Washington,Wayne,35.232804,-78.216984,1320,Swine - Wean to Feeder,2
Jesse Oakes Nursery 1 & 2,Washington,Greene,35.3839,-77.5739,1320,Swine - Feeder to Finish,3
Ricky Smith Nursery,Fayetteville,Cumberland,34.865278,-78.555056,1310,Swine - Farrow to Finish,5
Concord #1 & #2,Fayetteville,Sampson,34.969301,-78.404441,1310,Swine - Feeder to Finish,3
Evan Nursery & Ash Nursery,Wilmington,Duplin,35.0106,-77.9697,1310,Swine - Wean to Feeder,2
4M Hog Farm Inc.,Washington,Wayne,35.2369,-78.1483,1303,Swine - Feeder to Finish,3
Farm 2148,Fayetteville,Sampson,35.059033,-78.206909,1302,Swine - Wean to Feeder,2
KBA,Wilmington,Columbus,34.4431,-78.6478,1300,Swine - Wean to Feeder,2
Fennell Nursery 1&2,Wilmington,Pender,34.4444,-77.9606,1300,Swine - Wean to Feeder,2
Moore Farm,Wilmington,Pender,34.5019,-78.1703,1300,Swine - Wean to Feeder,2
Fennert & Brewster Nursery,Wilmington,Pender,34.5275,-78.1469,1300,Swine - Wean to Feeder,2
JK Barnhill Teachy Farm,Wilmington,Pender,34.5325,-77.8667,1300,Swine - Wean to Feeder,2
JRock 1 & 2,Fayetteville,Bladen,34.542238,-78.58683,1300,Swine - Wean to Feeder,2
Jenni Farm #1 & 2,Wilmington,Pender,34.6258,-77.9481,1300,Swine - Wean to Feeder,2
A&G Smith Farms,Wilmington,Pender,34.648402,-78.130436,1300,Swine - Feeder to Finish,3
Jonathan Rivenbark Farm,Wilmington,Pender,34.6642,-77.9269,1300,Swine - Farrow to Wean,1
Young Nursery #1 & #2,Fayetteville,Sampson,34.669599,-78.188125,1300,Swine - Farrow to Wean,1
Shannonbrooke Farms,Fayetteville,Bladen,34.674616,-78.661641,1300,Swine - Farrow to Wean,1
Paul Stanley Nurseries,Fayetteville,Sampson,34.68733,-78.153383,1300,Swine - Feeder to Finish,3
Arran Nursery #1&2,Fayetteville,Sampson,34.704311,-78.325877,1300,Swine - Feeder to Finish,3
I-40 Nursery #1 & #2,Wilmington,Duplin,34.738185,-77.949058,1300,Swine - Wean to Feeder,2
B&K Nursery 1 & 2,Fayetteville,Sampson,34.758111,-78.213291,1300,Swine - Feeder to Finish,3
Hazelwood Family Farms,Fayetteville,Bladen,34.761508,-78.433408,1300,Swine - Wean to Feeder,2
Joe & Dwight Sholar Farm 1&2,Wilmington,Duplin,34.7708,-77.7867,1300,Swine - Feeder to Finish,3
Backwoods Nursery #1 & #2,Wilmington,Duplin,34.7869,-77.7422,1300,Swine - Farrow to Wean,1
Down Yonder Farms #1 & #2,Wilmington,Duplin,34.8061,-77.7167,1300,Swine - Feeder to Finish,3
Green Sea / Sir George Farm,Fayetteville,Bladen,34.80643,-78.483794,1300,Swine - Wean to Feeder,2
"Huffham Farms, Inc.",Wilmington,Duplin,34.815275,-78.133541,1300,Swine - Feeder to Finish,3
B & Y Family Farms,Fayetteville,Sampson,34.828975,-78.422633,1300,Swine - Farrow to Wean,1
Allen Cannady Farm #1,Fayetteville,Sampson,34.839658,-78.372016,1300,Swine - Farrow to Wean,1
Beaverdam Nursery #1 & #2,Fayetteville,Cumberland,34.8913,-78.606997,1300,Swine - Feeder to Finish,3
H & K Farm,Wilmington,Onslow,34.8936,-77.6186,1300,Swine - Feeder to Finish,3
Elder Creek Farm #2 & #3,Wilmington,Duplin,34.9069,-77.9942,1300,Swine - Wean to Feeder,2
Sycamore Station Nursery,Fayetteville,Sampson,34.944783,-78.166994,1300,Swine - Wean to Feeder,2
Tanner Farm,Fayetteville,Sampson,34.97605,-78.605238,1300,Swine - Feeder to Finish,3
Pigs-R-Us/Miller's Nursery,Wilmington,Duplin,34.9786,-77.7481,1300,Swine - Feeder to Finish,3
B&O Farm,Wilmington,Duplin,35.0156,-77.9967,1300,Swine - Feeder to Finish,3
Hillsdale Farm I&II,Wilmington,Duplin,35.0314,-78.0158,1300,Swine - Feeder to Finish,3
Pleasant Grove Nursery 1&2,Wilmington,Duplin,35.1056,-77.9022,1300,Swine - Farrow to Wean,1
Spencer Nursery 1 & 2,Fayetteville,Sampson,35.124922,-78.204442,1300,Swine - Wean to Feeder,2
Neuse #1 & Neuse #2,Washington,Craven,35.2584,-77.212528,1300,Swine - Feeder to Finish,3
"Shady Branch Farms, LLC Maul Swamp",Washington,Craven,35.3354,-77.110108,1300,Swine - Wean to Feeder,2
"Shady Branch Farms, LLC Palmetto",Washington,Craven,35.3577,-77.143749,1300,Swine - Farrow to Finish,5
"M.R. Langdon & Sons, Inc.",Raleigh,Johnston,35.5044,-78.5503,1300,Swine - Feeder to Finish,3
Maranatha Nursery #1 & #2,Washington,Wayne,35.5492,-78.0686,1300,Swine - Feeder to Finish,3
Jamie Dail Nurseries,Wilmington,Duplin,34.85,-77.8228,1300,Swine - Feeder to Finish,3
Deal Farm,Wilmington,Pender,34.6158,-77.8694,1287,Swine - Feeder to Finish,3
"Lafeyette Farms,LLC L-6",Fayetteville,Sampson,34.895727,-78.36252,1282,Swine - Feeder to Finish,3
Barefoot Nursery,Fayetteville,Sampson,35.153827,-78.251475,1280,Swine - Feeder to Finish,3
National Spinning Farm,Wilmington,Duplin,34.9033,-77.7533,1267,Swine - Wean to Feeder,2
J. K. Barnhill Sumner Farm,Wilmington,Pender,34.4886,-78.05,1266,Swine - Wean to Feeder,2
Mack L. Grady Farm,Washington,Wayne,35.200973,-77.828312,1260,Swine - Feeder to Finish,3
7177,Fayetteville,Scotland,34.770465,-79.389701,1256,Swine - Feeder to Finish,3
2147,Wilmington,Duplin,34.9875,-77.9097,1256,Swine - Feeder to Finish,3
2149,Wilmington,Duplin,34.9525,-78.1367,1256,Swine - Feeder to Finish,3
Rosewood Swine Farms LLC,Washington,Jones,35.1278,-77.3411,1255,Swine - Feeder to Finish,3
Pope's Pig Palace,Fayetteville,Sampson,35.022829,-78.247543,1250,Swine - Farrow to Wean,1
Byrum Farm,Washington,Gates,36.492385,-76.67016,1240,Swine - Feeder to Finish,3
Oak Springs Sow Farm,Fayetteville,Bladen,34.531375,-78.4903,1238,Swine - Farrow to Wean,1
Jenkins Farm Inc,Wilmington,Onslow,34.7508,-77.6614,1233,Swine - Wean to Feeder,2
Billy Oxendine Farm,Fayetteville,Robeson,34.751078,-79.149075,1224,Multiple,7
Rodlee Pork Inc.,Washington,Hyde,35.658175,-76.58175,1220,Swine - Farrow to Wean,1
"Nash Pigg Rentals, LLC Rock Ridge II",Raleigh,Wilson,35.7247,-78.0697,1217,Swine - Farrow to Wean,1
5M Farms,Fayetteville,Sampson,35.133108,-78.505519,1200,Swine - Wean to Feeder,2
Jet Nursery,Washington,Wayne,35.337633,-77.956136,1200,Swine - Feeder to Finish,3
T & T Farm,Fayetteville,Anson,34.850075,-80.167827,1192,Swine - Feeder to Finish,3
Rick and William Lanier Farm,Wilmington,Duplin,34.8542,-77.7,1192,Swine - Wean to Feeder,2
Romeo Weston Farm,Wilmington,Duplin,35.0833,-77.7544,1191,Swine - Feeder to Finish,3
W & W Farms,Wilmington,Brunswick,33.9667,-78.4972,1172,Swine - Farrow to Finish,5
"Oak Grove Farm of Duplin, Inc.",Wilmington,Duplin,34.7847,-78.1331,1165,Swine - Wean to Feeder,2
Farm 6707,Fayetteville,Hoke,34.9985,-79.389475,1165,Swine - Feeder to Finish,3
Deerfield Farm,Fayetteville,Moore,35.321075,-79.640622,1163,Swine - Feeder to Finish,3
Indian Hills Farm,Fayetteville,Moore,35.325533,-79.645658,1163,Swine - Feeder to Finish,3
William Lane Swine Farms,Washington,Greene,35.5028,-77.6711,1162,Swine - Wean to Feeder,2
Nash Pigg Inc.,Raleigh,Nash,36.046542,-77.990785,1157,Swine - Wean to Feeder,2
Legacy  Sow Farm,Wilmington,Duplin,35.035624,-77.963323,1149,Multiple,7
Randy Gray's Isolation Farm,Washington,Wayne,35.4655,-77.8287,1138,Swine - Wean to Feeder,2
Holly Ridge Farm,Fayetteville,Moore,35.317805,-79.625661,1131,Swine - Feeder to Finish,3
Butler Island Farm,Fayetteville,Sampson,34.9233,-78.5442,1125,Swine - Feeder to Finish,3
Thomas Hardy Farms,Washington,Greene,35.5247,-77.5819,1121,Swine - Wean to Feeder,2
James E. Lancaster Farm,Raleigh,Edgecombe,35.865372,-77.780158,1118,Swine - Feeder to Finish,3
English Farms,Wilmington,Pender,34.582087,-77.938011,1116,Swine - Farrow to Feeder,4
Charles Locklear Farm,Fayetteville,Hoke,34.848488,-79.2939,1116,Swine - Wean to Feeder,2
SHW Sow Farm 1,Fayetteville,Sampson,34.91125,-78.352119,1096,Swine - Wean to Feeder,2
"Spring Meadow Farm of Cumberland Co., LLC",Fayetteville,Cumberland,35.220389,-78.697892,1096,Swine - Feeder to Finish,3
Sandy Ridge Pork,Raleigh,Johnston,35.3526,-78.3416,1096,Swine - Wean to Feeder,2
Strickland Farms,Fayetteville,Sampson,34.866177,-78.297888,1088,Swine - Feeder to Finish,3
Sanders & Davis Farm Inc,Wilmington,Onslow,34.6386,-77.6111,1087,Swine - Farrow to Wean,1
Whitfield Livestock #2,Fayetteville,Sampson,35.184377,-78.305969,1084,Swine - Feeder to Finish,3
Doug Herring Farm,Washington,Lenoir,35.1879,-77.72738,1084,Swine - Feeder to Finish,3
T.E. Dawson Farm,Washington,Greene,35.5,-77.7833,1084,Swine - Feeder to Finish,3
Burnette Farms,Washington,Pitt,35.6849,-77.631889,1083,Swine - Feeder to Finish,3
Loflin Farms,Winston-Salem,Davidson,35.5978,-80.0692,1066,Swine - Wean to Feeder,2
Sutton Bros Inc,Washington,Wayne,35.246672,-77.850703,1065,Swine - Wean to Feeder,2
Cherry Research Farm,Washington,Wayne,35.3769,-78.0311,1065,Swine - Feeder to Finish,3
Wilbur Creech Farm,Raleigh,Johnston,35.7683,-78.2433,1065,Swine - Feeder to Finish,3
Riverview Farms,Fayetteville,Cumberland,34.860658,-78.803694,1055,Swine - Wean to Finish,6
Windy Ammons Farm,Fayetteville,Richmond,34.942814,-79.62795,1050,Swine - Feeder to Finish,3
Crantock Farm,Raleigh,Johnston,35.5261,-78.4582,1046,Multiple,7
K6 Nursery,Wilmington,Pender,34.6721,-77.961,1040,Swine - Feeder to Finish,3
Robert Wooten Jr. Farm,Washington,Lenoir,35.3694,-77.619475,1040,Swine - Feeder to Finish,3
Triple M Farms 3,Washington,Greene,35.4425,-77.5067,1040,Swine - Feeder to Finish,3
Collyn Beaman Farm,Washington,Greene,35.5344,-77.6228,1040,Swine - Wean to Feeder,2
Gay Farms,Washington,Greene,35.5703,-77.6808,1040,Swine - Feeder to Finish,3
Gary & Mike Sutton,Washington,Wayne,35.4358,-77.8411,1040,Swine - Farrow to Wean,1
P-15,Fayetteville,Bladen,34.520541,-78.616397,1032,Swine - Farrow to Wean,1
P-21,Fayetteville,Sampson,34.894902,-78.206069,1032,Swine - Feeder to Finish,3
Ham Hock Farm,Fayetteville,Bladen,34.482519,-78.603244,1030,Swine - Farrow to Wean,1
L.E. Winslow & Son Farm,Washington,Pasquotank,36.4236,-76.3542,1030,Swine - Feeder to Finish,3
Miller Farm,Washington,Greene,35.4378,-77.5603,1028,Swine - Feeder to Finish,3
Allen Farm,Washington,Pitt,35.5994,-77.547789,1028,Swine - Feeder to Finish,3
"Lafayette Farms, LLC L-12",Fayetteville,Sampson,34.950247,-78.368911,1012,Swine - Feeder to Finish,3
Thornton Brothers,Raleigh,Johnston,35.2989,-78.3033,1000,Swine - Feeder to Finish,3
Greg Marshburn Farm,Washington,Jones,34.9894,-77.5353,1000,Swine - Feeder to Finish,3
D & K Farm,Fayetteville,Sampson,35.073363,-78.601933,996,Swine - Feeder to Finish,3
Straight Line Farms,Fayetteville,Sampson,35.074616,-78.464166,996,Swine - Wean to Feeder,2
Norshan Farm (Sow),Fayetteville,Sampson,35.098501,-78.46593,991,Swine - Feeder to Finish,3
M & M Hog Farm,Washington,Greene,35.501307,-77.53364,991,Swine - Wean to Finish,6
Summitt Sow Farm,Washington,Pitt,35.756,-77.345144,991,Swine - Wean to Feeder,2
Farm 8134,Washington,Hertford,36.359873,-77.073765,991,Swine - Feeder to Finish,3
Farm 8532,Raleigh,Northampton,36.4772,-77.1353,991,Swine - Farrow to Wean,1
John Hobbs Farm,Washington,Perquimans,36.1089,-76.4794,977,Multiple,7
RLH Farm,Fayetteville,Sampson,35.060011,-78.4399,976,Swine - Feeder to Finish,3
Pridgen Finisher,Washington,Greene,35.3833,-77.6633,976,Swine - Farrow to Wean,1
Cox Brothers,Raleigh,Johnston,35.3373,-78.2688,975,Swine - Feeder to Finish,3
Evans & Sons Farm #2,Washington,Pitt,35.6437,-77.59196,965,Swine - Feeder to Finish,3
Evans & Sons Farm #1,Washington,Pitt,35.6465,-77.58801,965,Swine - Wean to Finish,6
Scott Farm,Wilmington,Onslow,34.8167,-77.3856,960,Swine - Farrow to Wean,1
Greg Marshburn Farms,Wilmington,Onslow,34.8403,-77.4272,960,Swine - Farrow to Wean,1
Jordan's Pig Farm,Wilmington,Onslow,34.8422,-77.2153,960,Swine - Farrow to Wean,1
Cedar Fork Farms,Wilmington,Duplin,34.8686,-77.6956,960,Swine - Feeder to Finish,3
Raynor's Nursery,Wilmington,Onslow,34.8964,-77.6108,960,Swine - Feeder to Finish,3
Kenneth R. Cox Farm,Wilmington,Onslow,34.9269,-77.5603,960,Swine - Farrow to Wean,1
B-Mack Farms LLC,Wilmington,Duplin,35.024122,-77.762322,960,Swine - Feeder to Finish,3
John Mohrfeld,Washington,Lenoir,35.0734,-77.685467,960,Swine - Feeder to Finish,3
Mark Dempsey Smith Farm 2,Washington,Lenoir,35.1422,-77.67927,960,Swine - Feeder to Finish,3
Mark Dempsey Smith Farm,Washington,Lenoir,35.148547,-77.679818,960,Swine - Farrow to Wean,1
William H. Warren Farm,Fayetteville,Sampson,35.165155,-78.495897,960,Swine - Feeder to Finish,3
Thornton Brothers 105,Raleigh,Johnston,35.3067,-78.3469,960,Swine - Feeder to Finish,3
Allen Unruh Farm,Washington,Craven,35.311,-77.270217,960,Swine - Wean to Feeder,2
Countryside Farm,Washington,Craven,35.3595,-77.279012,960,Swine - Farrow to Wean,1
Shayne Koehn Farm,Washington,Pitt,35.4106,-77.25542,960,Swine - Feeder to Finish,3
Pipeline Farm,Wilmington,Duplin,34.8178,-77.7239,959,Swine - Feeder to Finish,3
TDM 104 Richard Casey,Fayetteville,Sampson,35.162075,-78.319247,955,Swine - Feeder to Finish,3
Circle L,Fayetteville,Sampson,35.233688,-78.400047,950,Swine - Feeder to Finish,3
Swift Creek Farm,Washington,Pitt,35.4392,-77.298581,950,Swine - Feeder to Finish,3
Murray Farms Inc,Raleigh,Nash,35.905,-78.08,950,Swine - Feeder to Finish,3
Moore Farm,Raleigh,Nash,36.1056,-78.0167,950,Swine - Feeder to Finish,3
Farm 5171,Fayetteville,Scotland,34.656645,-79.444492,930,Swine - Farrow to Wean,1
242 Farm,Fayetteville,Cumberland,34.85195,-78.550383,925,Swine - Feeder to Finish,3
Ken Barfield Farm Inc,Wilmington,Duplin,35.1094,-77.9797,925,Swine - Feeder to Finish,3
Blanche Jones Farm,Wilmington,Duplin,35.0575,-78.0403,900,Swine - Feeder to Finish,3
Four Beez Sow Farm,Washington,Beaufort,35.4847,-76.7,897,Swine - Feeder to Finish,3
Ivey Johnson Farm,Raleigh,Johnston,35.45695,-78.48317,894,Swine - Feeder to Finish,3
Wayne Wrench Farm,Fayetteville,Sampson,35.141827,-78.551555,893,Swine - Feeder to Finish,3
Barefoot Farm,Fayetteville,Sampson,34.643616,-78.268997,891,Swine - Farrow to Wean,1
Boyd & Son's Pig Nursery,Wilmington,Brunswick,34.1358,-78.5067,888,Swine - Wean to Feeder,2
Juniper Creek,Wilmington,Brunswick,34.139614,-78.511167,888,Swine - Wean to Feeder,2
Eddie Johnson #2,Fayetteville,Robeson,34.437667,-79.161942,888,Swine - Wean to Feeder,2
Pug & Sugs Farm,Wilmington,Columbus,34.4606,-78.8864,888,Swine - Wean to Feeder,2
George McLean Farm (new/southwest)(Double D#2),Fayetteville,Robeson,34.468236,-79.235828,888,Swine - Wean to Feeder,2
George McLean Farm (new/northeast)(Double D#1),Fayetteville,Robeson,34.471731,-79.230856,888,Swine - Wean to Feeder,2
William Davis Farm,Fayetteville,Robeson,34.605803,-79.324092,888,Swine - Wean to Feeder,2
Larson Jones Farm,Fayetteville,Bladen,34.718408,-78.394941,888,Swine - Boar/Stud,8
Vida Loco,Wilmington,Duplin,34.810109,-77.68757,888,Swine - Feeder to Finish,3
Nicken Farm I,Fayetteville,Bladen,34.837275,-78.568391,888,Swine - Feeder to Finish,3
Gold Creek Farm,Fayetteville,Anson,34.845508,-80.10178,888,Swine - Farrow to Wean,1
Gold Creek Farms #2,Fayetteville,Anson,34.863761,-80.024744,888,Swine - Wean to Feeder,2
Kenneth Brown Farm,Wilmington,Duplin,34.8725,-77.9361,888,Swine - Wean to Feeder,2
Raeford Livestock Farms Inc.,Fayetteville,Hoke,34.880166,-79.318877,888,Swine - Feeder to Finish,3
Nicken Farm II,Fayetteville,Sampson,34.892766,-78.523009,888,Swine - Farrow to Wean,1
Liberty Farm,Wilmington,Duplin,34.899097,-77.920786,888,Swine - Feeder to Finish,3
Live Oak Farms #2,Fayetteville,Anson,34.907125,-80.0411,888,Swine - Feeder to Finish,3
Live Oak Farms #1,Fayetteville,Anson,34.908397,-80.047794,888,Swine - Wean to Feeder,2
Hugs Pigs,Fayetteville,Robeson,34.926703,-79.053233,888,Swine - Feeder to Finish,3
Limestone Creek Farm,Wilmington,Duplin,34.9469,-77.7864,888,Swine - Feeder to Finish,3
Paradise Farms #2,Wilmington,Duplin,34.967978,-77.722747,888,Swine - Feeder to Finish,3
M & C Nursery,Wilmington,Duplin,34.978311,-77.977501,888,Swine - Feeder to Finish,3
Upchurch & Willis / C & M Farm,Fayetteville,Hoke,34.990383,-79.201902,888,Swine - Feeder to Finish,3
Wet Oak Farm,Wilmington,Duplin,35.0358,-78.1342,888,Swine - Feeder to Finish,3
403 Piglets,Fayetteville,Sampson,35.041283,-78.278372,888,Swine - Wean to Feeder,2
Wiley D's Farm,Fayetteville,Sampson,35.098652,-78.492911,888,Swine - Feeder to Finish,3
Pee Dee Farm,Fayetteville,Richmond,35.102819,-79.9883,888,Swine - Feeder to Finish,3
Mark Harper Farm,Wilmington,Duplin,35.1033,-77.84,888,Swine - Wean to Feeder,2
Kevin Martin Farm,Fayetteville,Anson,35.156219,-80.11625,888,Swine - Feeder to Finish,3
Eric Jones Farm,Raleigh,Lee,35.3386,-79.2175,888,Swine - Feeder to Finish,3
Rickie Norris Farm,Raleigh,Johnston,35.372244,-78.469808,888,Swine - Feeder to Finish,3
"D & B Nursery, Site # 2 (5-8)",Wilmington,Duplin,34.9528,-77.8289,888,Swine - Feeder to Finish,3
Spring Meadow Farm,Raleigh,Johnston,35.5444,-78.3379,884,Swine - Feeder to Finish,3
Phil Creech Livestock,Wilmington,Columbus,34.436037,-78.643074,880,Swine - Wean to Feeder,2
Louis Winfree Farm,Fayetteville,Anson,35.039052,-80.063219,880,Swine - Feeder to Finish,3
Davis Bland Farm,Wilmington,Duplin,34.9181,-77.9003,880,Swine - Wean to Feeder,2
"Jones Family Farms, LLC",Washington,Wayne,35.5708,-78.005,875,Swine - Wean to Feeder,2
Sinclair Farms,Fayetteville,Sampson,35.118047,-78.349058,856,Swine - Wean to Feeder,2
Watha Farm K-6,Wilmington,Pender,34.6725,-77.9611,855,Swine - Wean to Feeder,2
Alpha Edwards Farm,Wilmington,Duplin,34.9125,-77.6997,840,Swine - Farrow to Wean,1
Benson Hog Farm,Washington,Lenoir,35.1591,-77.72359,840,Swine - Feeder to Finish,3
Whitted-King Farm,Wilmington,Duplin,35.1717,-78.1372,840,Swine - Feeder to Finish,3
Ross Barefoot,Fayetteville,Sampson,35.259019,-78.480675,840,Swine - Feeder to Finish,3
Joe Dan Pope & Son,Fayetteville,Sampson,35.066822,-78.218111,838,Swine - Wean to Finish,6
Frank Howard Farm,Washington,Jones,35.0081,-77.5878,835,Swine - Feeder to Finish,3
Felton Hobbs Farm,Fayetteville,Sampson,35.109211,-78.303333,830,Multiple,7
Tar Heel Swine,Fayetteville,Richmond,35.11705,-79.721867,825,Swine - Feeder to Finish,3
Bogue Farm II,Wilmington,Columbus,34.3842,-78.5961,822,Swine - Farrow to Wean,1
"Robco Farms, LLC",Fayetteville,Robeson,34.442981,-79.167694,822,Swine - Farrow to Wean,1
Farm 7668,Fayetteville,Scotland,34.807225,-79.510195,822,Swine - Farrow to Feeder,4
"T&W Family Farms, LLC",Wilmington,Duplin,34.8367,-78.11,822,Swine - Feeder to Finish,3
Boone Family Farms,Wilmington,Duplin,34.8383,-78.1375,822,Swine - Wean to Feeder,2
Howard Farms - Sow,Wilmington,Onslow,34.8469,-77.4903,822,Swine - Wean to Feeder,2
Mike Hope Sow Farm,Fayetteville,Sampson,34.906958,-78.33758,822,Swine - Feeder to Finish,3
White Oak River Farms - Hoffman Sow Farm,Washington,Jones,34.925958,-77.372446,822,Swine - Feeder to Finish,3
Dail Farms Inc,Wilmington,Duplin,35.065425,-77.942881,822,Swine - Wean to Feeder,2
We Dig Pigs,Washington,Lenoir,35.135,-77.76255,822,Swine - Wean to Feeder,2
"KLS Swine Farm, LLC",Winston-Salem,Randolph,35.8119,-79.6272,822,Swine - Wean to Feeder,2
Archer Farms,Washington,Wayne,35.2403,-78.1819,822,Swine - Feeder to Finish,3
Shan Spivey Topping Operation,Wilmington,Columbus,34.1903,-78.7958,813,Swine - Feeder to Finish,3
James Braxton Rouse Farm 2,Washington,Lenoir,35.1785,-77.82402,813,Swine - Feeder to Finish,3
Glenn Honeycutt Farm,Raleigh,Johnston,35.518516,-78.536142,813,Swine - Feeder to Finish,3
Randall Lewis Farm 2,Winston-Salem,Alamance,35.87,-79.3033,813,Swine - Feeder to Finish,3
Blue Rose 4,Raleigh,Northampton,36.3983,-77.2731,813,Swine - Feeder to Finish,3
Long's Hog Farm,Raleigh,Northampton,36.44,-77.3633,813,Swine - Feeder to Finish,3
Paul Lilley Farm,Washington,Gates,36.4175,-76.7622,808,Multiple,7
Kevin Bostic Farm sites 1&2,Wilmington,Duplin,34.859523,-77.894099,800,Swine - Feeder to Finish,3
Terry Miller Farm sites 1&2,Wilmington,Duplin,34.875,-77.8667,800,Swine - Feeder to Finish,3
D & C Farms,Wilmington,Duplin,34.8944,-77.7136,800,Swine - Feeder to Finish,3
White Oak River Farms (Forrest Nursery),Washington,Jones,34.9181,-77.3708,800,Swine - Wean to Feeder,2
K&T Farms,Fayetteville,Sampson,35.023202,-78.432261,800,Swine - Wean to Feeder,2
Bacon Bits,Fayetteville,Sampson,35.137619,-78.492144,800,Swine - Feeder to Finish,3
Ricky Kornegay,Wilmington,Duplin,35.1389,-77.8347,800,Swine - Feeder to Finish,3
Beulahland Farm,Washington,Wayne,35.185,-77.8347,800,Swine - Farrow to Feeder,4
C&S Little Pigs,Washington,Wayne,35.2261,-78.1597,800,Swine - Feeder to Finish,3
P & D Nursery,Washington,Wayne,35.2786,-78.1169,800,Swine - Feeder to Finish,3
Ronnie Lee Dawson Farm,Washington,Wayne,35.2958,-77.9025,800,Swine - Feeder to Finish,3
R & T Eldridge Farms,Raleigh,Johnston,35.2986,-78.3936,800,Swine - Farrow to Wean,1
Little Squealers Nursery,Washington,Craven,35.3762,-77.292729,800,Swine - Feeder to Finish,3
Daw & Son Farm,Washington,Wayne,35.4736,-77.9433,800,Swine - Feeder to Finish,3
C&G Swine,Washington,Wayne,35.4922,-77.8894,800,Swine - Wean to Feeder,2
B&P Pig Farm,Washington,Wayne,35.4961,-77.8883,800,Swine - Wean to Feeder,2
Spencer Heritage Farms Nursery,Washington,Wayne,35.5642,-77.8803,800,Swine - Feeder to Finish,3
Elsie and Nick Herring Nursery,Wilmington,Duplin,35.0625,-77.8969,800,Swine - Farrow to Wean,1
Ann Herring Farm,Wilmington,Duplin,35.0867,-77.8106,800,Swine - Farrow to Finish,5
Reedy Branch Farm,Fayetteville,Bladen,34.539161,-78.82878,797,Multiple,7
Triple R Hog Farm,Washington,Wayne,35.2008,-77.9069,795,Swine - Wean to Feeder,2
P-2333 House 9,Wilmington,Duplin,35.0061,-77.8997,786,Swine - Feeder to Finish,3
Elder Creek Farm,Wilmington,Duplin,34.9008,-78.0125,780,Swine - Feeder to Finish,3
J. Thomas Howard & Sons Farm - Sow,Fayetteville,Sampson,35.099044,-78.565775,780,Swine - Feeder to Finish,3
Mike Hope Nursery,Fayetteville,Sampson,34.83895,-78.339738,775,Swine - Feeder to Finish,3
Coles Farms Inc.- North Pork,Washington,Washington,35.8161,-76.5947,767,Swine - Feeder to Finish,3
A & A Farm,Fayetteville,Bladen,34.679069,-78.366355,760,Swine - Wean to Feeder,2
Lamb Farms,Fayetteville,Sampson,34.886883,-78.326247,760,Swine - Feeder to Finish,3
Cannady's Bacon,Fayetteville,Sampson,35.083344,-78.427588,760,Swine - Farrow to Feeder,4
N&J Butler Pig Farm,Fayetteville,Sampson,35.108847,-78.413719,760,Swine - Wean to Feeder,2
Jay Sullivan & Son Farm Nursery,Fayetteville,Sampson,35.204991,-78.182586,760,Swine - Feeder to Finish,3
Minnie Edwards Farm,Fayetteville,Sampson,35.240255,-78.29143,760,Swine - Farrow to Wean,1
Double K Farms,Fayetteville,Sampson,34.74388,-78.252302,754,Swine - Wean to Feeder,2
Sampson Sow Farm,Fayetteville,Sampson,35.032752,-78.568731,754,Swine - Feeder to Finish,3
Edsel Bennett Feeder Pig Farm,Winston-Salem,Stokes,36.4669,-80.1675,744,Swine - Farrow to Wean,1
"Triple B Hog Farms, LLC",Wilmington,Duplin,35.15,-77.8819,742,Swine - Feeder to Finish,3
"D & B Nursery, Site # 2 (1-4)",Wilmington,Duplin,34.947151,-77.83011,740,Swine - Feeder to Finish,3
Steve Sanders Farm,Washington,Craven,35.288,-77.406897,740,Swine - Feeder to Finish,3
Bobby Britt Farm,Wilmington,Duplin,35.1033,-77.8022,740,Swine - Farrow to Finish,5
Barber McLamb Farm,Raleigh,Johnston,35.446769,-78.563904,736,Swine - Wean to Feeder,2
A & P South,Fayetteville,Sampson,34.668088,-78.253336,729,Swine - Feeder to Finish,3
Wayne Rouse & Doug Hill Farm,Washington,Lenoir,35.3201,-77.77202,711,Swine - Feeder to Finish,3
Cornfed II,Wilmington,Duplin,35.0233,-77.79,702,Swine - Feeder to Finish,3
Cornfed I,Wilmington,Duplin,35.0278,-77.7797,702,Swine - Feeder to Finish,3
M & D Sow Farm,Wilmington,Pender,34.5553,-78.0389,685,Swine - Farrow to Wean,1
Moody Farms LLC,Washington,Lenoir,35.1938,-77.69627,685,Swine - Feeder to Finish,3
Craig Farm #2,Washington,Wayne,35.2917,-78.0794,685,Swine - Feeder to Finish,3
Swift Creek Hog Farm,Raleigh,Nash,36.0864,-77.735,685,Swine - Feeder to Finish,3
P-9 w/ Isolation,Fayetteville,Sampson,34.905312,-78.358463,683,Swine - Feeder to Finish,3
Jenkins Farm,Raleigh,Northampton,36.374509,-77.277254,678,Swine - Farrow to Finish,5
Greg Taylor Farm,Raleigh,Northampton,36.4067,-77.3289,678,Swine - Farrow to Wean,1
Tar Kiln Farm (Gooden #3),Fayetteville,Bladen,34.585325,-78.674444,660,Swine - Wean to Feeder,2
Charles Aycock #1,Wilmington,Duplin,34.7583,-77.7333,660,Swine - Wean to Feeder,2
Jenni Farm 3,Wilmington,Duplin,34.7803,-77.9886,660,Swine - Feeder to Finish,3
Injun Run,Wilmington,Duplin,34.999999,-77.834099,660,Swine - Wean to Feeder,2
Chapman Nursery,Washington,Greene,35.393284,-77.570149,660,Swine - Feeder to Finish,3
NH Herring Farm,Wilmington,Duplin,35.0494,-77.9878,660,Swine - Farrow to Wean,1
"Morgan Farms, Inc.",Washington,Lenoir,35.1379,-77.666883,658,Swine - Feeder to Finish,3
Fennell Nursery 3,Wilmington,Pender,34.444767,-77.960467,650,Swine - Wean to Feeder,2
Walter B. Nursery,Fayetteville,Bladen,34.559986,-78.578311,650,Swine - Wean to Feeder,2
Kenneth Kinlaw #4,Fayetteville,Bladen,34.580766,-78.709472,650,Swine - Wean to Feeder,2
Cowford Nursery Farm,Fayetteville,Bladen,34.589255,-78.674541,650,Swine - Wean to Feeder,2
White Bay Nursery Farm,Fayetteville,Bladen,34.589561,-78.666391,650,Swine - Wean to Feeder,2
Clay Hill Farms,Fayetteville,Bladen,34.590297,-78.681386,650,Swine - Wean to Feeder,2
Twisted Hickory,Fayetteville,Bladen,34.594805,-78.684583,650,Swine - Wean to Feeder,2
Little Crib,Fayetteville,Bladen,34.599005,-78.689677,650,Swine - Wean to Feeder,2
A & G Smith Farms #3,Wilmington,Pender,34.6458,-78.1342,650,Swine - Farrow to Wean,1
Wade Blackburn Farm,Fayetteville,Sampson,34.668,-78.198588,650,Swine - Farrow to Wean,1
Turkey Oaks Nursery,Fayetteville,Bladen,34.684291,-78.642211,650,Swine - Feeder to Finish,3
Yorick Nursery,Fayetteville,Bladen,34.689216,-78.645408,650,Swine - Farrow to Wean,1
Red Oak Nursery,Fayetteville,Bladen,34.708602,-78.820008,650,Swine - Feeder to Finish,3
Jerry Michael Walker Farm,Wilmington,Duplin,34.730108,-77.772947,650,Swine - Feeder to Finish,3
Melvin Farms,Fayetteville,Sampson,34.73418,-78.258891,650,Swine - Feeder to Finish,3
Squirrel Hill Farm,Fayetteville,Bladen,34.739644,-78.718444,650,Swine - Feeder to Finish,3
Sandy Wooten Farms,Wilmington,Duplin,34.741541,-77.698713,650,Swine - Feeder to Finish,3
George Hall Nursery,Fayetteville,Bladen,34.741797,-78.600136,650,Swine - Feeder to Finish,3
Brown & Mobley Farm,Wilmington,Duplin,34.7453,-77.6931,650,Swine - Feeder to Finish,3
Walton Brothers Nursery,Wilmington,Onslow,34.7464,-77.6239,650,Swine - Feeder to Finish,3
J & D Sholar Farm #4,Wilmington,Duplin,34.7494,-77.7956,650,Swine - Wean to Feeder,2
Sholar #3,Wilmington,Duplin,34.7517,-77.7914,650,Swine - Wean to Feeder,2
Longstreet Nursery,Fayetteville,Bladen,34.752336,-78.42523,650,Swine - Feeder to Finish,3
Charles Aycock #2 (Mitchell Nursery),Wilmington,Duplin,34.753908,-77.739906,650,Swine - Feeder to Finish,3
Melvin Nursery #3,Fayetteville,Bladen,34.756116,-78.480377,650,Swine - Farrow to Wean,1
Melvin Nursery #1,Fayetteville,Bladen,34.760661,-78.481497,650,Swine - Farrow to Wean,1
Herbert Aycock Farm,Wilmington,Duplin,34.7619,-77.731,650,Swine - Feeder to Finish,3
Linwood Jenkins Farm,Wilmington,Duplin,34.7636,-77.7408,650,Swine - Wean to Feeder,2
Lori Mobley Nursery,Wilmington,Onslow,34.7653,-77.6589,650,Swine - Feeder to Finish,3
Dan B. Nursery,Wilmington,Duplin,34.7662,-77.79864,650,Swine - Feeder to Finish,3
Ray Nursery,Fayetteville,Bladen,34.776102,-78.497697,650,Swine - Feeder to Finish,3
Harvey Coble Nursery,Fayetteville,Bladen,34.780672,-78.496988,650,Swine - Feeder to Finish,3
John Hardison Jr,Wilmington,Duplin,34.782226,-77.983596,650,Swine - Feeder to Finish,3
Old Camps Farm- Site 4,Wilmington,Duplin,34.7922,-78.1544,650,Swine - Farrow to Wean,1
Sling Shaw Farm,Fayetteville,Bladen,34.800433,-78.562763,650,Swine - Feeder to Finish,3
South River Nursery,Fayetteville,Bladen,34.805708,-78.466488,650,Swine - Wean to Feeder,2
Pierce Nursery,Wilmington,Duplin,34.8069,-77.7958,650,Swine - Farrow to Wean,1
James Michael Batts Farm,Wilmington,Duplin,34.8083,-77.7417,650,Swine - Feeder to Finish,3
Oliver Livestock,Fayetteville,Sampson,34.842003,-78.395361,650,Swine - Feeder to Finish,3
Allen Cannady Farm #2,Fayetteville,Sampson,34.845069,-78.379272,650,Swine - Wean to Feeder,2
JRock 3,Fayetteville,Sampson,34.845438,-78.355986,650,Swine - Wean to Feeder,2
DW & F #2,Fayetteville,Sampson,34.854783,-78.306675,650,Swine - Farrow to Wean,1
Chris Drew Nursery,Wilmington,Duplin,34.8553,-78.0986,650,Swine - Feeder to Finish,3
Pig Life III,Wilmington,Duplin,34.8571,-77.8934,650,Swine - Feeder to Finish,3
Pig Life I,Wilmington,Duplin,34.857872,-77.915526,650,Swine - Feeder to Finish,3
Tommy Melvin Farm #2,Fayetteville,Sampson,34.85803,-78.428672,650,Swine - Feeder to Finish,3
Blue Clay Nursery,Wilmington,Duplin,34.859811,-77.817853,650,Swine - Feeder to Finish,3
Pig Life II,Wilmington,Duplin,34.8617,-77.8931,650,Swine - Farrow to Wean,1
Wayne Watts Farm,Fayetteville,Sampson,34.867694,-78.325011,650,Swine - Wean to Feeder,2
Elizabeth Watts Farm,Fayetteville,Sampson,34.868994,-78.310906,650,Swine - Wean to Feeder,2
ADJ Nursery #4,Fayetteville,Sampson,34.90698,-78.470169,650,Swine - Wean to Feeder,2
Last Chance Pig Farm,Fayetteville,Sampson,34.948228,-78.5431,650,Swine - Wean to Finish,6
W. S. Matthews Farms,Wilmington,Duplin,34.9619,-78.0717,650,Swine - Feeder to Finish,3
Steve Jones Nursery,Wilmington,Duplin,34.9744,-77.7789,650,Swine - Feeder to Finish,3
Triple D Nursery,Fayetteville,Sampson,34.978338,-78.533797,650,Swine - Feeder to Finish,3
JBK,Fayetteville,Sampson,34.984416,-78.432794,650,Swine - Feeder to Finish,3
Boneys Hog Farm #11,Fayetteville,Sampson,35.003816,-78.392352,650,Swine - Feeder to Finish,3
Sutton III Nursery,Wilmington,Duplin,35.0072,-78.025,650,Swine - Farrow to Feeder,4
Pig City,Wilmington,Duplin,35.0139,-78.0294,650,Swine - Feeder to Finish,3
SJ & A Farm,Wilmington,Duplin,35.0333,-77.8861,650,Swine - Feeder to Finish,3
Gerald's Nursery,Wilmington,Duplin,35.042344,-77.956433,650,Swine - Farrow to Wean,1
Paulette's Nursery,Wilmington,Duplin,35.0433,-77.9567,650,Swine - Feeder to Finish,3
Lindsey Pope House #9,Fayetteville,Sampson,35.070988,-78.4078,650,Swine - Wean to Feeder,2
Moss Hill Farm,Washington,Craven,35.2549,-77.213667,650,Swine - Feeder to Finish,3
Double C Too,Washington,Greene,35.4583,-77.7836,650,Swine - Wean to Feeder,2
S & K Nursery 2,Washington,Greene,35.4631,-77.7631,650,Swine - Feeder to Finish,3
Joyce & Jesse Oakes Nursery #2 -Nahunta #2,Washington,Greene,35.497062,-77.77155,650,Swine - Feeder to Finish,3
J&T Nursery,Wilmington,Duplin,34.8603,-77.8128,650,Swine - Farrow to Feeder,4
Millertown Farm,Wilmington,Duplin,34.9278,-77.8161,650,Swine - Feeder to Finish,3
Dail Brothers - Pig Crib Nursery,Wilmington,Duplin,34.9708,-78.0292,650,Swine - Farrow to Wean,1
Dark Branch Farm,Wilmington,Duplin,35.0097,-77.9175,650,Swine - Farrow to Wean,1
Charles Chapman Nursery #1 - Nahunta #1,Washington,Greene,35.5,-77.7717,650,Swine - Wean to Finish,6
Carlisle Farms Inc,Fayetteville,Sampson,35.067889,-78.616111,630,Swine - Wean to Feeder,2
Stallings Family Farm,Washington,Chowan,36.3261,-76.5708,626,Swine - Feeder to Finish,3
Brent Riggs Farm,Washington,Jones,34.9419,-77.3189,625,Swine - Wean to Feeder,2
Doug Bordeaux Farm #1,Fayetteville,Bladen,34.650536,-78.549316,621,Swine - Feeder to Finish,3
Sheral Daniels Farm,Fayetteville,Sampson,35.125736,-78.522872,619,Swine - Wean to Feeder,2
Blue Ribbon Swine,Fayetteville,Moore,35.400741,-79.452463,600,Swine - Feeder to Finish,3
Garland Sow Farm,Fayetteville,Sampson,34.803041,-78.419111,580,Swine - Feeder to Finish,3
7097 - Gibson Farm,Fayetteville,Scotland,34.769574,-79.562001,576,Swine - Feeder to Finish,3
Pig Paradise,Washington,Craven,35.2872,-77.3851,562,Swine - Feeder to Finish,3
Dixie Farms,Fayetteville,Moore,35.451186,-79.475536,552,Swine - Feeder to Finish,3
Askin Boar Stud,Washington,Craven,35.2139,-77.003442,538,Swine - Feeder to Finish,3
R&R Pork Farm,Fayetteville,Hoke,35.003227,-79.318591,527,Swine - Feeder to Finish,3
Px-10,Fayetteville,Bladen,34.510091,-78.751577,515,Swine - Farrow to Wean,1
Pineland Grain Co Farm,Fayetteville,Bladen,34.614791,-78.784527,515,Swine - Farrow to Wean,1
P-58,Fayetteville,Sampson,34.899091,-78.223441,515,Swine - Feeder to Finish,3
P-42,Fayetteville,Sampson,34.906008,-78.520419,515,Swine - Feeder to Finish,3
P-13,Fayetteville,Sampson,34.923838,-78.419369,515,Swine - Wean to Feeder,2
Px-8,Fayetteville,Sampson,34.940236,-78.255402,515,Swine - Farrow to Wean,1
Craig Farms,Washington,Wayne,35.3489,-78.1169,515,Swine - Feeder to Finish,3
Shepard Farm,Wilmington,Onslow,34.5269,-77.5919,514,Swine - Farrow to Wean,1
Morrell Farm,Wilmington,Duplin,34.984385,-77.70806,514,Swine - Feeder to Finish,3
White Ridge Farm,Raleigh,Warren,36.5361,-78.2086,514,Swine - Feeder to Finish,3
Douglas E. Cowan Farms,Washington,Craven,35.2163,-77.0575,493,Swine - Feeder to Finish,3
Central Crops Research Station,Raleigh,Johnston,35.670666,-78.514883,453,Swine - Wean to Finish,6
Ivey's Spring Creek Farm,Washington,Wayne,35.2439,-77.945,445,Swine - Feeder to Finish,3
Philco Farms,Wilmington,Onslow,34.7872,-77.6261,444,Swine - Feeder to Finish,3
"D and B Nursery, Site # 1",Wilmington,Duplin,34.9856,-77.9328,444,Swine - Feeder to Finish,3
Doug Herring Farm,Wilmington,Duplin,35.0731,-77.8406,444,Swine - Farrow to Wean,1
Sullivan Poultry,Fayetteville,Richmond,35.009406,-79.710894,440,Swine - Wean to Feeder,2
K & T Farm,Wilmington,Duplin,35.0758,-77.8389,440,Swine - Feeder to Finish,3
Robert Cox Green Farm,Washington,Jones,35.0686,-77.445,411,Swine - Feeder to Finish,3
Elroy Farm,Washington,Wayne,35.3272,-77.9011,411,Swine - Feeder to Finish,3
Robersonville Boar Stud Farm,Washington,Martin,35.836863,-77.221698,403,Swine - Feeder to Finish,3
Lenior Boar Stud,Washington,Lenoir,35.0509,-77.6606,399,Swine - Feeder to Finish,3
Lenoir Swine Breeders Inc,Washington,Lenoir,35.1833,-77.69798,377,Swine - Feeder to Finish,3
S & K Nursery,Washington,Greene,35.396999,-77.592801,370,Swine - Wean to Feeder,2
Craig Collins Farm,Fayetteville,Sampson,34.66978,-78.293844,353,Swine - Feeder to Finish,3
Williamston Boar Stud Farm,Washington,Martin,35.8783,-77.138489,353,Swine - Wean to Finish,6
Middlesex Sow Farm,Raleigh,Nash,35.8568,-78.1358,330,Swine - Feeder to Finish,3
Hill Farms 2,Raleigh,Nash,35.9022,-77.9617,308,Swine - Feeder to Finish,3
Davis Nursery,Fayetteville,Sampson,34.995886,-78.409569,300,Swine - Wean to Feeder,2
James Frank Williams,Fayetteville,Sampson,35.045619,-78.648836,300,Swine - Feeder to Finish,3
Wooten Farm,Wilmington,Columbus,34.4381,-78.7347,279,Swine - Farrow to Feeder,4
Dail Hog Farm,Washington,Lenoir,35.3314,-77.697586,279,Swine - Wean to Feeder,2
Sampson Boar Stud / Farm 78060,Fayetteville,Sampson,34.708861,-78.345352,266,Swine - Feeder to Finish,3
Bladen Boar Stud,Fayetteville,Bladen,34.847997,-78.786366,266,Swine - Feeder to Finish,3
Cow Pen Branch Farm,Washington,Craven,35.1801,-77.211008,266,Swine - Farrow to Wean,1
Boarhead AI-Lab & Isolation,Washington,Wayne,35.3556,-77.8778,233,Swine - Feeder to Finish,3
NC A&T Porcine Research Laboratory,Winston-Salem,Guilford,36.0667,-79.7267,233,Swine - Feeder to Finish,3
Clinton A. I. Center,Fayetteville,Sampson,34.908402,-78.25845,223,Swine - Wean to Feeder,2
Piedmont L/S Co Farm,Winston-Salem,Alamance,36.1742,-79.4994,206,Swine - Feeder to Finish,3
Garland Brock Farm,Wilmington,Duplin,34.8975,-77.8836,180,Swine - Wean to Finish,6
"Lafayette Farms, LLC  New Nursery",Fayetteville,Sampson,34.907025,-78.364883,175,Swine - Farrow to Wean,1
Paul G. Hatley Hog Farm,Raleigh,Person,36.265,-79.0122,163,Swine - Feeder to Finish,3
Foushee Farms LLC,Raleigh,Person,36.3253,-79.0053,142,Multiple,7
Best AI - Boar,Washington,Wayne,35.2414,-77.9247,133,Swine - Feeder to Finish,3
